<?xml version="1.0" encoding="UTF-8"?>
<gpx creator="StravaGPX" version="1.1" xmlns="http://www.topografix.com/GPX/1/1" xmlns:xsi="http://www.w3.org/2001/XMLSchema-instance" xsi:schemaLocation="http://www.topografix.com/GPX/1/1 http://www.topografix.com/GPX/1/1/gpx.xsd">
 <metadata>
  <time>2026-09-02T07:16:39Z</time>
 </metadata>
 <trk>
  <name>0902_Justin</name>
  <type>running</type>
  <trkseg>
   <trkpt lat="22.7432120" lon="120.3386240">
    <ele>21.3</ele>
    <time>2026-09-02T07:16:39Z</time>
   </trkpt>
   <trkpt lat="22.7432120" lon="120.3386240">
    <ele>21.3</ele>
    <time>2026-09-02T07:16:40Z</time>
   </trkpt>
   <trkpt lat="22.7432120" lon="120.3386240">
    <ele>21.3</ele>
    <time>2026-09-02T07:16:41Z</time>
   </trkpt>
   <trkpt lat="22.7432120" lon="120.3386240">
    <ele>21.3</ele>
    <time>2026-09-02T07:16:42Z</time>
   </trkpt>
   <trkpt lat="22.7432120" lon="120.3386240">
    <ele>21.3</ele>
    <time>2026-09-02T07:16:43Z</time>
   </trkpt>
   <trkpt lat="22.7432120" lon="120.3386240">
    <ele>21.3</ele>
    <time>2026-09-02T07:16:44Z</time>
   </trkpt>
   <trkpt lat="22.7432120" lon="120.3386240">
    <ele>21.3</ele>
    <time>2026-09-02T07:16:45Z</time>
   </trkpt>
   <trkpt lat="22.7432120" lon="120.3386240">
    <ele>21.3</ele>
    <time>2026-09-02T07:16:46Z</time>
   </trkpt>
   <trkpt lat="22.7432120" lon="120.3386240">
    <ele>21.3</ele>
    <time>2026-09-02T07:16:47Z</time>
   </trkpt>
   <trkpt lat="22.7432120" lon="120.3386240">
    <ele>21.3</ele>
    <time>2026-09-02T07:16:48Z</time>
   </trkpt>
   <trkpt lat="22.7432120" lon="120.3386240">
    <ele>21.3</ele>
    <time>2026-09-02T07:16:49Z</time>
   </trkpt>
   <trkpt lat="22.7432120" lon="120.3386240">
    <ele>21.3</ele>
    <time>2026-09-02T07:16:50Z</time>
   </trkpt>
   <trkpt lat="22.7432210" lon="120.3386340">
    <ele>21.3</ele>
    <time>2026-09-02T07:16:51Z</time>
   </trkpt>
   <trkpt lat="22.7432260" lon="120.3386410">
    <ele>21.3</ele>
    <time>2026-09-02T07:16:52Z</time>
   </trkpt>
   <trkpt lat="22.7432310" lon="120.3386470">
    <ele>21.3</ele>
    <time>2026-09-02T07:16:53Z</time>
   </trkpt>
   <trkpt lat="22.7432360" lon="120.3386530">
    <ele>21.3</ele>
    <time>2026-09-02T07:16:54Z</time>
   </trkpt>
   <trkpt lat="22.7432550" lon="120.3386880">
    <ele>21.3</ele>
    <time>2026-09-02T07:16:55Z</time>
   </trkpt>
   <trkpt lat="22.7432640" lon="120.3387120">
    <ele>21.3</ele>
    <time>2026-09-02T07:16:56Z</time>
   </trkpt>
   <trkpt lat="22.7432900" lon="120.3387470">
    <ele>21.3</ele>
    <time>2026-09-02T07:16:57Z</time>
   </trkpt>
   <trkpt lat="22.7433040" lon="120.3387590">
    <ele>21.3</ele>
    <time>2026-09-02T07:16:58Z</time>
   </trkpt>
   <trkpt lat="22.7433390" lon="120.3387650">
    <ele>21.2</ele>
    <time>2026-09-02T07:16:59Z</time>
   </trkpt>
   <trkpt lat="22.7433690" lon="120.3387720">
    <ele>21.2</ele>
    <time>2026-09-02T07:17:00Z</time>
   </trkpt>
   <trkpt lat="22.7434180" lon="120.3387600">
    <ele>21.2</ele>
    <time>2026-09-02T07:17:01Z</time>
   </trkpt>
   <trkpt lat="22.7434580" lon="120.3387410">
    <ele>21.1</ele>
    <time>2026-09-02T07:17:02Z</time>
   </trkpt>
   <trkpt lat="22.7434890" lon="120.3387190">
    <ele>21.1</ele>
    <time>2026-09-02T07:17:03Z</time>
   </trkpt>
   <trkpt lat="22.7435150" lon="120.3386920">
    <ele>21.1</ele>
    <time>2026-09-02T07:17:04Z</time>
   </trkpt>
   <trkpt lat="22.7435400" lon="120.3386600">
    <ele>21.1</ele>
    <time>2026-09-02T07:17:05Z</time>
   </trkpt>
   <trkpt lat="22.7435610" lon="120.3386330">
    <ele>21.1</ele>
    <time>2026-09-02T07:17:06Z</time>
   </trkpt>
   <trkpt lat="22.7435790" lon="120.3386120">
    <ele>21.1</ele>
    <time>2026-09-02T07:17:07Z</time>
   </trkpt>
   <trkpt lat="22.7436010" lon="120.3385840">
    <ele>21.0</ele>
    <time>2026-09-02T07:17:08Z</time>
   </trkpt>
   <trkpt lat="22.7436180" lon="120.3385590">
    <ele>21.0</ele>
    <time>2026-09-02T07:17:09Z</time>
   </trkpt>
   <trkpt lat="22.7436280" lon="120.3385300">
    <ele>21.0</ele>
    <time>2026-09-02T07:17:10Z</time>
   </trkpt>
   <trkpt lat="22.7436410" lon="120.3385070">
    <ele>21.0</ele>
    <time>2026-09-02T07:17:11Z</time>
   </trkpt>
   <trkpt lat="22.7436540" lon="120.3384840">
    <ele>21.0</ele>
    <time>2026-09-02T07:17:12Z</time>
   </trkpt>
   <trkpt lat="22.7436650" lon="120.3384600">
    <ele>21.0</ele>
    <time>2026-09-02T07:17:13Z</time>
   </trkpt>
   <trkpt lat="22.7436740" lon="120.3384380">
    <ele>21.0</ele>
    <time>2026-09-02T07:17:14Z</time>
   </trkpt>
   <trkpt lat="22.7436820" lon="120.3384280">
    <ele>20.9</ele>
    <time>2026-09-02T07:17:15Z</time>
   </trkpt>
   <trkpt lat="22.7436910" lon="120.3384170">
    <ele>20.9</ele>
    <time>2026-09-02T07:17:16Z</time>
   </trkpt>
   <trkpt lat="22.7437020" lon="120.3384110">
    <ele>20.9</ele>
    <time>2026-09-02T07:17:17Z</time>
   </trkpt>
   <trkpt lat="22.7437120" lon="120.3384030">
    <ele>20.9</ele>
    <time>2026-09-02T07:17:18Z</time>
   </trkpt>
   <trkpt lat="22.7437200" lon="120.3383930">
    <ele>20.9</ele>
    <time>2026-09-02T07:17:19Z</time>
   </trkpt>
   <trkpt lat="22.7437300" lon="120.3383840">
    <ele>20.9</ele>
    <time>2026-09-02T07:17:20Z</time>
   </trkpt>
   <trkpt lat="22.7437400" lon="120.3383750">
    <ele>20.9</ele>
    <time>2026-09-02T07:17:21Z</time>
   </trkpt>
   <trkpt lat="22.7437480" lon="120.3383640">
    <ele>20.9</ele>
    <time>2026-09-02T07:17:22Z</time>
   </trkpt>
   <trkpt lat="22.7437590" lon="120.3383550">
    <ele>20.9</ele>
    <time>2026-09-02T07:17:23Z</time>
   </trkpt>
   <trkpt lat="22.7437670" lon="120.3383480">
    <ele>20.9</ele>
    <time>2026-09-02T07:17:24Z</time>
   </trkpt>
   <trkpt lat="22.7437780" lon="120.3383390">
    <ele>20.9</ele>
    <time>2026-09-02T07:17:25Z</time>
   </trkpt>
   <trkpt lat="22.7437900" lon="120.3383240">
    <ele>20.9</ele>
    <time>2026-09-02T07:17:26Z</time>
   </trkpt>
   <trkpt lat="22.7438020" lon="120.3383030">
    <ele>20.9</ele>
    <time>2026-09-02T07:17:27Z</time>
   </trkpt>
   <trkpt lat="22.7438140" lon="120.3382810">
    <ele>20.9</ele>
    <time>2026-09-02T07:17:28Z</time>
   </trkpt>
   <trkpt lat="22.7438270" lon="120.3382590">
    <ele>20.8</ele>
    <time>2026-09-02T07:17:29Z</time>
   </trkpt>
   <trkpt lat="22.7438410" lon="120.3382410">
    <ele>20.8</ele>
    <time>2026-09-02T07:17:30Z</time>
   </trkpt>
   <trkpt lat="22.7438530" lon="120.3382240">
    <ele>20.8</ele>
    <time>2026-09-02T07:17:31Z</time>
   </trkpt>
   <trkpt lat="22.7438660" lon="120.3382120">
    <ele>20.8</ele>
    <time>2026-09-02T07:17:32Z</time>
   </trkpt>
   <trkpt lat="22.7438770" lon="120.3382000">
    <ele>20.8</ele>
    <time>2026-09-02T07:17:33Z</time>
   </trkpt>
   <trkpt lat="22.7438870" lon="120.3381900">
    <ele>20.8</ele>
    <time>2026-09-02T07:17:34Z</time>
   </trkpt>
   <trkpt lat="22.7438980" lon="120.3381800">
    <ele>20.8</ele>
    <time>2026-09-02T07:17:35Z</time>
   </trkpt>
   <trkpt lat="22.7439100" lon="120.3381680">
    <ele>20.8</ele>
    <time>2026-09-02T07:17:36Z</time>
   </trkpt>
   <trkpt lat="22.7439160" lon="120.3381600">
    <ele>20.8</ele>
    <time>2026-09-02T07:17:37Z</time>
   </trkpt>
   <trkpt lat="22.7439250" lon="120.3381490">
    <ele>20.8</ele>
    <time>2026-09-02T07:17:38Z</time>
   </trkpt>
   <trkpt lat="22.7439340" lon="120.3381360">
    <ele>20.8</ele>
    <time>2026-09-02T07:17:39Z</time>
   </trkpt>
   <trkpt lat="22.7439460" lon="120.3381240">
    <ele>20.8</ele>
    <time>2026-09-02T07:17:40Z</time>
   </trkpt>
   <trkpt lat="22.7439590" lon="120.3381110">
    <ele>20.8</ele>
    <time>2026-09-02T07:17:41Z</time>
   </trkpt>
   <trkpt lat="22.7439690" lon="120.3380980">
    <ele>20.7</ele>
    <time>2026-09-02T07:17:42Z</time>
   </trkpt>
   <trkpt lat="22.7439770" lon="120.3380870">
    <ele>20.7</ele>
    <time>2026-09-02T07:17:43Z</time>
   </trkpt>
   <trkpt lat="22.7439870" lon="120.3380770">
    <ele>20.7</ele>
    <time>2026-09-02T07:17:44Z</time>
   </trkpt>
   <trkpt lat="22.7439970" lon="120.3380700">
    <ele>20.7</ele>
    <time>2026-09-02T07:17:45Z</time>
   </trkpt>
   <trkpt lat="22.7440060" lon="120.3380630">
    <ele>20.7</ele>
    <time>2026-09-02T07:17:46Z</time>
   </trkpt>
   <trkpt lat="22.7440110" lon="120.3380560">
    <ele>20.7</ele>
    <time>2026-09-02T07:17:47Z</time>
   </trkpt>
   <trkpt lat="22.7440200" lon="120.3380490">
    <ele>20.7</ele>
    <time>2026-09-02T07:17:48Z</time>
   </trkpt>
   <trkpt lat="22.7440290" lon="120.3380410">
    <ele>20.7</ele>
    <time>2026-09-02T07:17:49Z</time>
   </trkpt>
   <trkpt lat="22.7440360" lon="120.3380330">
    <ele>20.7</ele>
    <time>2026-09-02T07:17:50Z</time>
   </trkpt>
   <trkpt lat="22.7440400" lon="120.3380200">
    <ele>20.7</ele>
    <time>2026-09-02T07:17:51Z</time>
   </trkpt>
   <trkpt lat="22.7440470" lon="120.3380080">
    <ele>20.6</ele>
    <time>2026-09-02T07:17:52Z</time>
   </trkpt>
   <trkpt lat="22.7440580" lon="120.3379940">
    <ele>20.6</ele>
    <time>2026-09-02T07:17:53Z</time>
   </trkpt>
   <trkpt lat="22.7440700" lon="120.3379770">
    <ele>20.6</ele>
    <time>2026-09-02T07:17:54Z</time>
   </trkpt>
   <trkpt lat="22.7440850" lon="120.3379530">
    <ele>20.6</ele>
    <time>2026-09-02T07:17:55Z</time>
   </trkpt>
   <trkpt lat="22.7441020" lon="120.3379310">
    <ele>20.5</ele>
    <time>2026-09-02T07:17:56Z</time>
   </trkpt>
   <trkpt lat="22.7441160" lon="120.3379090">
    <ele>20.5</ele>
    <time>2026-09-02T07:17:57Z</time>
   </trkpt>
   <trkpt lat="22.7441320" lon="120.3378900">
    <ele>20.5</ele>
    <time>2026-09-02T07:17:58Z</time>
   </trkpt>
   <trkpt lat="22.7441460" lon="120.3378740">
    <ele>20.5</ele>
    <time>2026-09-02T07:17:59Z</time>
   </trkpt>
   <trkpt lat="22.7441600" lon="120.3378580">
    <ele>20.4</ele>
    <time>2026-09-02T07:18:00Z</time>
   </trkpt>
   <trkpt lat="22.7441730" lon="120.3378400">
    <ele>20.4</ele>
    <time>2026-09-02T07:18:01Z</time>
   </trkpt>
   <trkpt lat="22.7441880" lon="120.3378250">
    <ele>20.4</ele>
    <time>2026-09-02T07:18:02Z</time>
   </trkpt>
   <trkpt lat="22.7442010" lon="120.3378110">
    <ele>20.4</ele>
    <time>2026-09-02T07:18:03Z</time>
   </trkpt>
   <trkpt lat="22.7442130" lon="120.3377960">
    <ele>20.3</ele>
    <time>2026-09-02T07:18:04Z</time>
   </trkpt>
   <trkpt lat="22.7442240" lon="120.3377820">
    <ele>20.3</ele>
    <time>2026-09-02T07:18:05Z</time>
   </trkpt>
   <trkpt lat="22.7442370" lon="120.3377700">
    <ele>20.3</ele>
    <time>2026-09-02T07:18:06Z</time>
   </trkpt>
   <trkpt lat="22.7442470" lon="120.3377580">
    <ele>20.3</ele>
    <time>2026-09-02T07:18:07Z</time>
   </trkpt>
   <trkpt lat="22.7442560" lon="120.3377460">
    <ele>20.3</ele>
    <time>2026-09-02T07:18:08Z</time>
   </trkpt>
   <trkpt lat="22.7442650" lon="120.3377360">
    <ele>20.2</ele>
    <time>2026-09-02T07:18:09Z</time>
   </trkpt>
   <trkpt lat="22.7442740" lon="120.3377240">
    <ele>20.2</ele>
    <time>2026-09-02T07:18:10Z</time>
   </trkpt>
   <trkpt lat="22.7442830" lon="120.3377110">
    <ele>20.2</ele>
    <time>2026-09-02T07:18:11Z</time>
   </trkpt>
   <trkpt lat="22.7442890" lon="120.3376970">
    <ele>20.2</ele>
    <time>2026-09-02T07:18:12Z</time>
   </trkpt>
   <trkpt lat="22.7442980" lon="120.3376850">
    <ele>20.2</ele>
    <time>2026-09-02T07:18:13Z</time>
   </trkpt>
   <trkpt lat="22.7443080" lon="120.3376720">
    <ele>20.2</ele>
    <time>2026-09-02T07:18:14Z</time>
   </trkpt>
   <trkpt lat="22.7443200" lon="120.3376550">
    <ele>20.1</ele>
    <time>2026-09-02T07:18:15Z</time>
   </trkpt>
   <trkpt lat="22.7443350" lon="120.3376400">
    <ele>20.1</ele>
    <time>2026-09-02T07:18:16Z</time>
   </trkpt>
   <trkpt lat="22.7443470" lon="120.3376270">
    <ele>20.1</ele>
    <time>2026-09-02T07:18:17Z</time>
   </trkpt>
   <trkpt lat="22.7443620" lon="120.3376130">
    <ele>20.1</ele>
    <time>2026-09-02T07:18:18Z</time>
   </trkpt>
   <trkpt lat="22.7443740" lon="120.3376020">
    <ele>20.1</ele>
    <time>2026-09-02T07:18:19Z</time>
   </trkpt>
   <trkpt lat="22.7443850" lon="120.3375890">
    <ele>20.0</ele>
    <time>2026-09-02T07:18:20Z</time>
   </trkpt>
   <trkpt lat="22.7443960" lon="120.3375770">
    <ele>20.0</ele>
    <time>2026-09-02T07:18:21Z</time>
   </trkpt>
   <trkpt lat="22.7444070" lon="120.3375670">
    <ele>20.0</ele>
    <time>2026-09-02T07:18:22Z</time>
   </trkpt>
   <trkpt lat="22.7444130" lon="120.3375590">
    <ele>20.0</ele>
    <time>2026-09-02T07:18:23Z</time>
   </trkpt>
   <trkpt lat="22.7444210" lon="120.3375510">
    <ele>20.0</ele>
    <time>2026-09-02T07:18:24Z</time>
   </trkpt>
   <trkpt lat="22.7444330" lon="120.3375400">
    <ele>20.0</ele>
    <time>2026-09-02T07:18:25Z</time>
   </trkpt>
   <trkpt lat="22.7444450" lon="120.3375270">
    <ele>20.0</ele>
    <time>2026-09-02T07:18:26Z</time>
   </trkpt>
   <trkpt lat="22.7444560" lon="120.3375110">
    <ele>19.9</ele>
    <time>2026-09-02T07:18:27Z</time>
   </trkpt>
   <trkpt lat="22.7444690" lon="120.3374940">
    <ele>19.9</ele>
    <time>2026-09-02T07:18:28Z</time>
   </trkpt>
   <trkpt lat="22.7444790" lon="120.3374800">
    <ele>19.9</ele>
    <time>2026-09-02T07:18:29Z</time>
   </trkpt>
   <trkpt lat="22.7444880" lon="120.3374680">
    <ele>19.9</ele>
    <time>2026-09-02T07:18:30Z</time>
   </trkpt>
   <trkpt lat="22.7444950" lon="120.3374560">
    <ele>19.9</ele>
    <time>2026-09-02T07:18:31Z</time>
   </trkpt>
   <trkpt lat="22.7445020" lon="120.3374430">
    <ele>19.9</ele>
    <time>2026-09-02T07:18:32Z</time>
   </trkpt>
   <trkpt lat="22.7445080" lon="120.3374310">
    <ele>19.8</ele>
    <time>2026-09-02T07:18:33Z</time>
   </trkpt>
   <trkpt lat="22.7445140" lon="120.3374190">
    <ele>19.8</ele>
    <time>2026-09-02T07:18:34Z</time>
   </trkpt>
   <trkpt lat="22.7445200" lon="120.3374080">
    <ele>19.8</ele>
    <time>2026-09-02T07:18:35Z</time>
   </trkpt>
   <trkpt lat="22.7445290" lon="120.3373950">
    <ele>19.8</ele>
    <time>2026-09-02T07:18:36Z</time>
   </trkpt>
   <trkpt lat="22.7445410" lon="120.3373760">
    <ele>19.8</ele>
    <time>2026-09-02T07:18:37Z</time>
   </trkpt>
   <trkpt lat="22.7445510" lon="120.3373540">
    <ele>19.8</ele>
    <time>2026-09-02T07:18:38Z</time>
   </trkpt>
   <trkpt lat="22.7445600" lon="120.3373390">
    <ele>19.8</ele>
    <time>2026-09-02T07:18:39Z</time>
   </trkpt>
   <trkpt lat="22.7445690" lon="120.3373260">
    <ele>19.8</ele>
    <time>2026-09-02T07:18:40Z</time>
   </trkpt>
   <trkpt lat="22.7445760" lon="120.3373150">
    <ele>19.8</ele>
    <time>2026-09-02T07:18:41Z</time>
   </trkpt>
   <trkpt lat="22.7445820" lon="120.3373030">
    <ele>19.8</ele>
    <time>2026-09-02T07:18:42Z</time>
   </trkpt>
   <trkpt lat="22.7445870" lon="120.3372940">
    <ele>19.8</ele>
    <time>2026-09-02T07:18:43Z</time>
   </trkpt>
   <trkpt lat="22.7445920" lon="120.3372800">
    <ele>19.8</ele>
    <time>2026-09-02T07:18:44Z</time>
   </trkpt>
   <trkpt lat="22.7446020" lon="120.3372680">
    <ele>19.8</ele>
    <time>2026-09-02T07:18:45Z</time>
   </trkpt>
   <trkpt lat="22.7446130" lon="120.3372520">
    <ele>19.7</ele>
    <time>2026-09-02T07:18:46Z</time>
   </trkpt>
   <trkpt lat="22.7446250" lon="120.3372370">
    <ele>19.7</ele>
    <time>2026-09-02T07:18:47Z</time>
   </trkpt>
   <trkpt lat="22.7446320" lon="120.3372220">
    <ele>19.7</ele>
    <time>2026-09-02T07:18:48Z</time>
   </trkpt>
   <trkpt lat="22.7446400" lon="120.3372090">
    <ele>19.7</ele>
    <time>2026-09-02T07:18:49Z</time>
   </trkpt>
   <trkpt lat="22.7446480" lon="120.3372010">
    <ele>19.7</ele>
    <time>2026-09-02T07:18:50Z</time>
   </trkpt>
   <trkpt lat="22.7446570" lon="120.3371900">
    <ele>19.7</ele>
    <time>2026-09-02T07:18:51Z</time>
   </trkpt>
   <trkpt lat="22.7446700" lon="120.3371760">
    <ele>19.7</ele>
    <time>2026-09-02T07:18:52Z</time>
   </trkpt>
   <trkpt lat="22.7446860" lon="120.3371600">
    <ele>19.7</ele>
    <time>2026-09-02T07:18:53Z</time>
   </trkpt>
   <trkpt lat="22.7446970" lon="120.3371500">
    <ele>19.7</ele>
    <time>2026-09-02T07:18:54Z</time>
   </trkpt>
   <trkpt lat="22.7447090" lon="120.3371360">
    <ele>19.7</ele>
    <time>2026-09-02T07:18:55Z</time>
   </trkpt>
   <trkpt lat="22.7447180" lon="120.3371240">
    <ele>19.7</ele>
    <time>2026-09-02T07:18:56Z</time>
   </trkpt>
   <trkpt lat="22.7447300" lon="120.3371110">
    <ele>19.7</ele>
    <time>2026-09-02T07:18:57Z</time>
   </trkpt>
   <trkpt lat="22.7447430" lon="120.3370930">
    <ele>19.7</ele>
    <time>2026-09-02T07:18:58Z</time>
   </trkpt>
   <trkpt lat="22.7447560" lon="120.3370730">
    <ele>19.6</ele>
    <time>2026-09-02T07:18:59Z</time>
   </trkpt>
   <trkpt lat="22.7447690" lon="120.3370530">
    <ele>19.6</ele>
    <time>2026-09-02T07:19:00Z</time>
   </trkpt>
   <trkpt lat="22.7447830" lon="120.3370390">
    <ele>19.6</ele>
    <time>2026-09-02T07:19:01Z</time>
   </trkpt>
   <trkpt lat="22.7447930" lon="120.3370280">
    <ele>19.6</ele>
    <time>2026-09-02T07:19:02Z</time>
   </trkpt>
   <trkpt lat="22.7448030" lon="120.3370170">
    <ele>19.6</ele>
    <time>2026-09-02T07:19:03Z</time>
   </trkpt>
   <trkpt lat="22.7448120" lon="120.3370070">
    <ele>19.6</ele>
    <time>2026-09-02T07:19:04Z</time>
   </trkpt>
   <trkpt lat="22.7448190" lon="120.3369970">
    <ele>19.6</ele>
    <time>2026-09-02T07:19:05Z</time>
   </trkpt>
   <trkpt lat="22.7448240" lon="120.3369880">
    <ele>19.6</ele>
    <time>2026-09-02T07:19:06Z</time>
   </trkpt>
   <trkpt lat="22.7448260" lon="120.3369820">
    <ele>19.6</ele>
    <time>2026-09-02T07:19:07Z</time>
   </trkpt>
   <trkpt lat="22.7448300" lon="120.3369770">
    <ele>19.6</ele>
    <time>2026-09-02T07:19:08Z</time>
   </trkpt>
   <trkpt lat="22.7448360" lon="120.3369690">
    <ele>19.6</ele>
    <time>2026-09-02T07:19:09Z</time>
   </trkpt>
   <trkpt lat="22.7448450" lon="120.3369550">
    <ele>19.6</ele>
    <time>2026-09-02T07:19:10Z</time>
   </trkpt>
   <trkpt lat="22.7448540" lon="120.3369390">
    <ele>19.6</ele>
    <time>2026-09-02T07:19:11Z</time>
   </trkpt>
   <trkpt lat="22.7448600" lon="120.3369260">
    <ele>19.6</ele>
    <time>2026-09-02T07:19:12Z</time>
   </trkpt>
   <trkpt lat="22.7448670" lon="120.3369170">
    <ele>19.6</ele>
    <time>2026-09-02T07:19:13Z</time>
   </trkpt>
   <trkpt lat="22.7448730" lon="120.3369080">
    <ele>19.6</ele>
    <time>2026-09-02T07:19:14Z</time>
   </trkpt>
   <trkpt lat="22.7448820" lon="120.3369000">
    <ele>19.6</ele>
    <time>2026-09-02T07:19:15Z</time>
   </trkpt>
   <trkpt lat="22.7448930" lon="120.3368870">
    <ele>19.6</ele>
    <time>2026-09-02T07:19:16Z</time>
   </trkpt>
   <trkpt lat="22.7449030" lon="120.3368740">
    <ele>19.5</ele>
    <time>2026-09-02T07:19:17Z</time>
   </trkpt>
   <trkpt lat="22.7449110" lon="120.3368600">
    <ele>19.5</ele>
    <time>2026-09-02T07:19:18Z</time>
   </trkpt>
   <trkpt lat="22.7449160" lon="120.3368470">
    <ele>19.5</ele>
    <time>2026-09-02T07:19:19Z</time>
   </trkpt>
   <trkpt lat="22.7449190" lon="120.3368370">
    <ele>19.5</ele>
    <time>2026-09-02T07:19:20Z</time>
   </trkpt>
   <trkpt lat="22.7449230" lon="120.3368250">
    <ele>19.5</ele>
    <time>2026-09-02T07:19:21Z</time>
   </trkpt>
   <trkpt lat="22.7449270" lon="120.3368140">
    <ele>19.5</ele>
    <time>2026-09-02T07:19:22Z</time>
   </trkpt>
   <trkpt lat="22.7449300" lon="120.3368020">
    <ele>19.5</ele>
    <time>2026-09-02T07:19:23Z</time>
   </trkpt>
   <trkpt lat="22.7449350" lon="120.3367880">
    <ele>19.5</ele>
    <time>2026-09-02T07:19:24Z</time>
   </trkpt>
   <trkpt lat="22.7449440" lon="120.3367740">
    <ele>19.5</ele>
    <time>2026-09-02T07:19:25Z</time>
   </trkpt>
   <trkpt lat="22.7449530" lon="120.3367600">
    <ele>19.5</ele>
    <time>2026-09-02T07:19:26Z</time>
   </trkpt>
   <trkpt lat="22.7449620" lon="120.3367480">
    <ele>19.4</ele>
    <time>2026-09-02T07:19:27Z</time>
   </trkpt>
   <trkpt lat="22.7449690" lon="120.3367350">
    <ele>19.4</ele>
    <time>2026-09-02T07:19:28Z</time>
   </trkpt>
   <trkpt lat="22.7449750" lon="120.3367230">
    <ele>19.4</ele>
    <time>2026-09-02T07:19:29Z</time>
   </trkpt>
   <trkpt lat="22.7449810" lon="120.3367110">
    <ele>19.4</ele>
    <time>2026-09-02T07:19:30Z</time>
   </trkpt>
   <trkpt lat="22.7449850" lon="120.3366980">
    <ele>19.4</ele>
    <time>2026-09-02T07:19:31Z</time>
   </trkpt>
   <trkpt lat="22.7449930" lon="120.3366830">
    <ele>19.4</ele>
    <time>2026-09-02T07:19:32Z</time>
   </trkpt>
   <trkpt lat="22.7450000" lon="120.3366650">
    <ele>19.4</ele>
    <time>2026-09-02T07:19:33Z</time>
   </trkpt>
   <trkpt lat="22.7450070" lon="120.3366480">
    <ele>19.4</ele>
    <time>2026-09-02T07:19:34Z</time>
   </trkpt>
   <trkpt lat="22.7450130" lon="120.3366320">
    <ele>19.3</ele>
    <time>2026-09-02T07:19:35Z</time>
   </trkpt>
   <trkpt lat="22.7450170" lon="120.3366180">
    <ele>19.3</ele>
    <time>2026-09-02T07:19:36Z</time>
   </trkpt>
   <trkpt lat="22.7450220" lon="120.3366060">
    <ele>19.3</ele>
    <time>2026-09-02T07:19:37Z</time>
   </trkpt>
   <trkpt lat="22.7450280" lon="120.3365950">
    <ele>19.3</ele>
    <time>2026-09-02T07:19:38Z</time>
   </trkpt>
   <trkpt lat="22.7450330" lon="120.3365850">
    <ele>19.3</ele>
    <time>2026-09-02T07:19:39Z</time>
   </trkpt>
   <trkpt lat="22.7450380" lon="120.3365770">
    <ele>19.3</ele>
    <time>2026-09-02T07:19:40Z</time>
   </trkpt>
   <trkpt lat="22.7450430" lon="120.3365630">
    <ele>19.3</ele>
    <time>2026-09-02T07:19:41Z</time>
   </trkpt>
   <trkpt lat="22.7450500" lon="120.3365440">
    <ele>19.3</ele>
    <time>2026-09-02T07:19:42Z</time>
   </trkpt>
   <trkpt lat="22.7450580" lon="120.3365230">
    <ele>19.3</ele>
    <time>2026-09-02T07:19:43Z</time>
   </trkpt>
   <trkpt lat="22.7450660" lon="120.3365010">
    <ele>19.3</ele>
    <time>2026-09-02T07:19:44Z</time>
   </trkpt>
   <trkpt lat="22.7450740" lon="120.3364820">
    <ele>19.3</ele>
    <time>2026-09-02T07:19:45Z</time>
   </trkpt>
   <trkpt lat="22.7450810" lon="120.3364630">
    <ele>19.3</ele>
    <time>2026-09-02T07:19:46Z</time>
   </trkpt>
   <trkpt lat="22.7450840" lon="120.3364470">
    <ele>19.3</ele>
    <time>2026-09-02T07:19:47Z</time>
   </trkpt>
   <trkpt lat="22.7450870" lon="120.3364310">
    <ele>19.3</ele>
    <time>2026-09-02T07:19:48Z</time>
   </trkpt>
   <trkpt lat="22.7450890" lon="120.3364150">
    <ele>19.3</ele>
    <time>2026-09-02T07:19:49Z</time>
   </trkpt>
   <trkpt lat="22.7450910" lon="120.3363960">
    <ele>19.3</ele>
    <time>2026-09-02T07:19:50Z</time>
   </trkpt>
   <trkpt lat="22.7450920" lon="120.3363750">
    <ele>19.4</ele>
    <time>2026-09-02T07:19:51Z</time>
   </trkpt>
   <trkpt lat="22.7450920" lon="120.3363540">
    <ele>19.4</ele>
    <time>2026-09-02T07:19:52Z</time>
   </trkpt>
   <trkpt lat="22.7450920" lon="120.3363370">
    <ele>19.4</ele>
    <time>2026-09-02T07:19:53Z</time>
   </trkpt>
   <trkpt lat="22.7450920" lon="120.3363220">
    <ele>19.4</ele>
    <time>2026-09-02T07:19:54Z</time>
   </trkpt>
   <trkpt lat="22.7450920" lon="120.3363070">
    <ele>19.4</ele>
    <time>2026-09-02T07:19:55Z</time>
   </trkpt>
   <trkpt lat="22.7450930" lon="120.3362860">
    <ele>19.3</ele>
    <time>2026-09-02T07:19:56Z</time>
   </trkpt>
   <trkpt lat="22.7450940" lon="120.3362620">
    <ele>19.3</ele>
    <time>2026-09-02T07:19:57Z</time>
   </trkpt>
   <trkpt lat="22.7450900" lon="120.3362380">
    <ele>19.3</ele>
    <time>2026-09-02T07:19:58Z</time>
   </trkpt>
   <trkpt lat="22.7450850" lon="120.3362160">
    <ele>19.3</ele>
    <time>2026-09-02T07:19:59Z</time>
   </trkpt>
   <trkpt lat="22.7450810" lon="120.3361990">
    <ele>19.3</ele>
    <time>2026-09-02T07:20:00Z</time>
   </trkpt>
   <trkpt lat="22.7450770" lon="120.3361800">
    <ele>19.3</ele>
    <time>2026-09-02T07:20:01Z</time>
   </trkpt>
   <trkpt lat="22.7450770" lon="120.3361630">
    <ele>19.3</ele>
    <time>2026-09-02T07:20:02Z</time>
   </trkpt>
   <trkpt lat="22.7450760" lon="120.3361450">
    <ele>19.3</ele>
    <time>2026-09-02T07:20:03Z</time>
   </trkpt>
   <trkpt lat="22.7450740" lon="120.3361300">
    <ele>19.3</ele>
    <time>2026-09-02T07:20:04Z</time>
   </trkpt>
   <trkpt lat="22.7450720" lon="120.3361160">
    <ele>19.3</ele>
    <time>2026-09-02T07:20:05Z</time>
   </trkpt>
   <trkpt lat="22.7450710" lon="120.3361030">
    <ele>19.3</ele>
    <time>2026-09-02T07:20:06Z</time>
   </trkpt>
   <trkpt lat="22.7450700" lon="120.3360900">
    <ele>19.3</ele>
    <time>2026-09-02T07:20:07Z</time>
   </trkpt>
   <trkpt lat="22.7450720" lon="120.3360760">
    <ele>19.3</ele>
    <time>2026-09-02T07:20:08Z</time>
   </trkpt>
   <trkpt lat="22.7450720" lon="120.3360570">
    <ele>19.2</ele>
    <time>2026-09-02T07:20:09Z</time>
   </trkpt>
   <trkpt lat="22.7450690" lon="120.3360420">
    <ele>19.2</ele>
    <time>2026-09-02T07:20:10Z</time>
   </trkpt>
   <trkpt lat="22.7450670" lon="120.3360290">
    <ele>19.2</ele>
    <time>2026-09-02T07:20:11Z</time>
   </trkpt>
   <trkpt lat="22.7450670" lon="120.3360170">
    <ele>19.2</ele>
    <time>2026-09-02T07:20:12Z</time>
   </trkpt>
   <trkpt lat="22.7450670" lon="120.3360060">
    <ele>19.2</ele>
    <time>2026-09-02T07:20:13Z</time>
   </trkpt>
   <trkpt lat="22.7450660" lon="120.3359910">
    <ele>19.2</ele>
    <time>2026-09-02T07:20:14Z</time>
   </trkpt>
   <trkpt lat="22.7450630" lon="120.3359750">
    <ele>19.2</ele>
    <time>2026-09-02T07:20:15Z</time>
   </trkpt>
   <trkpt lat="22.7450600" lon="120.3359580">
    <ele>19.2</ele>
    <time>2026-09-02T07:20:16Z</time>
   </trkpt>
   <trkpt lat="22.7450590" lon="120.3359430">
    <ele>19.2</ele>
    <time>2026-09-02T07:20:17Z</time>
   </trkpt>
   <trkpt lat="22.7450590" lon="120.3359310">
    <ele>19.2</ele>
    <time>2026-09-02T07:20:18Z</time>
   </trkpt>
   <trkpt lat="22.7450590" lon="120.3359160">
    <ele>19.2</ele>
    <time>2026-09-02T07:20:19Z</time>
   </trkpt>
   <trkpt lat="22.7450590" lon="120.3358990">
    <ele>19.2</ele>
    <time>2026-09-02T07:20:20Z</time>
   </trkpt>
   <trkpt lat="22.7450580" lon="120.3358790">
    <ele>19.2</ele>
    <time>2026-09-02T07:20:21Z</time>
   </trkpt>
   <trkpt lat="22.7450560" lon="120.3358560">
    <ele>19.2</ele>
    <time>2026-09-02T07:20:22Z</time>
   </trkpt>
   <trkpt lat="22.7450520" lon="120.3358350">
    <ele>19.2</ele>
    <time>2026-09-02T07:20:23Z</time>
   </trkpt>
   <trkpt lat="22.7450500" lon="120.3358160">
    <ele>19.2</ele>
    <time>2026-09-02T07:20:24Z</time>
   </trkpt>
   <trkpt lat="22.7450490" lon="120.3357990">
    <ele>19.2</ele>
    <time>2026-09-02T07:20:25Z</time>
   </trkpt>
   <trkpt lat="22.7450520" lon="120.3357840">
    <ele>19.2</ele>
    <time>2026-09-02T07:20:26Z</time>
   </trkpt>
   <trkpt lat="22.7450520" lon="120.3357750">
    <ele>19.2</ele>
    <time>2026-09-02T07:20:27Z</time>
   </trkpt>
   <trkpt lat="22.7450530" lon="120.3357650">
    <ele>19.2</ele>
    <time>2026-09-02T07:20:28Z</time>
   </trkpt>
   <trkpt lat="22.7450520" lon="120.3357540">
    <ele>19.2</ele>
    <time>2026-09-02T07:20:29Z</time>
   </trkpt>
   <trkpt lat="22.7450490" lon="120.3357390">
    <ele>19.2</ele>
    <time>2026-09-02T07:20:30Z</time>
   </trkpt>
   <trkpt lat="22.7450520" lon="120.3357210">
    <ele>19.2</ele>
    <time>2026-09-02T07:20:31Z</time>
   </trkpt>
   <trkpt lat="22.7450530" lon="120.3357030">
    <ele>19.2</ele>
    <time>2026-09-02T07:20:32Z</time>
   </trkpt>
   <trkpt lat="22.7450550" lon="120.3356880">
    <ele>19.2</ele>
    <time>2026-09-02T07:20:33Z</time>
   </trkpt>
   <trkpt lat="22.7450550" lon="120.3356790">
    <ele>19.2</ele>
    <time>2026-09-02T07:20:34Z</time>
   </trkpt>
   <trkpt lat="22.7450520" lon="120.3356710">
    <ele>19.2</ele>
    <time>2026-09-02T07:20:35Z</time>
   </trkpt>
   <trkpt lat="22.7450460" lon="120.3356650">
    <ele>19.2</ele>
    <time>2026-09-02T07:20:36Z</time>
   </trkpt>
   <trkpt lat="22.7450380" lon="120.3356690">
    <ele>19.2</ele>
    <time>2026-09-02T07:20:37Z</time>
   </trkpt>
   <trkpt lat="22.7450290" lon="120.3356750">
    <ele>19.2</ele>
    <time>2026-09-02T07:20:38Z</time>
   </trkpt>
   <trkpt lat="22.7450220" lon="120.3356870">
    <ele>19.2</ele>
    <time>2026-09-02T07:20:39Z</time>
   </trkpt>
   <trkpt lat="22.7450190" lon="120.3357030">
    <ele>19.2</ele>
    <time>2026-09-02T07:20:40Z</time>
   </trkpt>
   <trkpt lat="22.7450180" lon="120.3357200">
    <ele>19.2</ele>
    <time>2026-09-02T07:20:41Z</time>
   </trkpt>
   <trkpt lat="22.7450190" lon="120.3357340">
    <ele>19.3</ele>
    <time>2026-09-02T07:20:42Z</time>
   </trkpt>
   <trkpt lat="22.7450170" lon="120.3357490">
    <ele>19.2</ele>
    <time>2026-09-02T07:20:43Z</time>
   </trkpt>
   <trkpt lat="22.7450170" lon="120.3357660">
    <ele>19.2</ele>
    <time>2026-09-02T07:20:44Z</time>
   </trkpt>
   <trkpt lat="22.7450190" lon="120.3357890">
    <ele>19.2</ele>
    <time>2026-09-02T07:20:45Z</time>
   </trkpt>
   <trkpt lat="22.7450210" lon="120.3358100">
    <ele>19.2</ele>
    <time>2026-09-02T07:20:46Z</time>
   </trkpt>
   <trkpt lat="22.7450230" lon="120.3358280">
    <ele>19.2</ele>
    <time>2026-09-02T07:20:47Z</time>
   </trkpt>
   <trkpt lat="22.7450230" lon="120.3358480">
    <ele>19.2</ele>
    <time>2026-09-02T07:20:48Z</time>
   </trkpt>
   <trkpt lat="22.7450230" lon="120.3358720">
    <ele>19.2</ele>
    <time>2026-09-02T07:20:49Z</time>
   </trkpt>
   <trkpt lat="22.7450260" lon="120.3359020">
    <ele>19.2</ele>
    <time>2026-09-02T07:20:50Z</time>
   </trkpt>
   <trkpt lat="22.7450290" lon="120.3359350">
    <ele>19.2</ele>
    <time>2026-09-02T07:20:51Z</time>
   </trkpt>
   <trkpt lat="22.7450330" lon="120.3359660">
    <ele>19.2</ele>
    <time>2026-09-02T07:20:52Z</time>
   </trkpt>
   <trkpt lat="22.7450350" lon="120.3359910">
    <ele>19.2</ele>
    <time>2026-09-02T07:20:53Z</time>
   </trkpt>
   <trkpt lat="22.7450350" lon="120.3360180">
    <ele>19.2</ele>
    <time>2026-09-02T07:20:54Z</time>
   </trkpt>
   <trkpt lat="22.7450370" lon="120.3360460">
    <ele>19.2</ele>
    <time>2026-09-02T07:20:55Z</time>
   </trkpt>
   <trkpt lat="22.7450400" lon="120.3360710">
    <ele>19.2</ele>
    <time>2026-09-02T07:20:56Z</time>
   </trkpt>
   <trkpt lat="22.7450440" lon="120.3360940">
    <ele>19.2</ele>
    <time>2026-09-02T07:20:57Z</time>
   </trkpt>
   <trkpt lat="22.7450440" lon="120.3361160">
    <ele>19.2</ele>
    <time>2026-09-02T07:20:58Z</time>
   </trkpt>
   <trkpt lat="22.7450380" lon="120.3361310">
    <ele>19.3</ele>
    <time>2026-09-02T07:20:59Z</time>
   </trkpt>
   <trkpt lat="22.7450370" lon="120.3361470">
    <ele>19.3</ele>
    <time>2026-09-02T07:21:00Z</time>
   </trkpt>
   <trkpt lat="22.7450410" lon="120.3361640">
    <ele>19.3</ele>
    <time>2026-09-02T07:21:01Z</time>
   </trkpt>
   <trkpt lat="22.7450470" lon="120.3361840">
    <ele>19.3</ele>
    <time>2026-09-02T07:21:02Z</time>
   </trkpt>
   <trkpt lat="22.7450530" lon="120.3362060">
    <ele>19.3</ele>
    <time>2026-09-02T07:21:03Z</time>
   </trkpt>
   <trkpt lat="22.7450520" lon="120.3362230">
    <ele>19.3</ele>
    <time>2026-09-02T07:21:04Z</time>
   </trkpt>
   <trkpt lat="22.7450540" lon="120.3362430">
    <ele>19.3</ele>
    <time>2026-09-02T07:21:05Z</time>
   </trkpt>
   <trkpt lat="22.7450560" lon="120.3362690">
    <ele>19.3</ele>
    <time>2026-09-02T07:21:06Z</time>
   </trkpt>
   <trkpt lat="22.7450570" lon="120.3362930">
    <ele>19.3</ele>
    <time>2026-09-02T07:21:07Z</time>
   </trkpt>
   <trkpt lat="22.7450530" lon="120.3363180">
    <ele>19.4</ele>
    <time>2026-09-02T07:21:08Z</time>
   </trkpt>
   <trkpt lat="22.7450510" lon="120.3363390">
    <ele>19.4</ele>
    <time>2026-09-02T07:21:09Z</time>
   </trkpt>
   <trkpt lat="22.7450490" lon="120.3363610">
    <ele>19.4</ele>
    <time>2026-09-02T07:21:10Z</time>
   </trkpt>
   <trkpt lat="22.7450490" lon="120.3363900">
    <ele>19.3</ele>
    <time>2026-09-02T07:21:11Z</time>
   </trkpt>
   <trkpt lat="22.7450470" lon="120.3364210">
    <ele>19.3</ele>
    <time>2026-09-02T07:21:12Z</time>
   </trkpt>
   <trkpt lat="22.7450430" lon="120.3364530">
    <ele>19.3</ele>
    <time>2026-09-02T07:21:13Z</time>
   </trkpt>
   <trkpt lat="22.7450320" lon="120.3364860">
    <ele>19.3</ele>
    <time>2026-09-02T07:21:14Z</time>
   </trkpt>
   <trkpt lat="22.7450250" lon="120.3365160">
    <ele>19.3</ele>
    <time>2026-09-02T07:21:15Z</time>
   </trkpt>
   <trkpt lat="22.7450180" lon="120.3365430">
    <ele>19.3</ele>
    <time>2026-09-02T07:21:16Z</time>
   </trkpt>
   <trkpt lat="22.7450090" lon="120.3365670">
    <ele>19.3</ele>
    <time>2026-09-02T07:21:17Z</time>
   </trkpt>
   <trkpt lat="22.7450000" lon="120.3365890">
    <ele>19.3</ele>
    <time>2026-09-02T07:21:18Z</time>
   </trkpt>
   <trkpt lat="22.7449930" lon="120.3366090">
    <ele>19.3</ele>
    <time>2026-09-02T07:21:19Z</time>
   </trkpt>
   <trkpt lat="22.7449850" lon="120.3366280">
    <ele>19.4</ele>
    <time>2026-09-02T07:21:20Z</time>
   </trkpt>
   <trkpt lat="22.7449760" lon="120.3366490">
    <ele>19.4</ele>
    <time>2026-09-02T07:21:21Z</time>
   </trkpt>
   <trkpt lat="22.7449680" lon="120.3366700">
    <ele>19.4</ele>
    <time>2026-09-02T07:21:22Z</time>
   </trkpt>
   <trkpt lat="22.7449600" lon="120.3366910">
    <ele>19.4</ele>
    <time>2026-09-02T07:21:23Z</time>
   </trkpt>
   <trkpt lat="22.7449480" lon="120.3367100">
    <ele>19.4</ele>
    <time>2026-09-02T07:21:24Z</time>
   </trkpt>
   <trkpt lat="22.7449380" lon="120.3367260">
    <ele>19.4</ele>
    <time>2026-09-02T07:21:25Z</time>
   </trkpt>
   <trkpt lat="22.7449290" lon="120.3367420">
    <ele>19.5</ele>
    <time>2026-09-02T07:21:26Z</time>
   </trkpt>
   <trkpt lat="22.7449180" lon="120.3367560">
    <ele>19.5</ele>
    <time>2026-09-02T07:21:27Z</time>
   </trkpt>
   <trkpt lat="22.7449110" lon="120.3367720">
    <ele>19.5</ele>
    <time>2026-09-02T07:21:28Z</time>
   </trkpt>
   <trkpt lat="22.7449020" lon="120.3367880">
    <ele>19.5</ele>
    <time>2026-09-02T07:21:29Z</time>
   </trkpt>
   <trkpt lat="22.7448910" lon="120.3368060">
    <ele>19.5</ele>
    <time>2026-09-02T07:21:30Z</time>
   </trkpt>
   <trkpt lat="22.7448790" lon="120.3368290">
    <ele>19.5</ele>
    <time>2026-09-02T07:21:31Z</time>
   </trkpt>
   <trkpt lat="22.7448670" lon="120.3368520">
    <ele>19.5</ele>
    <time>2026-09-02T07:21:32Z</time>
   </trkpt>
   <trkpt lat="22.7448530" lon="120.3368740">
    <ele>19.6</ele>
    <time>2026-09-02T07:21:33Z</time>
   </trkpt>
   <trkpt lat="22.7448390" lon="120.3368900">
    <ele>19.6</ele>
    <time>2026-09-02T07:21:34Z</time>
   </trkpt>
   <trkpt lat="22.7448280" lon="120.3369030">
    <ele>19.6</ele>
    <time>2026-09-02T07:21:35Z</time>
   </trkpt>
   <trkpt lat="22.7448150" lon="120.3369190">
    <ele>19.6</ele>
    <time>2026-09-02T07:21:36Z</time>
   </trkpt>
   <trkpt lat="22.7448010" lon="120.3369440">
    <ele>19.6</ele>
    <time>2026-09-02T07:21:37Z</time>
   </trkpt>
   <trkpt lat="22.7447870" lon="120.3369690">
    <ele>19.6</ele>
    <time>2026-09-02T07:21:38Z</time>
   </trkpt>
   <trkpt lat="22.7447740" lon="120.3369920">
    <ele>19.6</ele>
    <time>2026-09-02T07:21:39Z</time>
   </trkpt>
   <trkpt lat="22.7447590" lon="120.3370100">
    <ele>19.6</ele>
    <time>2026-09-02T07:21:40Z</time>
   </trkpt>
   <trkpt lat="22.7447440" lon="120.3370250">
    <ele>19.6</ele>
    <time>2026-09-02T07:21:41Z</time>
   </trkpt>
   <trkpt lat="22.7447300" lon="120.3370390">
    <ele>19.6</ele>
    <time>2026-09-02T07:21:42Z</time>
   </trkpt>
   <trkpt lat="22.7447170" lon="120.3370550">
    <ele>19.7</ele>
    <time>2026-09-02T07:21:43Z</time>
   </trkpt>
   <trkpt lat="22.7447070" lon="120.3370750">
    <ele>19.7</ele>
    <time>2026-09-02T07:21:44Z</time>
   </trkpt>
   <trkpt lat="22.7446920" lon="120.3370970">
    <ele>19.7</ele>
    <time>2026-09-02T07:21:45Z</time>
   </trkpt>
   <trkpt lat="22.7446730" lon="120.3371160">
    <ele>19.7</ele>
    <time>2026-09-02T07:21:46Z</time>
   </trkpt>
   <trkpt lat="22.7446580" lon="120.3371290">
    <ele>19.7</ele>
    <time>2026-09-02T07:21:47Z</time>
   </trkpt>
   <trkpt lat="22.7446450" lon="120.3371440">
    <ele>19.7</ele>
    <time>2026-09-02T07:21:48Z</time>
   </trkpt>
   <trkpt lat="22.7446330" lon="120.3371570">
    <ele>19.7</ele>
    <time>2026-09-02T07:21:49Z</time>
   </trkpt>
   <trkpt lat="22.7446230" lon="120.3371710">
    <ele>19.7</ele>
    <time>2026-09-02T07:21:50Z</time>
   </trkpt>
   <trkpt lat="22.7446110" lon="120.3371880">
    <ele>19.7</ele>
    <time>2026-09-02T07:21:51Z</time>
   </trkpt>
   <trkpt lat="22.7445970" lon="120.3372050">
    <ele>19.7</ele>
    <time>2026-09-02T07:21:52Z</time>
   </trkpt>
   <trkpt lat="22.7445810" lon="120.3372230">
    <ele>19.7</ele>
    <time>2026-09-02T07:21:53Z</time>
   </trkpt>
   <trkpt lat="22.7445630" lon="120.3372420">
    <ele>19.8</ele>
    <time>2026-09-02T07:21:54Z</time>
   </trkpt>
   <trkpt lat="22.7445430" lon="120.3372620">
    <ele>19.8</ele>
    <time>2026-09-02T07:21:55Z</time>
   </trkpt>
   <trkpt lat="22.7445220" lon="120.3372780">
    <ele>19.8</ele>
    <time>2026-09-02T07:21:56Z</time>
   </trkpt>
   <trkpt lat="22.7445050" lon="120.3372940">
    <ele>19.8</ele>
    <time>2026-09-02T07:21:57Z</time>
   </trkpt>
   <trkpt lat="22.7444860" lon="120.3373110">
    <ele>19.8</ele>
    <time>2026-09-02T07:21:58Z</time>
   </trkpt>
   <trkpt lat="22.7444660" lon="120.3373290">
    <ele>19.8</ele>
    <time>2026-09-02T07:21:59Z</time>
   </trkpt>
   <trkpt lat="22.7444450" lon="120.3373510">
    <ele>19.8</ele>
    <time>2026-09-02T07:22:00Z</time>
   </trkpt>
   <trkpt lat="22.7444250" lon="120.3373750">
    <ele>19.9</ele>
    <time>2026-09-02T07:22:01Z</time>
   </trkpt>
   <trkpt lat="22.7444040" lon="120.3373970">
    <ele>19.9</ele>
    <time>2026-09-02T07:22:02Z</time>
   </trkpt>
   <trkpt lat="22.7443900" lon="120.3374190">
    <ele>19.9</ele>
    <time>2026-09-02T07:22:03Z</time>
   </trkpt>
   <trkpt lat="22.7443740" lon="120.3374420">
    <ele>19.9</ele>
    <time>2026-09-02T07:22:04Z</time>
   </trkpt>
   <trkpt lat="22.7443600" lon="120.3374630">
    <ele>20.0</ele>
    <time>2026-09-02T07:22:05Z</time>
   </trkpt>
   <trkpt lat="22.7443440" lon="120.3374820">
    <ele>20.0</ele>
    <time>2026-09-02T07:22:06Z</time>
   </trkpt>
   <trkpt lat="22.7443290" lon="120.3375040">
    <ele>20.0</ele>
    <time>2026-09-02T07:22:07Z</time>
   </trkpt>
   <trkpt lat="22.7443140" lon="120.3375280">
    <ele>20.0</ele>
    <time>2026-09-02T07:22:08Z</time>
   </trkpt>
   <trkpt lat="22.7442980" lon="120.3375500">
    <ele>20.1</ele>
    <time>2026-09-02T07:22:09Z</time>
   </trkpt>
   <trkpt lat="22.7442830" lon="120.3375690">
    <ele>20.1</ele>
    <time>2026-09-02T07:22:10Z</time>
   </trkpt>
   <trkpt lat="22.7442700" lon="120.3375840">
    <ele>20.1</ele>
    <time>2026-09-02T07:22:11Z</time>
   </trkpt>
   <trkpt lat="22.7442550" lon="120.3375970">
    <ele>20.1</ele>
    <time>2026-09-02T07:22:12Z</time>
   </trkpt>
   <trkpt lat="22.7442440" lon="120.3376080">
    <ele>20.2</ele>
    <time>2026-09-02T07:22:13Z</time>
   </trkpt>
   <trkpt lat="22.7442340" lon="120.3376180">
    <ele>20.2</ele>
    <time>2026-09-02T07:22:14Z</time>
   </trkpt>
   <trkpt lat="22.7442270" lon="120.3376310">
    <ele>20.2</ele>
    <time>2026-09-02T07:22:15Z</time>
   </trkpt>
   <trkpt lat="22.7442150" lon="120.3376440">
    <ele>20.2</ele>
    <time>2026-09-02T07:22:16Z</time>
   </trkpt>
   <trkpt lat="22.7442000" lon="120.3376610">
    <ele>20.2</ele>
    <time>2026-09-02T07:22:17Z</time>
   </trkpt>
   <trkpt lat="22.7441830" lon="120.3376790">
    <ele>20.3</ele>
    <time>2026-09-02T07:22:18Z</time>
   </trkpt>
   <trkpt lat="22.7441690" lon="120.3376970">
    <ele>20.3</ele>
    <time>2026-09-02T07:22:19Z</time>
   </trkpt>
   <trkpt lat="22.7441570" lon="120.3377140">
    <ele>20.3</ele>
    <time>2026-09-02T07:22:20Z</time>
   </trkpt>
   <trkpt lat="22.7441390" lon="120.3377320">
    <ele>20.3</ele>
    <time>2026-09-02T07:22:21Z</time>
   </trkpt>
   <trkpt lat="22.7441210" lon="120.3377540">
    <ele>20.4</ele>
    <time>2026-09-02T07:22:22Z</time>
   </trkpt>
   <trkpt lat="22.7441030" lon="120.3377790">
    <ele>20.4</ele>
    <time>2026-09-02T07:22:23Z</time>
   </trkpt>
   <trkpt lat="22.7440850" lon="120.3378050">
    <ele>20.5</ele>
    <time>2026-09-02T07:22:24Z</time>
   </trkpt>
   <trkpt lat="22.7440660" lon="120.3378300">
    <ele>20.5</ele>
    <time>2026-09-02T07:22:25Z</time>
   </trkpt>
   <trkpt lat="22.7440470" lon="120.3378500">
    <ele>20.5</ele>
    <time>2026-09-02T07:22:26Z</time>
   </trkpt>
   <trkpt lat="22.7440360" lon="120.3378680">
    <ele>20.6</ele>
    <time>2026-09-02T07:22:27Z</time>
   </trkpt>
   <trkpt lat="22.7440240" lon="120.3378810">
    <ele>20.6</ele>
    <time>2026-09-02T07:22:28Z</time>
   </trkpt>
   <trkpt lat="22.7440120" lon="120.3378920">
    <ele>20.6</ele>
    <time>2026-09-02T07:22:29Z</time>
   </trkpt>
   <trkpt lat="22.7440020" lon="120.3379040">
    <ele>20.6</ele>
    <time>2026-09-02T07:22:30Z</time>
   </trkpt>
   <trkpt lat="22.7439950" lon="120.3379120">
    <ele>20.6</ele>
    <time>2026-09-02T07:22:31Z</time>
   </trkpt>
   <trkpt lat="22.7439870" lon="120.3379250">
    <ele>20.6</ele>
    <time>2026-09-02T07:22:32Z</time>
   </trkpt>
   <trkpt lat="22.7439700" lon="120.3379410">
    <ele>20.7</ele>
    <time>2026-09-02T07:22:33Z</time>
   </trkpt>
   <trkpt lat="22.7439520" lon="120.3379630">
    <ele>20.7</ele>
    <time>2026-09-02T07:22:34Z</time>
   </trkpt>
   <trkpt lat="22.7439340" lon="120.3379880">
    <ele>20.7</ele>
    <time>2026-09-02T07:22:35Z</time>
   </trkpt>
   <trkpt lat="22.7439170" lon="120.3380090">
    <ele>20.7</ele>
    <time>2026-09-02T07:22:36Z</time>
   </trkpt>
   <trkpt lat="22.7439020" lon="120.3380300">
    <ele>20.7</ele>
    <time>2026-09-02T07:22:37Z</time>
   </trkpt>
   <trkpt lat="22.7438850" lon="120.3380500">
    <ele>20.8</ele>
    <time>2026-09-02T07:22:38Z</time>
   </trkpt>
   <trkpt lat="22.7438670" lon="120.3380750">
    <ele>20.8</ele>
    <time>2026-09-02T07:22:39Z</time>
   </trkpt>
   <trkpt lat="22.7438480" lon="120.3381000">
    <ele>20.8</ele>
    <time>2026-09-02T07:22:40Z</time>
   </trkpt>
   <trkpt lat="22.7438260" lon="120.3381230">
    <ele>20.8</ele>
    <time>2026-09-02T07:22:41Z</time>
   </trkpt>
   <trkpt lat="22.7438090" lon="120.3381480">
    <ele>20.8</ele>
    <time>2026-09-02T07:22:42Z</time>
   </trkpt>
   <trkpt lat="22.7437940" lon="120.3381710">
    <ele>20.8</ele>
    <time>2026-09-02T07:22:43Z</time>
   </trkpt>
   <trkpt lat="22.7437800" lon="120.3381920">
    <ele>20.8</ele>
    <time>2026-09-02T07:22:44Z</time>
   </trkpt>
   <trkpt lat="22.7437680" lon="120.3382090">
    <ele>20.9</ele>
    <time>2026-09-02T07:22:45Z</time>
   </trkpt>
   <trkpt lat="22.7437530" lon="120.3382260">
    <ele>20.9</ele>
    <time>2026-09-02T07:22:46Z</time>
   </trkpt>
   <trkpt lat="22.7437380" lon="120.3382430">
    <ele>20.9</ele>
    <time>2026-09-02T07:22:47Z</time>
   </trkpt>
   <trkpt lat="22.7437260" lon="120.3382610">
    <ele>20.9</ele>
    <time>2026-09-02T07:22:48Z</time>
   </trkpt>
   <trkpt lat="22.7437120" lon="120.3382800">
    <ele>20.9</ele>
    <time>2026-09-02T07:22:49Z</time>
   </trkpt>
   <trkpt lat="22.7436940" lon="120.3383050">
    <ele>20.9</ele>
    <time>2026-09-02T07:22:50Z</time>
   </trkpt>
   <trkpt lat="22.7436710" lon="120.3383280">
    <ele>20.9</ele>
    <time>2026-09-02T07:22:51Z</time>
   </trkpt>
   <trkpt lat="22.7436540" lon="120.3383510">
    <ele>20.9</ele>
    <time>2026-09-02T07:22:52Z</time>
   </trkpt>
   <trkpt lat="22.7436340" lon="120.3383730">
    <ele>21.0</ele>
    <time>2026-09-02T07:22:53Z</time>
   </trkpt>
   <trkpt lat="22.7436180" lon="120.3383950">
    <ele>21.0</ele>
    <time>2026-09-02T07:22:54Z</time>
   </trkpt>
   <trkpt lat="22.7436020" lon="120.3384190">
    <ele>21.0</ele>
    <time>2026-09-02T07:22:55Z</time>
   </trkpt>
   <trkpt lat="22.7435850" lon="120.3384400">
    <ele>21.0</ele>
    <time>2026-09-02T07:22:56Z</time>
   </trkpt>
   <trkpt lat="22.7435690" lon="120.3384600">
    <ele>21.0</ele>
    <time>2026-09-02T07:22:57Z</time>
   </trkpt>
   <trkpt lat="22.7435520" lon="120.3384790">
    <ele>21.0</ele>
    <time>2026-09-02T07:22:58Z</time>
   </trkpt>
   <trkpt lat="22.7435340" lon="120.3384950">
    <ele>21.0</ele>
    <time>2026-09-02T07:22:59Z</time>
   </trkpt>
   <trkpt lat="22.7435200" lon="120.3385150">
    <ele>21.0</ele>
    <time>2026-09-02T07:23:00Z</time>
   </trkpt>
   <trkpt lat="22.7435080" lon="120.3385320">
    <ele>21.1</ele>
    <time>2026-09-02T07:23:01Z</time>
   </trkpt>
   <trkpt lat="22.7434920" lon="120.3385510">
    <ele>21.1</ele>
    <time>2026-09-02T07:23:02Z</time>
   </trkpt>
   <trkpt lat="22.7434760" lon="120.3385690">
    <ele>21.1</ele>
    <time>2026-09-02T07:23:03Z</time>
   </trkpt>
   <trkpt lat="22.7434600" lon="120.3385860">
    <ele>21.1</ele>
    <time>2026-09-02T07:23:04Z</time>
   </trkpt>
   <trkpt lat="22.7434460" lon="120.3386000">
    <ele>21.1</ele>
    <time>2026-09-02T07:23:05Z</time>
   </trkpt>
   <trkpt lat="22.7434340" lon="120.3386120">
    <ele>21.1</ele>
    <time>2026-09-02T07:23:06Z</time>
   </trkpt>
   <trkpt lat="22.7434180" lon="120.3386270">
    <ele>21.1</ele>
    <time>2026-09-02T07:23:07Z</time>
   </trkpt>
   <trkpt lat="22.7433970" lon="120.3386430">
    <ele>21.1</ele>
    <time>2026-09-02T07:23:08Z</time>
   </trkpt>
   <trkpt lat="22.7433740" lon="120.3386600">
    <ele>21.1</ele>
    <time>2026-09-02T07:23:09Z</time>
   </trkpt>
   <trkpt lat="22.7433520" lon="120.3386720">
    <ele>21.2</ele>
    <time>2026-09-02T07:23:10Z</time>
   </trkpt>
   <trkpt lat="22.7433350" lon="120.3386780">
    <ele>21.2</ele>
    <time>2026-09-02T07:23:11Z</time>
   </trkpt>
   <trkpt lat="22.7433190" lon="120.3386760">
    <ele>21.2</ele>
    <time>2026-09-02T07:23:12Z</time>
   </trkpt>
   <trkpt lat="22.7433040" lon="120.3386680">
    <ele>21.2</ele>
    <time>2026-09-02T07:23:13Z</time>
   </trkpt>
   <trkpt lat="22.7432900" lon="120.3386600">
    <ele>21.3</ele>
    <time>2026-09-02T07:23:14Z</time>
   </trkpt>
   <trkpt lat="22.7432750" lon="120.3386490">
    <ele>21.3</ele>
    <time>2026-09-02T07:23:15Z</time>
   </trkpt>
   <trkpt lat="22.7432590" lon="120.3386350">
    <ele>21.3</ele>
    <time>2026-09-02T07:23:16Z</time>
   </trkpt>
   <trkpt lat="22.7432460" lon="120.3386220">
    <ele>21.3</ele>
    <time>2026-09-02T07:23:17Z</time>
   </trkpt>
   <trkpt lat="22.7432340" lon="120.3386090">
    <ele>21.3</ele>
    <time>2026-09-02T07:23:18Z</time>
   </trkpt>
   <trkpt lat="22.7432250" lon="120.3386010">
    <ele>21.3</ele>
    <time>2026-09-02T07:23:19Z</time>
   </trkpt>
   <trkpt lat="22.7432140" lon="120.3385900">
    <ele>21.3</ele>
    <time>2026-09-02T07:23:20Z</time>
   </trkpt>
   <trkpt lat="22.7432020" lon="120.3385770">
    <ele>21.3</ele>
    <time>2026-09-02T07:23:21Z</time>
   </trkpt>
   <trkpt lat="22.7431910" lon="120.3385640">
    <ele>21.3</ele>
    <time>2026-09-02T07:23:22Z</time>
   </trkpt>
   <trkpt lat="22.7431840" lon="120.3385530">
    <ele>21.3</ele>
    <time>2026-09-02T07:23:23Z</time>
   </trkpt>
   <trkpt lat="22.7431750" lon="120.3385440">
    <ele>21.3</ele>
    <time>2026-09-02T07:23:24Z</time>
   </trkpt>
   <trkpt lat="22.7431620" lon="120.3385330">
    <ele>21.3</ele>
    <time>2026-09-02T07:23:25Z</time>
   </trkpt>
   <trkpt lat="22.7431500" lon="120.3385180">
    <ele>21.3</ele>
    <time>2026-09-02T07:23:26Z</time>
   </trkpt>
   <trkpt lat="22.7431410" lon="120.3385090">
    <ele>21.3</ele>
    <time>2026-09-02T07:23:27Z</time>
   </trkpt>
   <trkpt lat="22.7431420" lon="120.3385110">
    <ele>21.3</ele>
    <time>2026-09-02T07:23:28Z</time>
   </trkpt>
   <trkpt lat="22.7431410" lon="120.3385120">
    <ele>21.3</ele>
    <time>2026-09-02T07:23:29Z</time>
   </trkpt>
   <trkpt lat="22.7431410" lon="120.3385120">
    <ele>21.3</ele>
    <time>2026-09-02T07:23:30Z</time>
   </trkpt>
   <trkpt lat="22.7431410" lon="120.3385120">
    <ele>21.3</ele>
    <time>2026-09-02T07:23:31Z</time>
   </trkpt>
   <trkpt lat="22.7431410" lon="120.3385120">
    <ele>21.3</ele>
    <time>2026-09-02T07:23:32Z</time>
   </trkpt>
   <trkpt lat="22.7431410" lon="120.3385120">
    <ele>21.3</ele>
    <time>2026-09-02T07:23:33Z</time>
   </trkpt>
   <trkpt lat="22.7431410" lon="120.3385120">
    <ele>21.3</ele>
    <time>2026-09-02T07:23:34Z</time>
   </trkpt>
   <trkpt lat="22.7431410" lon="120.3385120">
    <ele>21.3</ele>
    <time>2026-09-02T07:23:35Z</time>
   </trkpt>
   <trkpt lat="22.7431410" lon="120.3385120">
    <ele>21.3</ele>
    <time>2026-09-02T07:23:36Z</time>
   </trkpt>
   <trkpt lat="22.7431410" lon="120.3385120">
    <ele>21.3</ele>
    <time>2026-09-02T07:23:37Z</time>
   </trkpt>
   <trkpt lat="22.7431410" lon="120.3385120">
    <ele>21.3</ele>
    <time>2026-09-02T07:23:38Z</time>
   </trkpt>
   <trkpt lat="22.7431410" lon="120.3385120">
    <ele>21.3</ele>
    <time>2026-09-02T07:23:39Z</time>
   </trkpt>
   <trkpt lat="22.7431410" lon="120.3385120">
    <ele>21.3</ele>
    <time>2026-09-02T07:23:40Z</time>
   </trkpt>
   <trkpt lat="22.7431410" lon="120.3385120">
    <ele>21.3</ele>
    <time>2026-09-02T07:23:41Z</time>
   </trkpt>
   <trkpt lat="22.7431410" lon="120.3385120">
    <ele>21.3</ele>
    <time>2026-09-02T07:23:42Z</time>
   </trkpt>
   <trkpt lat="22.7431410" lon="120.3385120">
    <ele>21.3</ele>
    <time>2026-09-02T07:23:43Z</time>
   </trkpt>
   <trkpt lat="22.7431410" lon="120.3385120">
    <ele>21.3</ele>
    <time>2026-09-02T07:23:44Z</time>
   </trkpt>
   <trkpt lat="22.7431410" lon="120.3385120">
    <ele>21.3</ele>
    <time>2026-09-02T07:23:45Z</time>
   </trkpt>
   <trkpt lat="22.7431410" lon="120.3385120">
    <ele>21.3</ele>
    <time>2026-09-02T07:23:46Z</time>
   </trkpt>
   <trkpt lat="22.7431410" lon="120.3385120">
    <ele>21.3</ele>
    <time>2026-09-02T07:23:47Z</time>
   </trkpt>
   <trkpt lat="22.7431410" lon="120.3385120">
    <ele>21.3</ele>
    <time>2026-09-02T07:23:48Z</time>
   </trkpt>
   <trkpt lat="22.7431410" lon="120.3385120">
    <ele>21.3</ele>
    <time>2026-09-02T07:23:49Z</time>
   </trkpt>
   <trkpt lat="22.7431410" lon="120.3385120">
    <ele>21.3</ele>
    <time>2026-09-02T07:23:50Z</time>
   </trkpt>
   <trkpt lat="22.7431410" lon="120.3385120">
    <ele>21.3</ele>
    <time>2026-09-02T07:23:51Z</time>
   </trkpt>
   <trkpt lat="22.7431410" lon="120.3385120">
    <ele>21.3</ele>
    <time>2026-09-02T07:23:52Z</time>
   </trkpt>
   <trkpt lat="22.7431410" lon="120.3385120">
    <ele>21.3</ele>
    <time>2026-09-02T07:23:53Z</time>
   </trkpt>
   <trkpt lat="22.7431410" lon="120.3385120">
    <ele>21.3</ele>
    <time>2026-09-02T07:23:54Z</time>
   </trkpt>
   <trkpt lat="22.7431410" lon="120.3385120">
    <ele>21.3</ele>
    <time>2026-09-02T07:23:55Z</time>
   </trkpt>
   <trkpt lat="22.7431410" lon="120.3385120">
    <ele>21.3</ele>
    <time>2026-09-02T07:23:56Z</time>
   </trkpt>
   <trkpt lat="22.7431410" lon="120.3385120">
    <ele>21.3</ele>
    <time>2026-09-02T07:23:57Z</time>
   </trkpt>
   <trkpt lat="22.7431410" lon="120.3385120">
    <ele>21.3</ele>
    <time>2026-09-02T07:23:58Z</time>
   </trkpt>
   <trkpt lat="22.7431410" lon="120.3385120">
    <ele>21.3</ele>
    <time>2026-09-02T07:23:59Z</time>
   </trkpt>
   <trkpt lat="22.7431410" lon="120.3385120">
    <ele>21.3</ele>
    <time>2026-09-02T07:24:00Z</time>
   </trkpt>
   <trkpt lat="22.7431410" lon="120.3385120">
    <ele>21.3</ele>
    <time>2026-09-02T07:24:01Z</time>
   </trkpt>
   <trkpt lat="22.7431410" lon="120.3385120">
    <ele>21.3</ele>
    <time>2026-09-02T07:24:02Z</time>
   </trkpt>
   <trkpt lat="22.7431410" lon="120.3385120">
    <ele>21.3</ele>
    <time>2026-09-02T07:24:03Z</time>
   </trkpt>
   <trkpt lat="22.7431410" lon="120.3385120">
    <ele>21.3</ele>
    <time>2026-09-02T07:24:04Z</time>
   </trkpt>
   <trkpt lat="22.7431410" lon="120.3385120">
    <ele>21.3</ele>
    <time>2026-09-02T07:24:05Z</time>
   </trkpt>
   <trkpt lat="22.7431410" lon="120.3385120">
    <ele>21.3</ele>
    <time>2026-09-02T07:24:06Z</time>
   </trkpt>
   <trkpt lat="22.7431410" lon="120.3385120">
    <ele>21.3</ele>
    <time>2026-09-02T07:24:07Z</time>
   </trkpt>
   <trkpt lat="22.7431410" lon="120.3385120">
    <ele>21.3</ele>
    <time>2026-09-02T07:24:08Z</time>
   </trkpt>
   <trkpt lat="22.7431410" lon="120.3385120">
    <ele>21.3</ele>
    <time>2026-09-02T07:24:09Z</time>
   </trkpt>
   <trkpt lat="22.7431400" lon="120.3385150">
    <ele>21.3</ele>
    <time>2026-09-02T07:24:10Z</time>
   </trkpt>
   <trkpt lat="22.7431380" lon="120.3385140">
    <ele>21.3</ele>
    <time>2026-09-02T07:24:11Z</time>
   </trkpt>
   <trkpt lat="22.7431380" lon="120.3385130">
    <ele>21.3</ele>
    <time>2026-09-02T07:24:12Z</time>
   </trkpt>
   <trkpt lat="22.7431400" lon="120.3385110">
    <ele>21.3</ele>
    <time>2026-09-02T07:24:13Z</time>
   </trkpt>
   <trkpt lat="22.7431400" lon="120.3385150">
    <ele>21.3</ele>
    <time>2026-09-02T07:24:14Z</time>
   </trkpt>
   <trkpt lat="22.7431400" lon="120.3385150">
    <ele>21.3</ele>
    <time>2026-09-02T07:24:15Z</time>
   </trkpt>
   <trkpt lat="22.7431400" lon="120.3385150">
    <ele>21.3</ele>
    <time>2026-09-02T07:24:16Z</time>
   </trkpt>
   <trkpt lat="22.7431400" lon="120.3385150">
    <ele>21.3</ele>
    <time>2026-09-02T07:24:17Z</time>
   </trkpt>
   <trkpt lat="22.7431400" lon="120.3385150">
    <ele>21.3</ele>
    <time>2026-09-02T07:24:18Z</time>
   </trkpt>
   <trkpt lat="22.7431340" lon="120.3385180">
    <ele>21.3</ele>
    <time>2026-09-02T07:24:21Z</time>
   </trkpt>
   <trkpt lat="22.7431310" lon="120.3385200">
    <ele>21.3</ele>
    <time>2026-09-02T07:24:22Z</time>
   </trkpt>
   <trkpt lat="22.7431330" lon="120.3385220">
    <ele>21.3</ele>
    <time>2026-09-02T07:24:23Z</time>
   </trkpt>
   <trkpt lat="22.7431350" lon="120.3385280">
    <ele>21.3</ele>
    <time>2026-09-02T07:24:25Z</time>
   </trkpt>
   <trkpt lat="22.7431470" lon="120.3385400">
    <ele>21.3</ele>
    <time>2026-09-02T07:24:28Z</time>
   </trkpt>
   <trkpt lat="22.7431420" lon="120.3385370">
    <ele>21.3</ele>
    <time>2026-09-02T07:24:29Z</time>
   </trkpt>
   <trkpt lat="22.7431360" lon="120.3385360">
    <ele>21.3</ele>
    <time>2026-09-02T07:24:30Z</time>
   </trkpt>
   <trkpt lat="22.7431260" lon="120.3385310">
    <ele>21.3</ele>
    <time>2026-09-02T07:24:31Z</time>
   </trkpt>
   <trkpt lat="22.7431190" lon="120.3385230">
    <ele>21.3</ele>
    <time>2026-09-02T07:24:32Z</time>
   </trkpt>
   <trkpt lat="22.7431120" lon="120.3385180">
    <ele>21.3</ele>
    <time>2026-09-02T07:24:33Z</time>
   </trkpt>
   <trkpt lat="22.7431100" lon="120.3385140">
    <ele>21.3</ele>
    <time>2026-09-02T07:24:34Z</time>
   </trkpt>
   <trkpt lat="22.7431100" lon="120.3385090">
    <ele>21.3</ele>
    <time>2026-09-02T07:24:35Z</time>
   </trkpt>
   <trkpt lat="22.7431090" lon="120.3385050">
    <ele>21.3</ele>
    <time>2026-09-02T07:24:36Z</time>
   </trkpt>
   <trkpt lat="22.7431090" lon="120.3385050">
    <ele>21.3</ele>
    <time>2026-09-02T07:24:38Z</time>
   </trkpt>
   <trkpt lat="22.7431090" lon="120.3385050">
    <ele>21.3</ele>
    <time>2026-09-02T07:24:39Z</time>
   </trkpt>
   <trkpt lat="22.7431270" lon="120.3385520">
    <ele>21.3</ele>
    <time>2026-09-02T07:24:44Z</time>
   </trkpt>
   <trkpt lat="22.7431210" lon="120.3385480">
    <ele>21.3</ele>
    <time>2026-09-02T07:24:45Z</time>
   </trkpt>
   <trkpt lat="22.7431160" lon="120.3385490">
    <ele>21.2</ele>
    <time>2026-09-02T07:24:46Z</time>
   </trkpt>
   <trkpt lat="22.7431160" lon="120.3385490">
    <ele>21.2</ele>
    <time>2026-09-02T07:24:47Z</time>
   </trkpt>
   <trkpt lat="22.7431160" lon="120.3385480">
    <ele>21.2</ele>
    <time>2026-09-02T07:24:48Z</time>
   </trkpt>
   <trkpt lat="22.7431060" lon="120.3385460">
    <ele>21.2</ele>
    <time>2026-09-02T07:24:49Z</time>
   </trkpt>
   <trkpt lat="22.7430960" lon="120.3385360">
    <ele>21.2</ele>
    <time>2026-09-02T07:24:50Z</time>
   </trkpt>
   <trkpt lat="22.7430860" lon="120.3385220">
    <ele>21.2</ele>
    <time>2026-09-02T07:24:51Z</time>
   </trkpt>
   <trkpt lat="22.7430680" lon="120.3385060">
    <ele>21.2</ele>
    <time>2026-09-02T07:24:52Z</time>
   </trkpt>
   <trkpt lat="22.7430560" lon="120.3384820">
    <ele>21.2</ele>
    <time>2026-09-02T07:24:53Z</time>
   </trkpt>
   <trkpt lat="22.7430410" lon="120.3384650">
    <ele>21.2</ele>
    <time>2026-09-02T07:24:54Z</time>
   </trkpt>
   <trkpt lat="22.7430260" lon="120.3384470">
    <ele>21.2</ele>
    <time>2026-09-02T07:24:55Z</time>
   </trkpt>
   <trkpt lat="22.7430120" lon="120.3384360">
    <ele>21.1</ele>
    <time>2026-09-02T07:24:56Z</time>
   </trkpt>
   <trkpt lat="22.7430080" lon="120.3384310">
    <ele>21.1</ele>
    <time>2026-09-02T07:24:57Z</time>
   </trkpt>
   <trkpt lat="22.7430060" lon="120.3384330">
    <ele>21.1</ele>
    <time>2026-09-02T07:24:58Z</time>
   </trkpt>
   <trkpt lat="22.7430060" lon="120.3384330">
    <ele>21.1</ele>
    <time>2026-09-02T07:24:59Z</time>
   </trkpt>
   <trkpt lat="22.7430010" lon="120.3384310">
    <ele>21.1</ele>
    <time>2026-09-02T07:25:00Z</time>
   </trkpt>
   <trkpt lat="22.7429960" lon="120.3384310">
    <ele>21.1</ele>
    <time>2026-09-02T07:25:01Z</time>
   </trkpt>
   <trkpt lat="22.7429980" lon="120.3384320">
    <ele>21.1</ele>
    <time>2026-09-02T07:25:02Z</time>
   </trkpt>
   <trkpt lat="22.7429970" lon="120.3384300">
    <ele>21.1</ele>
    <time>2026-09-02T07:25:03Z</time>
   </trkpt>
   <trkpt lat="22.7429970" lon="120.3384300">
    <ele>21.1</ele>
    <time>2026-09-02T07:25:04Z</time>
   </trkpt>
   <trkpt lat="22.7429970" lon="120.3384300">
    <ele>21.1</ele>
    <time>2026-09-02T07:25:05Z</time>
   </trkpt>
   <trkpt lat="22.7429970" lon="120.3384300">
    <ele>21.1</ele>
    <time>2026-09-02T07:25:06Z</time>
   </trkpt>
   <trkpt lat="22.7430030" lon="120.3384340">
    <ele>21.1</ele>
    <time>2026-09-02T07:25:07Z</time>
   </trkpt>
   <trkpt lat="22.7429980" lon="120.3384360">
    <ele>21.1</ele>
    <time>2026-09-02T07:25:08Z</time>
   </trkpt>
   <trkpt lat="22.7429930" lon="120.3384340">
    <ele>21.1</ele>
    <time>2026-09-02T07:25:09Z</time>
   </trkpt>
   <trkpt lat="22.7429940" lon="120.3384340">
    <ele>21.1</ele>
    <time>2026-09-02T07:25:10Z</time>
   </trkpt>
   <trkpt lat="22.7429940" lon="120.3384340">
    <ele>21.1</ele>
    <time>2026-09-02T07:25:11Z</time>
   </trkpt>
   <trkpt lat="22.7429920" lon="120.3384340">
    <ele>21.1</ele>
    <time>2026-09-02T07:25:12Z</time>
   </trkpt>
   <trkpt lat="22.7429920" lon="120.3384330">
    <ele>21.1</ele>
    <time>2026-09-02T07:25:13Z</time>
   </trkpt>
   <trkpt lat="22.7429890" lon="120.3384360">
    <ele>21.1</ele>
    <time>2026-09-02T07:25:14Z</time>
   </trkpt>
   <trkpt lat="22.7429860" lon="120.3384370">
    <ele>21.1</ele>
    <time>2026-09-02T07:25:15Z</time>
   </trkpt>
   <trkpt lat="22.7429860" lon="120.3384370">
    <ele>21.1</ele>
    <time>2026-09-02T07:25:17Z</time>
   </trkpt>
   <trkpt lat="22.7429860" lon="120.3384370">
    <ele>21.1</ele>
    <time>2026-09-02T07:25:18Z</time>
   </trkpt>
   <trkpt lat="22.7429860" lon="120.3384370">
    <ele>21.1</ele>
    <time>2026-09-02T07:25:19Z</time>
   </trkpt>
   <trkpt lat="22.7429860" lon="120.3384370">
    <ele>21.1</ele>
    <time>2026-09-02T07:25:20Z</time>
   </trkpt>
   <trkpt lat="22.7429860" lon="120.3384370">
    <ele>21.1</ele>
    <time>2026-09-02T07:25:21Z</time>
   </trkpt>
   <trkpt lat="22.7429860" lon="120.3384370">
    <ele>21.1</ele>
    <time>2026-09-02T07:25:22Z</time>
   </trkpt>
   <trkpt lat="22.7429860" lon="120.3384370">
    <ele>21.1</ele>
    <time>2026-09-02T07:25:23Z</time>
   </trkpt>
   <trkpt lat="22.7429860" lon="120.3384370">
    <ele>21.1</ele>
    <time>2026-09-02T07:25:24Z</time>
   </trkpt>
   <trkpt lat="22.7429860" lon="120.3384370">
    <ele>21.1</ele>
    <time>2026-09-02T07:25:26Z</time>
   </trkpt>
   <trkpt lat="22.7429860" lon="120.3384370">
    <ele>21.1</ele>
    <time>2026-09-02T07:25:27Z</time>
   </trkpt>
   <trkpt lat="22.7429860" lon="120.3384370">
    <ele>21.1</ele>
    <time>2026-09-02T07:25:28Z</time>
   </trkpt>
   <trkpt lat="22.7429860" lon="120.3384370">
    <ele>21.1</ele>
    <time>2026-09-02T07:25:30Z</time>
   </trkpt>
   <trkpt lat="22.7429860" lon="120.3384370">
    <ele>21.1</ele>
    <time>2026-09-02T07:25:31Z</time>
   </trkpt>
   <trkpt lat="22.7429950" lon="120.3384490">
    <ele>21.1</ele>
    <time>2026-09-02T07:25:33Z</time>
   </trkpt>
   <trkpt lat="22.7430010" lon="120.3384480">
    <ele>21.1</ele>
    <time>2026-09-02T07:25:35Z</time>
   </trkpt>
   <trkpt lat="22.7430010" lon="120.3384480">
    <ele>21.1</ele>
    <time>2026-09-02T07:25:36Z</time>
   </trkpt>
   <trkpt lat="22.7430010" lon="120.3384480">
    <ele>21.1</ele>
    <time>2026-09-02T07:25:37Z</time>
   </trkpt>
   <trkpt lat="22.7430010" lon="120.3384480">
    <ele>21.1</ele>
    <time>2026-09-02T07:25:38Z</time>
   </trkpt>
   <trkpt lat="22.7430010" lon="120.3384480">
    <ele>21.1</ele>
    <time>2026-09-02T07:25:39Z</time>
   </trkpt>
   <trkpt lat="22.7430010" lon="120.3384480">
    <ele>21.1</ele>
    <time>2026-09-02T07:25:40Z</time>
   </trkpt>
   <trkpt lat="22.7430010" lon="120.3384480">
    <ele>21.1</ele>
    <time>2026-09-02T07:25:41Z</time>
   </trkpt>
   <trkpt lat="22.7430010" lon="120.3384480">
    <ele>21.1</ele>
    <time>2026-09-02T07:25:42Z</time>
   </trkpt>
   <trkpt lat="22.7430010" lon="120.3384480">
    <ele>21.1</ele>
    <time>2026-09-02T07:25:43Z</time>
   </trkpt>
   <trkpt lat="22.7430010" lon="120.3384480">
    <ele>21.1</ele>
    <time>2026-09-02T07:25:44Z</time>
   </trkpt>
   <trkpt lat="22.7430010" lon="120.3384480">
    <ele>21.1</ele>
    <time>2026-09-02T07:25:45Z</time>
   </trkpt>
   <trkpt lat="22.7430010" lon="120.3384480">
    <ele>21.1</ele>
    <time>2026-09-02T07:25:46Z</time>
   </trkpt>
   <trkpt lat="22.7430010" lon="120.3384480">
    <ele>21.1</ele>
    <time>2026-09-02T07:25:47Z</time>
   </trkpt>
   <trkpt lat="22.7430010" lon="120.3384480">
    <ele>21.1</ele>
    <time>2026-09-02T07:25:48Z</time>
   </trkpt>
   <trkpt lat="22.7430010" lon="120.3384480">
    <ele>21.1</ele>
    <time>2026-09-02T07:25:49Z</time>
   </trkpt>
  </trkseg>
 </trk>
</gpx>
