<?xml version="1.0" encoding="UTF-8"?>
<gpx creator="StravaGPX" version="1.1" xmlns="http://www.topografix.com/GPX/1/1" xmlns:xsi="http://www.w3.org/2001/XMLSchema-instance" xsi:schemaLocation="http://www.topografix.com/GPX/1/1 http://www.topografix.com/GPX/1/1/gpx.xsd">
 <metadata>
  <time>2026-08-05T04:56:40Z</time>
 </metadata>
 <trk>
  <name>午後電動自行車騎乘</name>
  <type>ebikeride</type>
  <trkseg>
   <trkpt lat="22.7303260" lon="120.3367290">
    <ele>24.1</ele>
    <time>2026-08-05T04:56:40Z</time>
   </trkpt>
   <trkpt lat="22.7303260" lon="120.3367290">
    <ele>24.1</ele>
    <time>2026-08-05T04:56:41Z</time>
   </trkpt>
   <trkpt lat="22.7303260" lon="120.3367290">
    <ele>24.1</ele>
    <time>2026-08-05T04:56:42Z</time>
   </trkpt>
   <trkpt lat="22.7302760" lon="120.3367300">
    <ele>24.1</ele>
    <time>2026-08-05T04:56:43Z</time>
   </trkpt>
   <trkpt lat="22.7302760" lon="120.3367300">
    <ele>24.1</ele>
    <time>2026-08-05T04:56:44Z</time>
   </trkpt>
   <trkpt lat="22.7302440" lon="120.3367350">
    <ele>24.1</ele>
    <time>2026-08-05T04:56:45Z</time>
   </trkpt>
   <trkpt lat="22.7302440" lon="120.3367350">
    <ele>24.1</ele>
    <time>2026-08-05T04:56:46Z</time>
   </trkpt>
   <trkpt lat="22.7302440" lon="120.3367350">
    <ele>24.1</ele>
    <time>2026-08-05T04:56:47Z</time>
   </trkpt>
   <trkpt lat="22.7302700" lon="120.3367520">
    <ele>24.1</ele>
    <time>2026-08-05T04:56:48Z</time>
   </trkpt>
   <trkpt lat="22.7302700" lon="120.3367520">
    <ele>24.1</ele>
    <time>2026-08-05T04:56:49Z</time>
   </trkpt>
   <trkpt lat="22.7302680" lon="120.3367520">
    <ele>24.1</ele>
    <time>2026-08-05T04:56:50Z</time>
   </trkpt>
   <trkpt lat="22.7303410" lon="120.3367980">
    <ele>24.1</ele>
    <time>2026-08-05T04:57:00Z</time>
   </trkpt>
   <trkpt lat="22.7303300" lon="120.3367940">
    <ele>24.1</ele>
    <time>2026-08-05T04:57:01Z</time>
   </trkpt>
   <trkpt lat="22.7303290" lon="120.3367990">
    <ele>24.1</ele>
    <time>2026-08-05T04:57:02Z</time>
   </trkpt>
   <trkpt lat="22.7303310" lon="120.3368020">
    <ele>24.1</ele>
    <time>2026-08-05T04:57:03Z</time>
   </trkpt>
   <trkpt lat="22.7303390" lon="120.3367950">
    <ele>24.1</ele>
    <time>2026-08-05T04:57:04Z</time>
   </trkpt>
   <trkpt lat="22.7303340" lon="120.3367780">
    <ele>24.1</ele>
    <time>2026-08-05T04:57:05Z</time>
   </trkpt>
   <trkpt lat="22.7303420" lon="120.3367630">
    <ele>24.1</ele>
    <time>2026-08-05T04:57:06Z</time>
   </trkpt>
   <trkpt lat="22.7303400" lon="120.3367560">
    <ele>24.1</ele>
    <time>2026-08-05T04:57:07Z</time>
   </trkpt>
   <trkpt lat="22.7303380" lon="120.3367590">
    <ele>24.1</ele>
    <time>2026-08-05T04:57:08Z</time>
   </trkpt>
   <trkpt lat="22.7303240" lon="120.3367690">
    <ele>24.1</ele>
    <time>2026-08-05T04:57:09Z</time>
   </trkpt>
   <trkpt lat="22.7303010" lon="120.3367850">
    <ele>24.1</ele>
    <time>2026-08-05T04:57:10Z</time>
   </trkpt>
   <trkpt lat="22.7303230" lon="120.3367880">
    <ele>24.1</ele>
    <time>2026-08-05T04:57:11Z</time>
   </trkpt>
   <trkpt lat="22.7303310" lon="120.3367910">
    <ele>24.1</ele>
    <time>2026-08-05T04:57:12Z</time>
   </trkpt>
   <trkpt lat="22.7303450" lon="120.3367990">
    <ele>24.1</ele>
    <time>2026-08-05T04:57:13Z</time>
   </trkpt>
   <trkpt lat="22.7303620" lon="120.3368010">
    <ele>24.1</ele>
    <time>2026-08-05T04:57:14Z</time>
   </trkpt>
   <trkpt lat="22.7303690" lon="120.3368080">
    <ele>24.1</ele>
    <time>2026-08-05T04:57:15Z</time>
   </trkpt>
   <trkpt lat="22.7303500" lon="120.3367780">
    <ele>24.1</ele>
    <time>2026-08-05T04:57:16Z</time>
   </trkpt>
   <trkpt lat="22.7303530" lon="120.3368020">
    <ele>24.1</ele>
    <time>2026-08-05T04:57:17Z</time>
   </trkpt>
   <trkpt lat="22.7303480" lon="120.3368240">
    <ele>24.1</ele>
    <time>2026-08-05T04:57:18Z</time>
   </trkpt>
   <trkpt lat="22.7303840" lon="120.3368500">
    <ele>24.1</ele>
    <time>2026-08-05T04:57:19Z</time>
   </trkpt>
   <trkpt lat="22.7304200" lon="120.3368760">
    <ele>24.1</ele>
    <time>2026-08-05T04:57:20Z</time>
   </trkpt>
   <trkpt lat="22.7304170" lon="120.3368730">
    <ele>24.1</ele>
    <time>2026-08-05T04:57:21Z</time>
   </trkpt>
   <trkpt lat="22.7304060" lon="120.3368450">
    <ele>24.1</ele>
    <time>2026-08-05T04:57:22Z</time>
   </trkpt>
   <trkpt lat="22.7303450" lon="120.3368390">
    <ele>24.1</ele>
    <time>2026-08-05T04:57:23Z</time>
   </trkpt>
   <trkpt lat="22.7303440" lon="120.3368370">
    <ele>24.1</ele>
    <time>2026-08-05T04:57:24Z</time>
   </trkpt>
   <trkpt lat="22.7303360" lon="120.3368030">
    <ele>24.1</ele>
    <time>2026-08-05T04:57:25Z</time>
   </trkpt>
   <trkpt lat="22.7303360" lon="120.3368020">
    <ele>24.1</ele>
    <time>2026-08-05T04:57:26Z</time>
   </trkpt>
   <trkpt lat="22.7303360" lon="120.3368020">
    <ele>24.1</ele>
    <time>2026-08-05T04:57:27Z</time>
   </trkpt>
   <trkpt lat="22.7303360" lon="120.3368020">
    <ele>24.1</ele>
    <time>2026-08-05T04:57:28Z</time>
   </trkpt>
   <trkpt lat="22.7305420" lon="120.3368150">
    <ele>23.3</ele>
    <time>2026-08-05T04:58:44Z</time>
   </trkpt>
   <trkpt lat="22.7305460" lon="120.3368070">
    <ele>23.2</ele>
    <time>2026-08-05T04:58:45Z</time>
   </trkpt>
   <trkpt lat="22.7305450" lon="120.3368040">
    <ele>23.2</ele>
    <time>2026-08-05T04:58:46Z</time>
   </trkpt>
   <trkpt lat="22.7305450" lon="120.3368040">
    <ele>23.2</ele>
    <time>2026-08-05T04:58:47Z</time>
   </trkpt>
   <trkpt lat="22.7305450" lon="120.3368040">
    <ele>23.2</ele>
    <time>2026-08-05T04:58:48Z</time>
   </trkpt>
   <trkpt lat="22.7305450" lon="120.3368040">
    <ele>23.2</ele>
    <time>2026-08-05T04:58:49Z</time>
   </trkpt>
   <trkpt lat="22.7305450" lon="120.3368040">
    <ele>23.2</ele>
    <time>2026-08-05T04:58:50Z</time>
   </trkpt>
   <trkpt lat="22.7305520" lon="120.3367790">
    <ele>23.1</ele>
    <time>2026-08-05T04:58:51Z</time>
   </trkpt>
   <trkpt lat="22.7305520" lon="120.3367790">
    <ele>23.1</ele>
    <time>2026-08-05T04:58:52Z</time>
   </trkpt>
   <trkpt lat="22.7305520" lon="120.3367790">
    <ele>23.1</ele>
    <time>2026-08-05T04:58:53Z</time>
   </trkpt>
   <trkpt lat="22.7307460" lon="120.3368630">
    <ele>22.3</ele>
    <time>2026-08-05T04:59:18Z</time>
   </trkpt>
   <trkpt lat="22.7307450" lon="120.3368590">
    <ele>22.3</ele>
    <time>2026-08-05T04:59:19Z</time>
   </trkpt>
   <trkpt lat="22.7307700" lon="120.3368750">
    <ele>22.2</ele>
    <time>2026-08-05T04:59:20Z</time>
   </trkpt>
   <trkpt lat="22.7307710" lon="120.3368740">
    <ele>22.2</ele>
    <time>2026-08-05T04:59:21Z</time>
   </trkpt>
   <trkpt lat="22.7307690" lon="120.3368250">
    <ele>22.0</ele>
    <time>2026-08-05T04:59:23Z</time>
   </trkpt>
   <trkpt lat="22.7307380" lon="120.3368050">
    <ele>22.1</ele>
    <time>2026-08-05T04:59:24Z</time>
   </trkpt>
   <trkpt lat="22.7307360" lon="120.3368040">
    <ele>22.1</ele>
    <time>2026-08-05T04:59:25Z</time>
   </trkpt>
   <trkpt lat="22.7307330" lon="120.3368030">
    <ele>22.1</ele>
    <time>2026-08-05T04:59:26Z</time>
   </trkpt>
   <trkpt lat="22.7307310" lon="120.3368020">
    <ele>22.1</ele>
    <time>2026-08-05T04:59:27Z</time>
   </trkpt>
   <trkpt lat="22.7303630" lon="120.3366250">
    <ele>24.0</ele>
    <time>2026-08-05T05:02:03Z</time>
   </trkpt>
   <trkpt lat="22.7303610" lon="120.3366240">
    <ele>25.9</ele>
    <time>2026-08-05T05:02:04Z</time>
   </trkpt>
   <trkpt lat="22.7303610" lon="120.3366240">
    <ele>25.9</ele>
    <time>2026-08-05T05:02:05Z</time>
   </trkpt>
  </trkseg>
 </trk>
</gpx>
