<?xml version="1.0" encoding="UTF-8"?>
<gpx creator="StravaGPX" version="1.1" xmlns="http://www.topografix.com/GPX/1/1" xmlns:xsi="http://www.w3.org/2001/XMLSchema-instance" xsi:schemaLocation="http://www.topografix.com/GPX/1/1 http://www.topografix.com/GPX/1/1/gpx.xsd">
 <metadata>
  <time>2026-08-05T07:18:16Z</time>
 </metadata>
 <trk>
  <name>午後電動自行車騎乘</name>
  <type>ebikeride</type>
  <trkseg>
   <trkpt lat="22.7493040" lon="120.3283600">
    <ele>14.1</ele>
    <time>2026-08-05T07:18:16Z</time>
   </trkpt>
   <trkpt lat="22.7492980" lon="120.3283320">
    <ele>14.1</ele>
    <time>2026-08-05T07:18:17Z</time>
   </trkpt>
   <trkpt lat="22.7492920" lon="120.3283040">
    <ele>14.1</ele>
    <time>2026-08-05T07:18:18Z</time>
   </trkpt>
   <trkpt lat="22.7492850" lon="120.3282480">
    <ele>14.0</ele>
    <time>2026-08-05T07:18:19Z</time>
   </trkpt>
   <trkpt lat="22.7492830" lon="120.3281870">
    <ele>14.0</ele>
    <time>2026-08-05T07:18:20Z</time>
   </trkpt>
   <trkpt lat="22.7492910" lon="120.3281250">
    <ele>14.0</ele>
    <time>2026-08-05T07:18:21Z</time>
   </trkpt>
   <trkpt lat="22.7492790" lon="120.3280650">
    <ele>14.0</ele>
    <time>2026-08-05T07:18:22Z</time>
   </trkpt>
   <trkpt lat="22.7492780" lon="120.3279930">
    <ele>14.0</ele>
    <time>2026-08-05T07:18:23Z</time>
   </trkpt>
   <trkpt lat="22.7492760" lon="120.3279280">
    <ele>13.9</ele>
    <time>2026-08-05T07:18:24Z</time>
   </trkpt>
   <trkpt lat="22.7492830" lon="120.3278600">
    <ele>13.9</ele>
    <time>2026-08-05T07:18:25Z</time>
   </trkpt>
   <trkpt lat="22.7492770" lon="120.3277950">
    <ele>13.9</ele>
    <time>2026-08-05T07:18:26Z</time>
   </trkpt>
   <trkpt lat="22.7492730" lon="120.3277110">
    <ele>13.9</ele>
    <time>2026-08-05T07:18:27Z</time>
   </trkpt>
   <trkpt lat="22.7492730" lon="120.3276510">
    <ele>13.9</ele>
    <time>2026-08-05T07:18:28Z</time>
   </trkpt>
   <trkpt lat="22.7492720" lon="120.3275920">
    <ele>13.9</ele>
    <time>2026-08-05T07:18:29Z</time>
   </trkpt>
   <trkpt lat="22.7492770" lon="120.3275320">
    <ele>13.9</ele>
    <time>2026-08-05T07:18:30Z</time>
   </trkpt>
   <trkpt lat="22.7492650" lon="120.3274760">
    <ele>13.8</ele>
    <time>2026-08-05T07:18:31Z</time>
   </trkpt>
   <trkpt lat="22.7492690" lon="120.3274060">
    <ele>13.8</ele>
    <time>2026-08-05T07:18:32Z</time>
   </trkpt>
   <trkpt lat="22.7492570" lon="120.3273350">
    <ele>13.8</ele>
    <time>2026-08-05T07:18:33Z</time>
   </trkpt>
   <trkpt lat="22.7492610" lon="120.3272430">
    <ele>13.7</ele>
    <time>2026-08-05T07:18:34Z</time>
   </trkpt>
   <trkpt lat="22.7492730" lon="120.3271540">
    <ele>13.7</ele>
    <time>2026-08-05T07:18:35Z</time>
   </trkpt>
   <trkpt lat="22.7492670" lon="120.3270750">
    <ele>13.6</ele>
    <time>2026-08-05T07:18:36Z</time>
   </trkpt>
   <trkpt lat="22.7492600" lon="120.3270030">
    <ele>13.6</ele>
    <time>2026-08-05T07:18:37Z</time>
   </trkpt>
   <trkpt lat="22.7492640" lon="120.3269030">
    <ele>13.5</ele>
    <time>2026-08-05T07:18:38Z</time>
   </trkpt>
   <trkpt lat="22.7492910" lon="120.3268130">
    <ele>13.5</ele>
    <time>2026-08-05T07:18:39Z</time>
   </trkpt>
   <trkpt lat="22.7492640" lon="120.3267210">
    <ele>13.4</ele>
    <time>2026-08-05T07:18:40Z</time>
   </trkpt>
   <trkpt lat="22.7492780" lon="120.3266240">
    <ele>13.4</ele>
    <time>2026-08-05T07:18:41Z</time>
   </trkpt>
   <trkpt lat="22.7492640" lon="120.3265510">
    <ele>13.4</ele>
    <time>2026-08-05T07:18:42Z</time>
   </trkpt>
   <trkpt lat="22.7492710" lon="120.3264560">
    <ele>13.3</ele>
    <time>2026-08-05T07:18:43Z</time>
   </trkpt>
   <trkpt lat="22.7492700" lon="120.3263770">
    <ele>13.2</ele>
    <time>2026-08-05T07:18:44Z</time>
   </trkpt>
   <trkpt lat="22.7492760" lon="120.3262950">
    <ele>13.1</ele>
    <time>2026-08-05T07:18:45Z</time>
   </trkpt>
   <trkpt lat="22.7492760" lon="120.3262320">
    <ele>13.0</ele>
    <time>2026-08-05T07:18:46Z</time>
   </trkpt>
   <trkpt lat="22.7492760" lon="120.3261930">
    <ele>13.0</ele>
    <time>2026-08-05T07:18:47Z</time>
   </trkpt>
   <trkpt lat="22.7492780" lon="120.3261720">
    <ele>13.0</ele>
    <time>2026-08-05T07:18:48Z</time>
   </trkpt>
   <trkpt lat="22.7492770" lon="120.3261420">
    <ele>13.0</ele>
    <time>2026-08-05T07:18:49Z</time>
   </trkpt>
   <trkpt lat="22.7492740" lon="120.3261110">
    <ele>13.0</ele>
    <time>2026-08-05T07:18:50Z</time>
   </trkpt>
   <trkpt lat="22.7492500" lon="120.3260980">
    <ele>12.9</ele>
    <time>2026-08-05T07:18:51Z</time>
   </trkpt>
   <trkpt lat="22.7492150" lon="120.3260880">
    <ele>12.9</ele>
    <time>2026-08-05T07:18:52Z</time>
   </trkpt>
   <trkpt lat="22.7491610" lon="120.3260870">
    <ele>12.9</ele>
    <time>2026-08-05T07:18:53Z</time>
   </trkpt>
   <trkpt lat="22.7491270" lon="120.3260830">
    <ele>12.9</ele>
    <time>2026-08-05T07:18:54Z</time>
   </trkpt>
   <trkpt lat="22.7490620" lon="120.3260870">
    <ele>12.9</ele>
    <time>2026-08-05T07:18:55Z</time>
   </trkpt>
   <trkpt lat="22.7490130" lon="120.3260910">
    <ele>13.0</ele>
    <time>2026-08-05T07:18:56Z</time>
   </trkpt>
   <trkpt lat="22.7489510" lon="120.3260900">
    <ele>13.0</ele>
    <time>2026-08-05T07:18:57Z</time>
   </trkpt>
   <trkpt lat="22.7489010" lon="120.3260940">
    <ele>13.0</ele>
    <time>2026-08-05T07:18:58Z</time>
   </trkpt>
   <trkpt lat="22.7488380" lon="120.3260970">
    <ele>13.0</ele>
    <time>2026-08-05T07:18:59Z</time>
   </trkpt>
   <trkpt lat="22.7487770" lon="120.3261020">
    <ele>13.0</ele>
    <time>2026-08-05T07:19:00Z</time>
   </trkpt>
   <trkpt lat="22.7487240" lon="120.3261110">
    <ele>13.0</ele>
    <time>2026-08-05T07:19:01Z</time>
   </trkpt>
   <trkpt lat="22.7486710" lon="120.3261140">
    <ele>13.0</ele>
    <time>2026-08-05T07:19:02Z</time>
   </trkpt>
   <trkpt lat="22.7486280" lon="120.3261230">
    <ele>13.0</ele>
    <time>2026-08-05T07:19:03Z</time>
   </trkpt>
   <trkpt lat="22.7486000" lon="120.3261580">
    <ele>13.0</ele>
    <time>2026-08-05T07:19:04Z</time>
   </trkpt>
   <trkpt lat="22.7485570" lon="120.3262030">
    <ele>13.0</ele>
    <time>2026-08-05T07:19:05Z</time>
   </trkpt>
   <trkpt lat="22.7485340" lon="120.3262580">
    <ele>13.0</ele>
    <time>2026-08-05T07:19:06Z</time>
   </trkpt>
   <trkpt lat="22.7485100" lon="120.3263250">
    <ele>13.0</ele>
    <time>2026-08-05T07:19:07Z</time>
   </trkpt>
   <trkpt lat="22.7484990" lon="120.3263910">
    <ele>13.0</ele>
    <time>2026-08-05T07:19:08Z</time>
   </trkpt>
   <trkpt lat="22.7484780" lon="120.3264630">
    <ele>13.0</ele>
    <time>2026-08-05T07:19:09Z</time>
   </trkpt>
   <trkpt lat="22.7484590" lon="120.3265390">
    <ele>13.1</ele>
    <time>2026-08-05T07:19:10Z</time>
   </trkpt>
   <trkpt lat="22.7484420" lon="120.3266130">
    <ele>13.1</ele>
    <time>2026-08-05T07:19:11Z</time>
   </trkpt>
   <trkpt lat="22.7484290" lon="120.3266810">
    <ele>13.1</ele>
    <time>2026-08-05T07:19:12Z</time>
   </trkpt>
   <trkpt lat="22.7484100" lon="120.3267460">
    <ele>13.1</ele>
    <time>2026-08-05T07:19:13Z</time>
   </trkpt>
   <trkpt lat="22.7483820" lon="120.3268190">
    <ele>13.1</ele>
    <time>2026-08-05T07:19:14Z</time>
   </trkpt>
   <trkpt lat="22.7483590" lon="120.3268810">
    <ele>13.1</ele>
    <time>2026-08-05T07:19:15Z</time>
   </trkpt>
   <trkpt lat="22.7483500" lon="120.3269500">
    <ele>13.1</ele>
    <time>2026-08-05T07:19:16Z</time>
   </trkpt>
   <trkpt lat="22.7483450" lon="120.3270110">
    <ele>13.1</ele>
    <time>2026-08-05T07:19:17Z</time>
   </trkpt>
   <trkpt lat="22.7483210" lon="120.3270730">
    <ele>13.1</ele>
    <time>2026-08-05T07:19:18Z</time>
   </trkpt>
   <trkpt lat="22.7482960" lon="120.3271350">
    <ele>13.1</ele>
    <time>2026-08-05T07:19:19Z</time>
   </trkpt>
   <trkpt lat="22.7482740" lon="120.3271910">
    <ele>13.1</ele>
    <time>2026-08-05T07:19:20Z</time>
   </trkpt>
   <trkpt lat="22.7482510" lon="120.3272530">
    <ele>13.1</ele>
    <time>2026-08-05T07:19:21Z</time>
   </trkpt>
   <trkpt lat="22.7482270" lon="120.3273080">
    <ele>13.1</ele>
    <time>2026-08-05T07:19:22Z</time>
   </trkpt>
   <trkpt lat="22.7482030" lon="120.3273530">
    <ele>13.1</ele>
    <time>2026-08-05T07:19:23Z</time>
   </trkpt>
   <trkpt lat="22.7481830" lon="120.3274020">
    <ele>13.1</ele>
    <time>2026-08-05T07:19:24Z</time>
   </trkpt>
   <trkpt lat="22.7481680" lon="120.3274340">
    <ele>13.1</ele>
    <time>2026-08-05T07:19:25Z</time>
   </trkpt>
   <trkpt lat="22.7481490" lon="120.3274690">
    <ele>13.1</ele>
    <time>2026-08-05T07:19:26Z</time>
   </trkpt>
   <trkpt lat="22.7481380" lon="120.3275050">
    <ele>13.1</ele>
    <time>2026-08-05T07:19:27Z</time>
   </trkpt>
   <trkpt lat="22.7481410" lon="120.3275340">
    <ele>13.1</ele>
    <time>2026-08-05T07:19:28Z</time>
   </trkpt>
   <trkpt lat="22.7481610" lon="120.3275600">
    <ele>13.1</ele>
    <time>2026-08-05T07:19:29Z</time>
   </trkpt>
   <trkpt lat="22.7481850" lon="120.3275820">
    <ele>13.1</ele>
    <time>2026-08-05T07:19:30Z</time>
   </trkpt>
   <trkpt lat="22.7482240" lon="120.3275800">
    <ele>13.1</ele>
    <time>2026-08-05T07:19:31Z</time>
   </trkpt>
   <trkpt lat="22.7482680" lon="120.3275740">
    <ele>13.2</ele>
    <time>2026-08-05T07:19:32Z</time>
   </trkpt>
   <trkpt lat="22.7483150" lon="120.3275630">
    <ele>13.2</ele>
    <time>2026-08-05T07:19:33Z</time>
   </trkpt>
   <trkpt lat="22.7483610" lon="120.3275580">
    <ele>13.2</ele>
    <time>2026-08-05T07:19:34Z</time>
   </trkpt>
   <trkpt lat="22.7484170" lon="120.3275590">
    <ele>13.3</ele>
    <time>2026-08-05T07:19:35Z</time>
   </trkpt>
   <trkpt lat="22.7484710" lon="120.3275550">
    <ele>13.3</ele>
    <time>2026-08-05T07:19:36Z</time>
   </trkpt>
   <trkpt lat="22.7485370" lon="120.3275550">
    <ele>13.4</ele>
    <time>2026-08-05T07:19:37Z</time>
   </trkpt>
   <trkpt lat="22.7486060" lon="120.3275500">
    <ele>13.4</ele>
    <time>2026-08-05T07:19:38Z</time>
   </trkpt>
   <trkpt lat="22.7486720" lon="120.3275460">
    <ele>13.4</ele>
    <time>2026-08-05T07:19:39Z</time>
   </trkpt>
   <trkpt lat="22.7487480" lon="120.3275420">
    <ele>13.5</ele>
    <time>2026-08-05T07:19:40Z</time>
   </trkpt>
   <trkpt lat="22.7488230" lon="120.3275430">
    <ele>13.5</ele>
    <time>2026-08-05T07:19:41Z</time>
   </trkpt>
   <trkpt lat="22.7488990" lon="120.3275400">
    <ele>13.6</ele>
    <time>2026-08-05T07:19:42Z</time>
   </trkpt>
   <trkpt lat="22.7489760" lon="120.3275420">
    <ele>13.7</ele>
    <time>2026-08-05T07:19:43Z</time>
   </trkpt>
   <trkpt lat="22.7490510" lon="120.3275310">
    <ele>13.7</ele>
    <time>2026-08-05T07:19:44Z</time>
   </trkpt>
   <trkpt lat="22.7491220" lon="120.3275130">
    <ele>13.8</ele>
    <time>2026-08-05T07:19:45Z</time>
   </trkpt>
   <trkpt lat="22.7491880" lon="120.3275110">
    <ele>13.8</ele>
    <time>2026-08-05T07:19:46Z</time>
   </trkpt>
   <trkpt lat="22.7492470" lon="120.3275160">
    <ele>13.8</ele>
    <time>2026-08-05T07:19:47Z</time>
   </trkpt>
   <trkpt lat="22.7493010" lon="120.3275190">
    <ele>13.8</ele>
    <time>2026-08-05T07:19:48Z</time>
   </trkpt>
   <trkpt lat="22.7493620" lon="120.3275090">
    <ele>13.8</ele>
    <time>2026-08-05T07:19:49Z</time>
   </trkpt>
   <trkpt lat="22.7494290" lon="120.3275060">
    <ele>13.7</ele>
    <time>2026-08-05T07:19:50Z</time>
   </trkpt>
   <trkpt lat="22.7494990" lon="120.3275050">
    <ele>13.7</ele>
    <time>2026-08-05T07:19:51Z</time>
   </trkpt>
   <trkpt lat="22.7495780" lon="120.3275050">
    <ele>13.7</ele>
    <time>2026-08-05T07:19:52Z</time>
   </trkpt>
   <trkpt lat="22.7496610" lon="120.3275020">
    <ele>13.7</ele>
    <time>2026-08-05T07:19:53Z</time>
   </trkpt>
   <trkpt lat="22.7497420" lon="120.3274910">
    <ele>13.7</ele>
    <time>2026-08-05T07:19:54Z</time>
   </trkpt>
   <trkpt lat="22.7498320" lon="120.3274870">
    <ele>13.7</ele>
    <time>2026-08-05T07:19:55Z</time>
   </trkpt>
   <trkpt lat="22.7499080" lon="120.3274850">
    <ele>13.7</ele>
    <time>2026-08-05T07:19:56Z</time>
   </trkpt>
   <trkpt lat="22.7499850" lon="120.3274760">
    <ele>13.7</ele>
    <time>2026-08-05T07:19:57Z</time>
   </trkpt>
   <trkpt lat="22.7500670" lon="120.3274790">
    <ele>13.7</ele>
    <time>2026-08-05T07:19:58Z</time>
   </trkpt>
   <trkpt lat="22.7501420" lon="120.3274750">
    <ele>13.8</ele>
    <time>2026-08-05T07:19:59Z</time>
   </trkpt>
   <trkpt lat="22.7502010" lon="120.3274540">
    <ele>13.8</ele>
    <time>2026-08-05T07:20:00Z</time>
   </trkpt>
   <trkpt lat="22.7502820" lon="120.3274470">
    <ele>13.8</ele>
    <time>2026-08-05T07:20:01Z</time>
   </trkpt>
   <trkpt lat="22.7503650" lon="120.3274330">
    <ele>13.9</ele>
    <time>2026-08-05T07:20:02Z</time>
   </trkpt>
   <trkpt lat="22.7504380" lon="120.3274210">
    <ele>13.9</ele>
    <time>2026-08-05T07:20:03Z</time>
   </trkpt>
   <trkpt lat="22.7505000" lon="120.3274210">
    <ele>13.9</ele>
    <time>2026-08-05T07:20:04Z</time>
   </trkpt>
   <trkpt lat="22.7505460" lon="120.3274350">
    <ele>14.0</ele>
    <time>2026-08-05T07:20:05Z</time>
   </trkpt>
   <trkpt lat="22.7505720" lon="120.3274350">
    <ele>14.0</ele>
    <time>2026-08-05T07:20:06Z</time>
   </trkpt>
   <trkpt lat="22.7505710" lon="120.3274200">
    <ele>14.0</ele>
    <time>2026-08-05T07:20:07Z</time>
   </trkpt>
   <trkpt lat="22.7505500" lon="120.3274110">
    <ele>14.0</ele>
    <time>2026-08-05T07:20:08Z</time>
   </trkpt>
   <trkpt lat="22.7505210" lon="120.3274190">
    <ele>13.9</ele>
    <time>2026-08-05T07:20:09Z</time>
   </trkpt>
   <trkpt lat="22.7504950" lon="120.3274320">
    <ele>13.9</ele>
    <time>2026-08-05T07:20:10Z</time>
   </trkpt>
   <trkpt lat="22.7504550" lon="120.3274400">
    <ele>13.9</ele>
    <time>2026-08-05T07:20:11Z</time>
   </trkpt>
   <trkpt lat="22.7504050" lon="120.3274380">
    <ele>13.9</ele>
    <time>2026-08-05T07:20:12Z</time>
   </trkpt>
   <trkpt lat="22.7503570" lon="120.3274370">
    <ele>13.9</ele>
    <time>2026-08-05T07:20:13Z</time>
   </trkpt>
   <trkpt lat="22.7503170" lon="120.3274270">
    <ele>13.9</ele>
    <time>2026-08-05T07:20:14Z</time>
   </trkpt>
   <trkpt lat="22.7502920" lon="120.3274160">
    <ele>13.9</ele>
    <time>2026-08-05T07:20:15Z</time>
   </trkpt>
   <trkpt lat="22.7502790" lon="120.3274030">
    <ele>13.9</ele>
    <time>2026-08-05T07:20:16Z</time>
   </trkpt>
   <trkpt lat="22.7502740" lon="120.3274020">
    <ele>13.9</ele>
    <time>2026-08-05T07:20:17Z</time>
   </trkpt>
   <trkpt lat="22.7502740" lon="120.3274170">
    <ele>13.8</ele>
    <time>2026-08-05T07:20:18Z</time>
   </trkpt>
   <trkpt lat="22.7502740" lon="120.3274080">
    <ele>13.8</ele>
    <time>2026-08-05T07:20:19Z</time>
   </trkpt>
   <trkpt lat="22.7502660" lon="120.3274020">
    <ele>13.8</ele>
    <time>2026-08-05T07:20:20Z</time>
   </trkpt>
   <trkpt lat="22.7502710" lon="120.3273920">
    <ele>13.8</ele>
    <time>2026-08-05T07:20:21Z</time>
   </trkpt>
   <trkpt lat="22.7502730" lon="120.3273950">
    <ele>13.8</ele>
    <time>2026-08-05T07:20:22Z</time>
   </trkpt>
   <trkpt lat="22.7502740" lon="120.3274040">
    <ele>13.8</ele>
    <time>2026-08-05T07:20:23Z</time>
   </trkpt>
   <trkpt lat="22.7502820" lon="120.3273990">
    <ele>13.8</ele>
    <time>2026-08-05T07:20:24Z</time>
   </trkpt>
   <trkpt lat="22.7502810" lon="120.3273970">
    <ele>13.8</ele>
    <time>2026-08-05T07:20:25Z</time>
   </trkpt>
   <trkpt lat="22.7502830" lon="120.3273940">
    <ele>13.8</ele>
    <time>2026-08-05T07:20:26Z</time>
   </trkpt>
   <trkpt lat="22.7502840" lon="120.3273990">
    <ele>13.8</ele>
    <time>2026-08-05T07:20:27Z</time>
   </trkpt>
   <trkpt lat="22.7502850" lon="120.3273950">
    <ele>13.8</ele>
    <time>2026-08-05T07:20:28Z</time>
   </trkpt>
   <trkpt lat="22.7502870" lon="120.3273900">
    <ele>13.8</ele>
    <time>2026-08-05T07:20:29Z</time>
   </trkpt>
   <trkpt lat="22.7502920" lon="120.3273910">
    <ele>13.8</ele>
    <time>2026-08-05T07:20:30Z</time>
   </trkpt>
   <trkpt lat="22.7502520" lon="120.3274490">
    <ele>13.8</ele>
    <time>2026-08-05T07:22:13Z</time>
   </trkpt>
   <trkpt lat="22.7502710" lon="120.3274420">
    <ele>13.8</ele>
    <time>2026-08-05T07:22:14Z</time>
   </trkpt>
   <trkpt lat="22.7502790" lon="120.3274430">
    <ele>13.8</ele>
    <time>2026-08-05T07:22:15Z</time>
   </trkpt>
   <trkpt lat="22.7502770" lon="120.3274430">
    <ele>13.8</ele>
    <time>2026-08-05T07:22:16Z</time>
   </trkpt>
   <trkpt lat="22.7502780" lon="120.3274380">
    <ele>13.8</ele>
    <time>2026-08-05T07:22:17Z</time>
   </trkpt>
   <trkpt lat="22.7502770" lon="120.3274390">
    <ele>13.8</ele>
    <time>2026-08-05T07:22:18Z</time>
   </trkpt>
   <trkpt lat="22.7502770" lon="120.3274390">
    <ele>13.8</ele>
    <time>2026-08-05T07:22:19Z</time>
   </trkpt>
   <trkpt lat="22.7502770" lon="120.3274390">
    <ele>13.8</ele>
    <time>2026-08-05T07:22:20Z</time>
   </trkpt>
   <trkpt lat="22.7502920" lon="120.3274310">
    <ele>13.8</ele>
    <time>2026-08-05T07:22:21Z</time>
   </trkpt>
   <trkpt lat="22.7502980" lon="120.3274360">
    <ele>13.8</ele>
    <time>2026-08-05T07:22:22Z</time>
   </trkpt>
   <trkpt lat="22.7502930" lon="120.3274350">
    <ele>13.8</ele>
    <time>2026-08-05T07:22:23Z</time>
   </trkpt>
   <trkpt lat="22.7502900" lon="120.3274280">
    <ele>13.8</ele>
    <time>2026-08-05T07:22:24Z</time>
   </trkpt>
   <trkpt lat="22.7502920" lon="120.3274310">
    <ele>13.8</ele>
    <time>2026-08-05T07:22:25Z</time>
   </trkpt>
   <trkpt lat="22.7502910" lon="120.3274290">
    <ele>13.8</ele>
    <time>2026-08-05T07:22:26Z</time>
   </trkpt>
   <trkpt lat="22.7502910" lon="120.3274290">
    <ele>13.8</ele>
    <time>2026-08-05T07:22:27Z</time>
   </trkpt>
   <trkpt lat="22.7502910" lon="120.3274290">
    <ele>13.8</ele>
    <time>2026-08-05T07:22:28Z</time>
   </trkpt>
   <trkpt lat="22.7502880" lon="120.3274350">
    <ele>13.8</ele>
    <time>2026-08-05T07:22:29Z</time>
   </trkpt>
   <trkpt lat="22.7502870" lon="120.3274350">
    <ele>13.8</ele>
    <time>2026-08-05T07:22:30Z</time>
   </trkpt>
   <trkpt lat="22.7502870" lon="120.3274350">
    <ele>13.8</ele>
    <time>2026-08-05T07:22:31Z</time>
   </trkpt>
   <trkpt lat="22.7502170" lon="120.3274700">
    <ele>13.8</ele>
    <time>2026-08-05T07:23:13Z</time>
   </trkpt>
   <trkpt lat="22.7502070" lon="120.3274830">
    <ele>13.8</ele>
    <time>2026-08-05T07:23:14Z</time>
   </trkpt>
   <trkpt lat="22.7502040" lon="120.3274980">
    <ele>13.8</ele>
    <time>2026-08-05T07:23:15Z</time>
   </trkpt>
   <trkpt lat="22.7502160" lon="120.3275050">
    <ele>13.8</ele>
    <time>2026-08-05T07:23:16Z</time>
   </trkpt>
   <trkpt lat="22.7502360" lon="120.3274980">
    <ele>13.8</ele>
    <time>2026-08-05T07:23:17Z</time>
   </trkpt>
   <trkpt lat="22.7502790" lon="120.3274850">
    <ele>13.8</ele>
    <time>2026-08-05T07:23:18Z</time>
   </trkpt>
   <trkpt lat="22.7503420" lon="120.3274780">
    <ele>13.9</ele>
    <time>2026-08-05T07:23:19Z</time>
   </trkpt>
   <trkpt lat="22.7503900" lon="120.3274540">
    <ele>13.9</ele>
    <time>2026-08-05T07:23:20Z</time>
   </trkpt>
   <trkpt lat="22.7504380" lon="120.3274530">
    <ele>13.9</ele>
    <time>2026-08-05T07:23:21Z</time>
   </trkpt>
   <trkpt lat="22.7504840" lon="120.3274450">
    <ele>13.9</ele>
    <time>2026-08-05T07:23:22Z</time>
   </trkpt>
   <trkpt lat="22.7505270" lon="120.3274370">
    <ele>13.9</ele>
    <time>2026-08-05T07:23:23Z</time>
   </trkpt>
   <trkpt lat="22.7505710" lon="120.3274390">
    <ele>14.0</ele>
    <time>2026-08-05T07:23:24Z</time>
   </trkpt>
   <trkpt lat="22.7506170" lon="120.3274380">
    <ele>14.0</ele>
    <time>2026-08-05T07:23:25Z</time>
   </trkpt>
   <trkpt lat="22.7506590" lon="120.3274380">
    <ele>14.0</ele>
    <time>2026-08-05T07:23:26Z</time>
   </trkpt>
   <trkpt lat="22.7507090" lon="120.3274380">
    <ele>14.0</ele>
    <time>2026-08-05T07:23:27Z</time>
   </trkpt>
   <trkpt lat="22.7507460" lon="120.3274360">
    <ele>14.0</ele>
    <time>2026-08-05T07:23:28Z</time>
   </trkpt>
   <trkpt lat="22.7507570" lon="120.3274250">
    <ele>14.0</ele>
    <time>2026-08-05T07:23:29Z</time>
   </trkpt>
   <trkpt lat="22.7507630" lon="120.3273990">
    <ele>14.0</ele>
    <time>2026-08-05T07:23:30Z</time>
   </trkpt>
   <trkpt lat="22.7507650" lon="120.3273780">
    <ele>13.9</ele>
    <time>2026-08-05T07:23:31Z</time>
   </trkpt>
   <trkpt lat="22.7507500" lon="120.3273310">
    <ele>13.9</ele>
    <time>2026-08-05T07:23:32Z</time>
   </trkpt>
   <trkpt lat="22.7507410" lon="120.3272910">
    <ele>13.9</ele>
    <time>2026-08-05T07:23:33Z</time>
   </trkpt>
   <trkpt lat="22.7507350" lon="120.3272500">
    <ele>13.8</ele>
    <time>2026-08-05T07:23:34Z</time>
   </trkpt>
   <trkpt lat="22.7507340" lon="120.3272110">
    <ele>13.8</ele>
    <time>2026-08-05T07:23:35Z</time>
   </trkpt>
   <trkpt lat="22.7507340" lon="120.3271770">
    <ele>13.8</ele>
    <time>2026-08-05T07:23:36Z</time>
   </trkpt>
   <trkpt lat="22.7507360" lon="120.3271490">
    <ele>13.8</ele>
    <time>2026-08-05T07:23:37Z</time>
   </trkpt>
   <trkpt lat="22.7507360" lon="120.3271270">
    <ele>13.7</ele>
    <time>2026-08-05T07:23:38Z</time>
   </trkpt>
   <trkpt lat="22.7507460" lon="120.3271130">
    <ele>13.7</ele>
    <time>2026-08-05T07:23:39Z</time>
   </trkpt>
   <trkpt lat="22.7507720" lon="120.3271040">
    <ele>13.7</ele>
    <time>2026-08-05T07:23:40Z</time>
   </trkpt>
   <trkpt lat="22.7507840" lon="120.3271010">
    <ele>13.7</ele>
    <time>2026-08-05T07:23:41Z</time>
   </trkpt>
   <trkpt lat="22.7507980" lon="120.3271020">
    <ele>13.7</ele>
    <time>2026-08-05T07:23:42Z</time>
   </trkpt>
   <trkpt lat="22.7508130" lon="120.3271070">
    <ele>13.7</ele>
    <time>2026-08-05T07:23:43Z</time>
   </trkpt>
   <trkpt lat="22.7508310" lon="120.3271060">
    <ele>13.7</ele>
    <time>2026-08-05T07:23:44Z</time>
   </trkpt>
   <trkpt lat="22.7508320" lon="120.3271010">
    <ele>13.7</ele>
    <time>2026-08-05T07:23:45Z</time>
   </trkpt>
   <trkpt lat="22.7508320" lon="120.3270950">
    <ele>13.7</ele>
    <time>2026-08-05T07:23:46Z</time>
   </trkpt>
   <trkpt lat="22.7508330" lon="120.3270900">
    <ele>13.7</ele>
    <time>2026-08-05T07:23:47Z</time>
   </trkpt>
   <trkpt lat="22.7508330" lon="120.3270840">
    <ele>13.7</ele>
    <time>2026-08-05T07:23:48Z</time>
   </trkpt>
   <trkpt lat="22.7508340" lon="120.3270790">
    <ele>13.7</ele>
    <time>2026-08-05T07:23:49Z</time>
   </trkpt>
   <trkpt lat="22.7508340" lon="120.3270730">
    <ele>13.6</ele>
    <time>2026-08-05T07:23:50Z</time>
   </trkpt>
   <trkpt lat="22.7508350" lon="120.3270680">
    <ele>13.6</ele>
    <time>2026-08-05T07:23:51Z</time>
   </trkpt>
   <trkpt lat="22.7508350" lon="120.3270620">
    <ele>13.6</ele>
    <time>2026-08-05T07:23:52Z</time>
   </trkpt>
   <trkpt lat="22.7508360" lon="120.3270570">
    <ele>13.6</ele>
    <time>2026-08-05T07:23:53Z</time>
   </trkpt>
   <trkpt lat="22.7508360" lon="120.3270510">
    <ele>13.6</ele>
    <time>2026-08-05T07:23:54Z</time>
   </trkpt>
   <trkpt lat="22.7508370" lon="120.3270460">
    <ele>13.6</ele>
    <time>2026-08-05T07:23:55Z</time>
   </trkpt>
   <trkpt lat="22.7508190" lon="120.3270670">
    <ele>13.6</ele>
    <time>2026-08-05T07:24:00Z</time>
   </trkpt>
   <trkpt lat="22.7508150" lon="120.3270710">
    <ele>13.6</ele>
    <time>2026-08-05T07:24:01Z</time>
   </trkpt>
   <trkpt lat="22.7508120" lon="120.3270750">
    <ele>13.6</ele>
    <time>2026-08-05T07:24:02Z</time>
   </trkpt>
   <trkpt lat="22.7508080" lon="120.3270790">
    <ele>13.6</ele>
    <time>2026-08-05T07:24:03Z</time>
   </trkpt>
   <trkpt lat="22.7508050" lon="120.3270830">
    <ele>13.6</ele>
    <time>2026-08-05T07:24:04Z</time>
   </trkpt>
   <trkpt lat="22.7508010" lon="120.3270870">
    <ele>13.6</ele>
    <time>2026-08-05T07:24:05Z</time>
   </trkpt>
   <trkpt lat="22.7508010" lon="120.3270870">
    <ele>13.6</ele>
    <time>2026-08-05T07:24:06Z</time>
   </trkpt>
   <trkpt lat="22.7508010" lon="120.3270870">
    <ele>13.6</ele>
    <time>2026-08-05T07:24:07Z</time>
   </trkpt>
   <trkpt lat="22.7508020" lon="120.3270600">
    <ele>13.6</ele>
    <time>2026-08-05T07:24:08Z</time>
   </trkpt>
   <trkpt lat="22.7508020" lon="120.3270600">
    <ele>13.6</ele>
    <time>2026-08-05T07:24:09Z</time>
   </trkpt>
   <trkpt lat="22.7508070" lon="120.3270540">
    <ele>13.6</ele>
    <time>2026-08-05T07:24:57Z</time>
   </trkpt>
   <trkpt lat="22.7508070" lon="120.3270540">
    <ele>13.6</ele>
    <time>2026-08-05T07:24:58Z</time>
   </trkpt>
   <trkpt lat="22.7508120" lon="120.3270450">
    <ele>13.6</ele>
    <time>2026-08-05T07:24:59Z</time>
   </trkpt>
   <trkpt lat="22.7508120" lon="120.3270480">
    <ele>13.6</ele>
    <time>2026-08-05T07:25:00Z</time>
   </trkpt>
   <trkpt lat="22.7508090" lon="120.3270470">
    <ele>13.6</ele>
    <time>2026-08-05T07:25:01Z</time>
   </trkpt>
   <trkpt lat="22.7508110" lon="120.3270500">
    <ele>13.6</ele>
    <time>2026-08-05T07:25:02Z</time>
   </trkpt>
   <trkpt lat="22.7508110" lon="120.3270500">
    <ele>13.6</ele>
    <time>2026-08-05T07:25:03Z</time>
   </trkpt>
   <trkpt lat="22.7507990" lon="120.3270580">
    <ele>13.6</ele>
    <time>2026-08-05T07:25:04Z</time>
   </trkpt>
   <trkpt lat="22.7507710" lon="120.3270680">
    <ele>13.5</ele>
    <time>2026-08-05T07:25:05Z</time>
   </trkpt>
   <trkpt lat="22.7507450" lon="120.3270830">
    <ele>13.5</ele>
    <time>2026-08-05T07:25:06Z</time>
   </trkpt>
   <trkpt lat="22.7507210" lon="120.3270580">
    <ele>13.5</ele>
    <time>2026-08-05T07:25:07Z</time>
   </trkpt>
   <trkpt lat="22.7507010" lon="120.3270330">
    <ele>13.5</ele>
    <time>2026-08-05T07:25:08Z</time>
   </trkpt>
   <trkpt lat="22.7506910" lon="120.3270110">
    <ele>13.5</ele>
    <time>2026-08-05T07:25:09Z</time>
   </trkpt>
   <trkpt lat="22.7506830" lon="120.3269880">
    <ele>13.5</ele>
    <time>2026-08-05T07:25:10Z</time>
   </trkpt>
   <trkpt lat="22.7506790" lon="120.3269560">
    <ele>13.4</ele>
    <time>2026-08-05T07:25:11Z</time>
   </trkpt>
   <trkpt lat="22.7506800" lon="120.3269180">
    <ele>13.4</ele>
    <time>2026-08-05T07:25:12Z</time>
   </trkpt>
   <trkpt lat="22.7506800" lon="120.3268720">
    <ele>13.4</ele>
    <time>2026-08-05T07:25:13Z</time>
   </trkpt>
   <trkpt lat="22.7506820" lon="120.3268220">
    <ele>13.4</ele>
    <time>2026-08-05T07:25:14Z</time>
   </trkpt>
   <trkpt lat="22.7506820" lon="120.3267580">
    <ele>13.5</ele>
    <time>2026-08-05T07:25:15Z</time>
   </trkpt>
   <trkpt lat="22.7506820" lon="120.3266830">
    <ele>13.5</ele>
    <time>2026-08-05T07:25:16Z</time>
   </trkpt>
   <trkpt lat="22.7506810" lon="120.3266000">
    <ele>13.5</ele>
    <time>2026-08-05T07:25:17Z</time>
   </trkpt>
   <trkpt lat="22.7506800" lon="120.3265230">
    <ele>13.5</ele>
    <time>2026-08-05T07:25:18Z</time>
   </trkpt>
   <trkpt lat="22.7506800" lon="120.3264510">
    <ele>13.5</ele>
    <time>2026-08-05T07:25:19Z</time>
   </trkpt>
   <trkpt lat="22.7506770" lon="120.3263860">
    <ele>13.5</ele>
    <time>2026-08-05T07:25:20Z</time>
   </trkpt>
   <trkpt lat="22.7506740" lon="120.3263230">
    <ele>13.4</ele>
    <time>2026-08-05T07:25:21Z</time>
   </trkpt>
   <trkpt lat="22.7506740" lon="120.3262680">
    <ele>13.4</ele>
    <time>2026-08-05T07:25:22Z</time>
   </trkpt>
   <trkpt lat="22.7506660" lon="120.3262240">
    <ele>13.4</ele>
    <time>2026-08-05T07:25:23Z</time>
   </trkpt>
   <trkpt lat="22.7506420" lon="120.3261860">
    <ele>13.4</ele>
    <time>2026-08-05T07:25:24Z</time>
   </trkpt>
   <trkpt lat="22.7505980" lon="120.3261540">
    <ele>13.4</ele>
    <time>2026-08-05T07:25:25Z</time>
   </trkpt>
   <trkpt lat="22.7505360" lon="120.3261370">
    <ele>13.4</ele>
    <time>2026-08-05T07:25:26Z</time>
   </trkpt>
   <trkpt lat="22.7504620" lon="120.3261350">
    <ele>13.4</ele>
    <time>2026-08-05T07:25:27Z</time>
   </trkpt>
   <trkpt lat="22.7503770" lon="120.3261380">
    <ele>13.4</ele>
    <time>2026-08-05T07:25:28Z</time>
   </trkpt>
   <trkpt lat="22.7502910" lon="120.3261480">
    <ele>13.3</ele>
    <time>2026-08-05T07:25:29Z</time>
   </trkpt>
   <trkpt lat="22.7502100" lon="120.3261320">
    <ele>13.3</ele>
    <time>2026-08-05T07:25:30Z</time>
   </trkpt>
   <trkpt lat="22.7501390" lon="120.3261280">
    <ele>13.3</ele>
    <time>2026-08-05T07:25:31Z</time>
   </trkpt>
   <trkpt lat="22.7500710" lon="120.3261450">
    <ele>13.3</ele>
    <time>2026-08-05T07:25:32Z</time>
   </trkpt>
   <trkpt lat="22.7500120" lon="120.3261630">
    <ele>13.2</ele>
    <time>2026-08-05T07:25:33Z</time>
   </trkpt>
   <trkpt lat="22.7499650" lon="120.3261970">
    <ele>13.2</ele>
    <time>2026-08-05T07:25:34Z</time>
   </trkpt>
   <trkpt lat="22.7499370" lon="120.3262570">
    <ele>13.3</ele>
    <time>2026-08-05T07:25:35Z</time>
   </trkpt>
   <trkpt lat="22.7499530" lon="120.3263270">
    <ele>13.3</ele>
    <time>2026-08-05T07:25:36Z</time>
   </trkpt>
   <trkpt lat="22.7499710" lon="120.3263850">
    <ele>13.3</ele>
    <time>2026-08-05T07:25:37Z</time>
   </trkpt>
   <trkpt lat="22.7499820" lon="120.3264440">
    <ele>13.4</ele>
    <time>2026-08-05T07:25:38Z</time>
   </trkpt>
   <trkpt lat="22.7499870" lon="120.3265000">
    <ele>13.4</ele>
    <time>2026-08-05T07:25:39Z</time>
   </trkpt>
   <trkpt lat="22.7499870" lon="120.3265680">
    <ele>13.4</ele>
    <time>2026-08-05T07:25:40Z</time>
   </trkpt>
   <trkpt lat="22.7499870" lon="120.3266320">
    <ele>13.5</ele>
    <time>2026-08-05T07:25:41Z</time>
   </trkpt>
   <trkpt lat="22.7499870" lon="120.3266960">
    <ele>13.5</ele>
    <time>2026-08-05T07:25:42Z</time>
   </trkpt>
   <trkpt lat="22.7499800" lon="120.3267570">
    <ele>13.5</ele>
    <time>2026-08-05T07:25:43Z</time>
   </trkpt>
   <trkpt lat="22.7499840" lon="120.3268220">
    <ele>13.5</ele>
    <time>2026-08-05T07:25:44Z</time>
   </trkpt>
   <trkpt lat="22.7499840" lon="120.3268890">
    <ele>13.5</ele>
    <time>2026-08-05T07:25:45Z</time>
   </trkpt>
   <trkpt lat="22.7499850" lon="120.3269600">
    <ele>13.5</ele>
    <time>2026-08-05T07:25:46Z</time>
   </trkpt>
   <trkpt lat="22.7499820" lon="120.3270320">
    <ele>13.5</ele>
    <time>2026-08-05T07:25:47Z</time>
   </trkpt>
   <trkpt lat="22.7499840" lon="120.3271090">
    <ele>13.5</ele>
    <time>2026-08-05T07:25:48Z</time>
   </trkpt>
   <trkpt lat="22.7499820" lon="120.3271790">
    <ele>13.6</ele>
    <time>2026-08-05T07:25:49Z</time>
   </trkpt>
   <trkpt lat="22.7499820" lon="120.3272450">
    <ele>13.6</ele>
    <time>2026-08-05T07:25:50Z</time>
   </trkpt>
   <trkpt lat="22.7499820" lon="120.3273120">
    <ele>13.6</ele>
    <time>2026-08-05T07:25:51Z</time>
   </trkpt>
   <trkpt lat="22.7499800" lon="120.3273760">
    <ele>13.6</ele>
    <time>2026-08-05T07:25:52Z</time>
   </trkpt>
   <trkpt lat="22.7499850" lon="120.3274400">
    <ele>13.7</ele>
    <time>2026-08-05T07:25:53Z</time>
   </trkpt>
   <trkpt lat="22.7499810" lon="120.3274990">
    <ele>13.8</ele>
    <time>2026-08-05T07:25:54Z</time>
   </trkpt>
   <trkpt lat="22.7499850" lon="120.3275640">
    <ele>13.9</ele>
    <time>2026-08-05T07:25:55Z</time>
   </trkpt>
   <trkpt lat="22.7499850" lon="120.3276280">
    <ele>14.0</ele>
    <time>2026-08-05T07:25:56Z</time>
   </trkpt>
   <trkpt lat="22.7499890" lon="120.3276960">
    <ele>14.0</ele>
    <time>2026-08-05T07:25:57Z</time>
   </trkpt>
   <trkpt lat="22.7499900" lon="120.3277710">
    <ele>14.1</ele>
    <time>2026-08-05T07:25:58Z</time>
   </trkpt>
   <trkpt lat="22.7499970" lon="120.3278510">
    <ele>14.2</ele>
    <time>2026-08-05T07:25:59Z</time>
   </trkpt>
   <trkpt lat="22.7499920" lon="120.3279230">
    <ele>14.3</ele>
    <time>2026-08-05T07:26:00Z</time>
   </trkpt>
   <trkpt lat="22.7499900" lon="120.3279930">
    <ele>14.4</ele>
    <time>2026-08-05T07:26:01Z</time>
   </trkpt>
   <trkpt lat="22.7499850" lon="120.3280510">
    <ele>14.4</ele>
    <time>2026-08-05T07:26:02Z</time>
   </trkpt>
   <trkpt lat="22.7499840" lon="120.3281050">
    <ele>14.5</ele>
    <time>2026-08-05T07:26:03Z</time>
   </trkpt>
   <trkpt lat="22.7499840" lon="120.3281560">
    <ele>14.5</ele>
    <time>2026-08-05T07:26:04Z</time>
   </trkpt>
   <trkpt lat="22.7499820" lon="120.3281960">
    <ele>14.6</ele>
    <time>2026-08-05T07:26:05Z</time>
   </trkpt>
   <trkpt lat="22.7499820" lon="120.3282280">
    <ele>14.6</ele>
    <time>2026-08-05T07:26:06Z</time>
   </trkpt>
   <trkpt lat="22.7499840" lon="120.3282500">
    <ele>14.6</ele>
    <time>2026-08-05T07:26:07Z</time>
   </trkpt>
   <trkpt lat="22.7499930" lon="120.3282600">
    <ele>14.6</ele>
    <time>2026-08-05T07:26:08Z</time>
   </trkpt>
   <trkpt lat="22.7500040" lon="120.3282560">
    <ele>14.6</ele>
    <time>2026-08-05T07:26:09Z</time>
   </trkpt>
   <trkpt lat="22.7500220" lon="120.3282420">
    <ele>14.7</ele>
    <time>2026-08-05T07:26:10Z</time>
   </trkpt>
   <trkpt lat="22.7500180" lon="120.3282020">
    <ele>14.7</ele>
    <time>2026-08-05T07:26:11Z</time>
   </trkpt>
   <trkpt lat="22.7500100" lon="120.3281470">
    <ele>14.8</ele>
    <time>2026-08-05T07:26:12Z</time>
   </trkpt>
   <trkpt lat="22.7499870" lon="120.3280920">
    <ele>14.7</ele>
    <time>2026-08-05T07:26:13Z</time>
   </trkpt>
   <trkpt lat="22.7499820" lon="120.3280370">
    <ele>14.6</ele>
    <time>2026-08-05T07:26:14Z</time>
   </trkpt>
   <trkpt lat="22.7499740" lon="120.3279760">
    <ele>14.5</ele>
    <time>2026-08-05T07:26:15Z</time>
   </trkpt>
   <trkpt lat="22.7499680" lon="120.3279140">
    <ele>14.5</ele>
    <time>2026-08-05T07:26:16Z</time>
   </trkpt>
   <trkpt lat="22.7499680" lon="120.3278650">
    <ele>14.4</ele>
    <time>2026-08-05T07:26:17Z</time>
   </trkpt>
   <trkpt lat="22.7499670" lon="120.3278190">
    <ele>14.4</ele>
    <time>2026-08-05T07:26:18Z</time>
   </trkpt>
   <trkpt lat="22.7499660" lon="120.3277800">
    <ele>14.3</ele>
    <time>2026-08-05T07:26:19Z</time>
   </trkpt>
   <trkpt lat="22.7499680" lon="120.3277580">
    <ele>14.3</ele>
    <time>2026-08-05T07:26:20Z</time>
   </trkpt>
   <trkpt lat="22.7499640" lon="120.3277470">
    <ele>14.3</ele>
    <time>2026-08-05T07:26:21Z</time>
   </trkpt>
   <trkpt lat="22.7499700" lon="120.3277260">
    <ele>14.3</ele>
    <time>2026-08-05T07:26:22Z</time>
   </trkpt>
   <trkpt lat="22.7499730" lon="120.3277130">
    <ele>14.3</ele>
    <time>2026-08-05T07:26:23Z</time>
   </trkpt>
   <trkpt lat="22.7499720" lon="120.3277050">
    <ele>14.2</ele>
    <time>2026-08-05T07:26:24Z</time>
   </trkpt>
   <trkpt lat="22.7499750" lon="120.3277000">
    <ele>14.2</ele>
    <time>2026-08-05T07:26:25Z</time>
   </trkpt>
   <trkpt lat="22.7499780" lon="120.3277040">
    <ele>14.2</ele>
    <time>2026-08-05T07:26:26Z</time>
   </trkpt>
   <trkpt lat="22.7499730" lon="120.3277110">
    <ele>14.2</ele>
    <time>2026-08-05T07:26:27Z</time>
   </trkpt>
   <trkpt lat="22.7499740" lon="120.3277080">
    <ele>14.2</ele>
    <time>2026-08-05T07:26:28Z</time>
   </trkpt>
   <trkpt lat="22.7499930" lon="120.3276970">
    <ele>14.2</ele>
    <time>2026-08-05T07:26:29Z</time>
   </trkpt>
   <trkpt lat="22.7499900" lon="120.3277020">
    <ele>14.2</ele>
    <time>2026-08-05T07:26:30Z</time>
   </trkpt>
   <trkpt lat="22.7499880" lon="120.3277020">
    <ele>14.2</ele>
    <time>2026-08-05T07:26:31Z</time>
   </trkpt>
   <trkpt lat="22.7499930" lon="120.3277030">
    <ele>14.2</ele>
    <time>2026-08-05T07:26:32Z</time>
   </trkpt>
   <trkpt lat="22.7499860" lon="120.3276980">
    <ele>14.2</ele>
    <time>2026-08-05T07:26:33Z</time>
   </trkpt>
   <trkpt lat="22.7499920" lon="120.3277020">
    <ele>14.2</ele>
    <time>2026-08-05T07:26:34Z</time>
   </trkpt>
   <trkpt lat="22.7499910" lon="120.3276980">
    <ele>14.2</ele>
    <time>2026-08-05T07:26:35Z</time>
   </trkpt>
   <trkpt lat="22.7499890" lon="120.3276670">
    <ele>14.1</ele>
    <time>2026-08-05T07:26:36Z</time>
   </trkpt>
   <trkpt lat="22.7500020" lon="120.3276490">
    <ele>14.1</ele>
    <time>2026-08-05T07:26:37Z</time>
   </trkpt>
   <trkpt lat="22.7500290" lon="120.3276420">
    <ele>14.1</ele>
    <time>2026-08-05T07:26:38Z</time>
   </trkpt>
   <trkpt lat="22.7500470" lon="120.3276660">
    <ele>14.1</ele>
    <time>2026-08-05T07:26:39Z</time>
   </trkpt>
   <trkpt lat="22.7500440" lon="120.3277150">
    <ele>14.2</ele>
    <time>2026-08-05T07:26:40Z</time>
   </trkpt>
   <trkpt lat="22.7500400" lon="120.3277740">
    <ele>14.3</ele>
    <time>2026-08-05T07:26:41Z</time>
   </trkpt>
   <trkpt lat="22.7500390" lon="120.3278440">
    <ele>14.4</ele>
    <time>2026-08-05T07:26:42Z</time>
   </trkpt>
   <trkpt lat="22.7500550" lon="120.3279180">
    <ele>14.5</ele>
    <time>2026-08-05T07:26:43Z</time>
   </trkpt>
   <trkpt lat="22.7500520" lon="120.3279940">
    <ele>14.6</ele>
    <time>2026-08-05T07:26:44Z</time>
   </trkpt>
   <trkpt lat="22.7500430" lon="120.3280730">
    <ele>14.7</ele>
    <time>2026-08-05T07:26:45Z</time>
   </trkpt>
   <trkpt lat="22.7500440" lon="120.3281560">
    <ele>14.8</ele>
    <time>2026-08-05T07:26:46Z</time>
   </trkpt>
   <trkpt lat="22.7500490" lon="120.3282400">
    <ele>14.9</ele>
    <time>2026-08-05T07:26:47Z</time>
   </trkpt>
   <trkpt lat="22.7500540" lon="120.3283220">
    <ele>15.0</ele>
    <time>2026-08-05T07:26:48Z</time>
   </trkpt>
   <trkpt lat="22.7500580" lon="120.3284010">
    <ele>15.1</ele>
    <time>2026-08-05T07:26:49Z</time>
   </trkpt>
   <trkpt lat="22.7500510" lon="120.3284800">
    <ele>15.2</ele>
    <time>2026-08-05T07:26:50Z</time>
   </trkpt>
   <trkpt lat="22.7500540" lon="120.3285600">
    <ele>15.3</ele>
    <time>2026-08-05T07:26:51Z</time>
   </trkpt>
   <trkpt lat="22.7500590" lon="120.3286320">
    <ele>15.3</ele>
    <time>2026-08-05T07:26:52Z</time>
   </trkpt>
   <trkpt lat="22.7500590" lon="120.3286320">
    <ele>15.3</ele>
    <time>2026-08-05T07:26:53Z</time>
   </trkpt>
  </trkseg>
 </trk>
</gpx>
