<?xml version="1.0" encoding="UTF-8"?>
<gpx creator="StravaGPX" version="1.1" xmlns="http://www.topografix.com/GPX/1/1" xmlns:xsi="http://www.w3.org/2001/XMLSchema-instance" xsi:schemaLocation="http://www.topografix.com/GPX/1/1 http://www.topografix.com/GPX/1/1/gpx.xsd">
 <metadata>
  <time>2026-08-05T07:28:51Z</time>
 </metadata>
 <trk>
  <name>午後電動自行車騎乘</name>
  <type>ebikeride</type>
  <trkseg>
   <trkpt lat="22.7488750" lon="120.3322570">
    <ele>19.6</ele>
    <time>2026-08-05T07:28:51Z</time>
   </trkpt>
   <trkpt lat="22.7488730" lon="120.3322580">
    <ele>19.6</ele>
    <time>2026-08-05T07:28:52Z</time>
   </trkpt>
   <trkpt lat="22.7488740" lon="120.3322590">
    <ele>19.6</ele>
    <time>2026-08-05T07:28:53Z</time>
   </trkpt>
   <trkpt lat="22.7488740" lon="120.3322600">
    <ele>19.6</ele>
    <time>2026-08-05T07:28:54Z</time>
   </trkpt>
   <trkpt lat="22.7488750" lon="120.3322620">
    <ele>19.6</ele>
    <time>2026-08-05T07:28:55Z</time>
   </trkpt>
   <trkpt lat="22.7488750" lon="120.3322620">
    <ele>19.6</ele>
    <time>2026-08-05T07:28:56Z</time>
   </trkpt>
   <trkpt lat="22.7488790" lon="120.3322730">
    <ele>19.6</ele>
    <time>2026-08-05T07:28:57Z</time>
   </trkpt>
   <trkpt lat="22.7488900" lon="120.3323030">
    <ele>19.7</ele>
    <time>2026-08-05T07:28:58Z</time>
   </trkpt>
   <trkpt lat="22.7489070" lon="120.3323490">
    <ele>19.9</ele>
    <time>2026-08-05T07:28:59Z</time>
   </trkpt>
   <trkpt lat="22.7489270" lon="120.3323900">
    <ele>19.9</ele>
    <time>2026-08-05T07:29:00Z</time>
   </trkpt>
   <trkpt lat="22.7489480" lon="120.3324270">
    <ele>19.9</ele>
    <time>2026-08-05T07:29:01Z</time>
   </trkpt>
   <trkpt lat="22.7489710" lon="120.3324710">
    <ele>19.8</ele>
    <time>2026-08-05T07:29:02Z</time>
   </trkpt>
   <trkpt lat="22.7489920" lon="120.3325260">
    <ele>19.8</ele>
    <time>2026-08-05T07:29:03Z</time>
   </trkpt>
   <trkpt lat="22.7490260" lon="120.3326060">
    <ele>19.8</ele>
    <time>2026-08-05T07:29:04Z</time>
   </trkpt>
   <trkpt lat="22.7490540" lon="120.3326590">
    <ele>19.7</ele>
    <time>2026-08-05T07:29:05Z</time>
   </trkpt>
   <trkpt lat="22.7490690" lon="120.3327160">
    <ele>19.6</ele>
    <time>2026-08-05T07:29:06Z</time>
   </trkpt>
   <trkpt lat="22.7490860" lon="120.3327790">
    <ele>19.6</ele>
    <time>2026-08-05T07:29:07Z</time>
   </trkpt>
   <trkpt lat="22.7491080" lon="120.3328330">
    <ele>19.5</ele>
    <time>2026-08-05T07:29:08Z</time>
   </trkpt>
   <trkpt lat="22.7491300" lon="120.3328900">
    <ele>19.5</ele>
    <time>2026-08-05T07:29:09Z</time>
   </trkpt>
   <trkpt lat="22.7491440" lon="120.3329530">
    <ele>19.4</ele>
    <time>2026-08-05T07:29:10Z</time>
   </trkpt>
   <trkpt lat="22.7491690" lon="120.3330040">
    <ele>19.4</ele>
    <time>2026-08-05T07:29:11Z</time>
   </trkpt>
   <trkpt lat="22.7492000" lon="120.3330770">
    <ele>19.3</ele>
    <time>2026-08-05T07:29:12Z</time>
   </trkpt>
   <trkpt lat="22.7492250" lon="120.3331390">
    <ele>19.3</ele>
    <time>2026-08-05T07:29:13Z</time>
   </trkpt>
   <trkpt lat="22.7492530" lon="120.3331980">
    <ele>19.3</ele>
    <time>2026-08-05T07:29:14Z</time>
   </trkpt>
   <trkpt lat="22.7492720" lon="120.3332690">
    <ele>19.2</ele>
    <time>2026-08-05T07:29:15Z</time>
   </trkpt>
   <trkpt lat="22.7492920" lon="120.3333450">
    <ele>19.1</ele>
    <time>2026-08-05T07:29:16Z</time>
   </trkpt>
   <trkpt lat="22.7493130" lon="120.3334130">
    <ele>19.1</ele>
    <time>2026-08-05T07:29:17Z</time>
   </trkpt>
   <trkpt lat="22.7493370" lon="120.3334790">
    <ele>19.0</ele>
    <time>2026-08-05T07:29:18Z</time>
   </trkpt>
   <trkpt lat="22.7493660" lon="120.3335420">
    <ele>19.0</ele>
    <time>2026-08-05T07:29:19Z</time>
   </trkpt>
   <trkpt lat="22.7493870" lon="120.3336130">
    <ele>19.0</ele>
    <time>2026-08-05T07:29:20Z</time>
   </trkpt>
   <trkpt lat="22.7494060" lon="120.3336820">
    <ele>19.0</ele>
    <time>2026-08-05T07:29:21Z</time>
   </trkpt>
   <trkpt lat="22.7494330" lon="120.3337600">
    <ele>19.0</ele>
    <time>2026-08-05T07:29:22Z</time>
   </trkpt>
   <trkpt lat="22.7494660" lon="120.3338450">
    <ele>19.0</ele>
    <time>2026-08-05T07:29:23Z</time>
   </trkpt>
   <trkpt lat="22.7495030" lon="120.3339370">
    <ele>19.1</ele>
    <time>2026-08-05T07:29:24Z</time>
   </trkpt>
   <trkpt lat="22.7495310" lon="120.3340230">
    <ele>19.1</ele>
    <time>2026-08-05T07:29:25Z</time>
   </trkpt>
   <trkpt lat="22.7495600" lon="120.3340970">
    <ele>19.1</ele>
    <time>2026-08-05T07:29:26Z</time>
   </trkpt>
   <trkpt lat="22.7495900" lon="120.3341720">
    <ele>19.1</ele>
    <time>2026-08-05T07:29:27Z</time>
   </trkpt>
   <trkpt lat="22.7496120" lon="120.3342390">
    <ele>19.1</ele>
    <time>2026-08-05T07:29:28Z</time>
   </trkpt>
   <trkpt lat="22.7496130" lon="120.3343010">
    <ele>19.1</ele>
    <time>2026-08-05T07:29:29Z</time>
   </trkpt>
   <trkpt lat="22.7495650" lon="120.3343460">
    <ele>19.1</ele>
    <time>2026-08-05T07:29:30Z</time>
   </trkpt>
   <trkpt lat="22.7495010" lon="120.3343580">
    <ele>19.1</ele>
    <time>2026-08-05T07:29:31Z</time>
   </trkpt>
   <trkpt lat="22.7494330" lon="120.3343530">
    <ele>19.0</ele>
    <time>2026-08-05T07:29:32Z</time>
   </trkpt>
   <trkpt lat="22.7493490" lon="120.3343250">
    <ele>19.0</ele>
    <time>2026-08-05T07:29:33Z</time>
   </trkpt>
   <trkpt lat="22.7492660" lon="120.3343060">
    <ele>18.9</ele>
    <time>2026-08-05T07:29:34Z</time>
   </trkpt>
   <trkpt lat="22.7491830" lon="120.3343100">
    <ele>18.9</ele>
    <time>2026-08-05T07:29:35Z</time>
   </trkpt>
   <trkpt lat="22.7491030" lon="120.3343270">
    <ele>18.8</ele>
    <time>2026-08-05T07:29:36Z</time>
   </trkpt>
   <trkpt lat="22.7490200" lon="120.3343340">
    <ele>18.8</ele>
    <time>2026-08-05T07:29:37Z</time>
   </trkpt>
   <trkpt lat="22.7489310" lon="120.3343480">
    <ele>18.7</ele>
    <time>2026-08-05T07:29:38Z</time>
   </trkpt>
   <trkpt lat="22.7488420" lon="120.3343560">
    <ele>18.6</ele>
    <time>2026-08-05T07:29:39Z</time>
   </trkpt>
   <trkpt lat="22.7487550" lon="120.3343660">
    <ele>18.5</ele>
    <time>2026-08-05T07:29:40Z</time>
   </trkpt>
   <trkpt lat="22.7486640" lon="120.3343750">
    <ele>18.4</ele>
    <time>2026-08-05T07:29:41Z</time>
   </trkpt>
   <trkpt lat="22.7485780" lon="120.3343820">
    <ele>18.4</ele>
    <time>2026-08-05T07:29:43Z</time>
   </trkpt>
   <trkpt lat="22.7484870" lon="120.3343880">
    <ele>18.3</ele>
    <time>2026-08-05T07:29:44Z</time>
   </trkpt>
   <trkpt lat="22.7483970" lon="120.3343980">
    <ele>18.2</ele>
    <time>2026-08-05T07:29:45Z</time>
   </trkpt>
   <trkpt lat="22.7483090" lon="120.3344020">
    <ele>18.1</ele>
    <time>2026-08-05T07:29:46Z</time>
   </trkpt>
   <trkpt lat="22.7482210" lon="120.3344060">
    <ele>18.0</ele>
    <time>2026-08-05T07:29:47Z</time>
   </trkpt>
   <trkpt lat="22.7481360" lon="120.3344110">
    <ele>17.8</ele>
    <time>2026-08-05T07:29:48Z</time>
   </trkpt>
   <trkpt lat="22.7480540" lon="120.3344190">
    <ele>17.7</ele>
    <time>2026-08-05T07:29:49Z</time>
   </trkpt>
   <trkpt lat="22.7479690" lon="120.3344280">
    <ele>17.5</ele>
    <time>2026-08-05T07:29:50Z</time>
   </trkpt>
   <trkpt lat="22.7478910" lon="120.3344360">
    <ele>17.4</ele>
    <time>2026-08-05T07:29:51Z</time>
   </trkpt>
   <trkpt lat="22.7478110" lon="120.3344410">
    <ele>17.2</ele>
    <time>2026-08-05T07:29:52Z</time>
   </trkpt>
   <trkpt lat="22.7477390" lon="120.3344280">
    <ele>17.0</ele>
    <time>2026-08-05T07:29:53Z</time>
   </trkpt>
   <trkpt lat="22.7476810" lon="120.3343950">
    <ele>16.8</ele>
    <time>2026-08-05T07:29:54Z</time>
   </trkpt>
   <trkpt lat="22.7476430" lon="120.3343390">
    <ele>16.7</ele>
    <time>2026-08-05T07:29:55Z</time>
   </trkpt>
   <trkpt lat="22.7476190" lon="120.3342720">
    <ele>16.5</ele>
    <time>2026-08-05T07:29:56Z</time>
   </trkpt>
   <trkpt lat="22.7475860" lon="120.3341980">
    <ele>16.3</ele>
    <time>2026-08-05T07:29:57Z</time>
   </trkpt>
   <trkpt lat="22.7475470" lon="120.3341240">
    <ele>16.1</ele>
    <time>2026-08-05T07:29:58Z</time>
   </trkpt>
   <trkpt lat="22.7475080" lon="120.3340530">
    <ele>15.9</ele>
    <time>2026-08-05T07:29:59Z</time>
   </trkpt>
   <trkpt lat="22.7474820" lon="120.3339780">
    <ele>15.7</ele>
    <time>2026-08-05T07:30:00Z</time>
   </trkpt>
   <trkpt lat="22.7474530" lon="120.3339160">
    <ele>15.6</ele>
    <time>2026-08-05T07:30:01Z</time>
   </trkpt>
   <trkpt lat="22.7474460" lon="120.3338620">
    <ele>15.5</ele>
    <time>2026-08-05T07:30:02Z</time>
   </trkpt>
   <trkpt lat="22.7474670" lon="120.3338070">
    <ele>15.4</ele>
    <time>2026-08-05T07:30:03Z</time>
   </trkpt>
   <trkpt lat="22.7475250" lon="120.3337670">
    <ele>15.3</ele>
    <time>2026-08-05T07:30:04Z</time>
   </trkpt>
   <trkpt lat="22.7475910" lon="120.3337510">
    <ele>15.3</ele>
    <time>2026-08-05T07:30:05Z</time>
   </trkpt>
   <trkpt lat="22.7476600" lon="120.3337370">
    <ele>15.3</ele>
    <time>2026-08-05T07:30:06Z</time>
   </trkpt>
   <trkpt lat="22.7477280" lon="120.3337230">
    <ele>15.4</ele>
    <time>2026-08-05T07:30:07Z</time>
   </trkpt>
   <trkpt lat="22.7477890" lon="120.3336980">
    <ele>15.4</ele>
    <time>2026-08-05T07:30:08Z</time>
   </trkpt>
   <trkpt lat="22.7478320" lon="120.3336520">
    <ele>15.4</ele>
    <time>2026-08-05T07:30:09Z</time>
   </trkpt>
   <trkpt lat="22.7478430" lon="120.3335880">
    <ele>15.4</ele>
    <time>2026-08-05T07:30:10Z</time>
   </trkpt>
   <trkpt lat="22.7478270" lon="120.3335230">
    <ele>15.8</ele>
    <time>2026-08-05T07:30:11Z</time>
   </trkpt>
   <trkpt lat="22.7478080" lon="120.3334550">
    <ele>16.2</ele>
    <time>2026-08-05T07:30:12Z</time>
   </trkpt>
   <trkpt lat="22.7478000" lon="120.3333780">
    <ele>16.7</ele>
    <time>2026-08-05T07:30:13Z</time>
   </trkpt>
   <trkpt lat="22.7477940" lon="120.3332930">
    <ele>17.3</ele>
    <time>2026-08-05T07:30:14Z</time>
   </trkpt>
   <trkpt lat="22.7477890" lon="120.3332080">
    <ele>17.8</ele>
    <time>2026-08-05T07:30:15Z</time>
   </trkpt>
   <trkpt lat="22.7477830" lon="120.3331230">
    <ele>18.4</ele>
    <time>2026-08-05T07:30:16Z</time>
   </trkpt>
   <trkpt lat="22.7477750" lon="120.3330350">
    <ele>19.0</ele>
    <time>2026-08-05T07:30:17Z</time>
   </trkpt>
   <trkpt lat="22.7477640" lon="120.3329400">
    <ele>19.7</ele>
    <time>2026-08-05T07:30:18Z</time>
   </trkpt>
   <trkpt lat="22.7477630" lon="120.3328450">
    <ele>20.3</ele>
    <time>2026-08-05T07:30:19Z</time>
   </trkpt>
   <trkpt lat="22.7477580" lon="120.3327420">
    <ele>21.0</ele>
    <time>2026-08-05T07:30:20Z</time>
   </trkpt>
   <trkpt lat="22.7477470" lon="120.3326510">
    <ele>21.7</ele>
    <time>2026-08-05T07:30:21Z</time>
   </trkpt>
   <trkpt lat="22.7477440" lon="120.3325660">
    <ele>22.2</ele>
    <time>2026-08-05T07:30:22Z</time>
   </trkpt>
   <trkpt lat="22.7477420" lon="120.3324860">
    <ele>22.7</ele>
    <time>2026-08-05T07:30:23Z</time>
   </trkpt>
   <trkpt lat="22.7477390" lon="120.3324220">
    <ele>23.1</ele>
    <time>2026-08-05T07:30:24Z</time>
   </trkpt>
   <trkpt lat="22.7477320" lon="120.3323770">
    <ele>23.4</ele>
    <time>2026-08-05T07:30:25Z</time>
   </trkpt>
   <trkpt lat="22.7477190" lon="120.3323440">
    <ele>23.7</ele>
    <time>2026-08-05T07:30:26Z</time>
   </trkpt>
   <trkpt lat="22.7476880" lon="120.3323170">
    <ele>23.9</ele>
    <time>2026-08-05T07:30:27Z</time>
   </trkpt>
   <trkpt lat="22.7476320" lon="120.3323060">
    <ele>23.7</ele>
    <time>2026-08-05T07:30:28Z</time>
   </trkpt>
   <trkpt lat="22.7475560" lon="120.3323030">
    <ele>23.5</ele>
    <time>2026-08-05T07:30:29Z</time>
   </trkpt>
   <trkpt lat="22.7474630" lon="120.3323060">
    <ele>23.1</ele>
    <time>2026-08-05T07:30:30Z</time>
   </trkpt>
   <trkpt lat="22.7473660" lon="120.3322970">
    <ele>22.6</ele>
    <time>2026-08-05T07:30:31Z</time>
   </trkpt>
   <trkpt lat="22.7472700" lon="120.3322910">
    <ele>22.3</ele>
    <time>2026-08-05T07:30:32Z</time>
   </trkpt>
   <trkpt lat="22.7471830" lon="120.3322870">
    <ele>21.9</ele>
    <time>2026-08-05T07:30:33Z</time>
   </trkpt>
   <trkpt lat="22.7471140" lon="120.3322840">
    <ele>21.7</ele>
    <time>2026-08-05T07:30:34Z</time>
   </trkpt>
   <trkpt lat="22.7470610" lon="120.3322830">
    <ele>21.5</ele>
    <time>2026-08-05T07:30:35Z</time>
   </trkpt>
   <trkpt lat="22.7470120" lon="120.3322820">
    <ele>21.3</ele>
    <time>2026-08-05T07:30:36Z</time>
   </trkpt>
   <trkpt lat="22.7469720" lon="120.3323060">
    <ele>21.1</ele>
    <time>2026-08-05T07:30:37Z</time>
   </trkpt>
   <trkpt lat="22.7469510" lon="120.3323630">
    <ele>21.0</ele>
    <time>2026-08-05T07:30:38Z</time>
   </trkpt>
   <trkpt lat="22.7469540" lon="120.3324240">
    <ele>21.0</ele>
    <time>2026-08-05T07:30:39Z</time>
   </trkpt>
   <trkpt lat="22.7469610" lon="120.3324860">
    <ele>21.0</ele>
    <time>2026-08-05T07:30:40Z</time>
   </trkpt>
   <trkpt lat="22.7469690" lon="120.3325560">
    <ele>21.0</ele>
    <time>2026-08-05T07:30:41Z</time>
   </trkpt>
   <trkpt lat="22.7469780" lon="120.3326390">
    <ele>21.0</ele>
    <time>2026-08-05T07:30:42Z</time>
   </trkpt>
   <trkpt lat="22.7469830" lon="120.3327270">
    <ele>21.0</ele>
    <time>2026-08-05T07:30:43Z</time>
   </trkpt>
   <trkpt lat="22.7469870" lon="120.3328220">
    <ele>20.7</ele>
    <time>2026-08-05T07:30:44Z</time>
   </trkpt>
   <trkpt lat="22.7469940" lon="120.3329180">
    <ele>20.3</ele>
    <time>2026-08-05T07:30:45Z</time>
   </trkpt>
   <trkpt lat="22.7470030" lon="120.3330170">
    <ele>19.9</ele>
    <time>2026-08-05T07:30:46Z</time>
   </trkpt>
   <trkpt lat="22.7470050" lon="120.3331140">
    <ele>19.5</ele>
    <time>2026-08-05T07:30:47Z</time>
   </trkpt>
   <trkpt lat="22.7470100" lon="120.3332080">
    <ele>19.2</ele>
    <time>2026-08-05T07:30:48Z</time>
   </trkpt>
   <trkpt lat="22.7470150" lon="120.3333000">
    <ele>18.7</ele>
    <time>2026-08-05T07:30:49Z</time>
   </trkpt>
   <trkpt lat="22.7470200" lon="120.3333800">
    <ele>18.3</ele>
    <time>2026-08-05T07:30:50Z</time>
   </trkpt>
   <trkpt lat="22.7470230" lon="120.3334560">
    <ele>17.8</ele>
    <time>2026-08-05T07:30:51Z</time>
   </trkpt>
   <trkpt lat="22.7470250" lon="120.3335270">
    <ele>17.3</ele>
    <time>2026-08-05T07:30:52Z</time>
   </trkpt>
   <trkpt lat="22.7470340" lon="120.3335990">
    <ele>16.8</ele>
    <time>2026-08-05T07:30:53Z</time>
   </trkpt>
   <trkpt lat="22.7470290" lon="120.3336700">
    <ele>16.3</ele>
    <time>2026-08-05T07:30:54Z</time>
   </trkpt>
   <trkpt lat="22.7470050" lon="120.3337900">
    <ele>15.3</ele>
    <time>2026-08-05T07:30:55Z</time>
   </trkpt>
   <trkpt lat="22.7469560" lon="120.3338190">
    <ele>15.3</ele>
    <time>2026-08-05T07:30:56Z</time>
   </trkpt>
   <trkpt lat="22.7468960" lon="120.3338240">
    <ele>15.3</ele>
    <time>2026-08-05T07:30:57Z</time>
   </trkpt>
   <trkpt lat="22.7468300" lon="120.3338110">
    <ele>15.3</ele>
    <time>2026-08-05T07:30:58Z</time>
   </trkpt>
   <trkpt lat="22.7467580" lon="120.3338010">
    <ele>15.3</ele>
    <time>2026-08-05T07:30:59Z</time>
   </trkpt>
   <trkpt lat="22.7466820" lon="120.3338000">
    <ele>15.3</ele>
    <time>2026-08-05T07:31:00Z</time>
   </trkpt>
   <trkpt lat="22.7466050" lon="120.3337970">
    <ele>15.3</ele>
    <time>2026-08-05T07:31:01Z</time>
   </trkpt>
   <trkpt lat="22.7465230" lon="120.3337910">
    <ele>15.3</ele>
    <time>2026-08-05T07:31:02Z</time>
   </trkpt>
   <trkpt lat="22.7464520" lon="120.3337590">
    <ele>15.2</ele>
    <time>2026-08-05T07:31:03Z</time>
   </trkpt>
   <trkpt lat="22.7464020" lon="120.3337030">
    <ele>15.2</ele>
    <time>2026-08-05T07:31:04Z</time>
   </trkpt>
   <trkpt lat="22.7463710" lon="120.3336310">
    <ele>15.2</ele>
    <time>2026-08-05T07:31:05Z</time>
   </trkpt>
   <trkpt lat="22.7463520" lon="120.3335680">
    <ele>15.2</ele>
    <time>2026-08-05T07:31:06Z</time>
   </trkpt>
   <trkpt lat="22.7463260" lon="120.3335120">
    <ele>15.2</ele>
    <time>2026-08-05T07:31:07Z</time>
   </trkpt>
   <trkpt lat="22.7462860" lon="120.3334580">
    <ele>15.1</ele>
    <time>2026-08-05T07:31:08Z</time>
   </trkpt>
   <trkpt lat="22.7462430" lon="120.3333900">
    <ele>15.1</ele>
    <time>2026-08-05T07:31:09Z</time>
   </trkpt>
   <trkpt lat="22.7461970" lon="120.3333150">
    <ele>15.1</ele>
    <time>2026-08-05T07:31:10Z</time>
   </trkpt>
   <trkpt lat="22.7461510" lon="120.3332370">
    <ele>15.0</ele>
    <time>2026-08-05T07:31:11Z</time>
   </trkpt>
   <trkpt lat="22.7461100" lon="120.3331660">
    <ele>15.0</ele>
    <time>2026-08-05T07:31:12Z</time>
   </trkpt>
   <trkpt lat="22.7460740" lon="120.3331050">
    <ele>15.0</ele>
    <time>2026-08-05T07:31:13Z</time>
   </trkpt>
   <trkpt lat="22.7460480" lon="120.3330600">
    <ele>15.0</ele>
    <time>2026-08-05T07:31:14Z</time>
   </trkpt>
   <trkpt lat="22.7460340" lon="120.3330280">
    <ele>15.0</ele>
    <time>2026-08-05T07:31:15Z</time>
   </trkpt>
   <trkpt lat="22.7460320" lon="120.3329990">
    <ele>15.0</ele>
    <time>2026-08-05T07:31:16Z</time>
   </trkpt>
   <trkpt lat="22.7460420" lon="120.3329740">
    <ele>15.0</ele>
    <time>2026-08-05T07:31:17Z</time>
   </trkpt>
   <trkpt lat="22.7460530" lon="120.3329680">
    <ele>15.0</ele>
    <time>2026-08-05T07:31:18Z</time>
   </trkpt>
   <trkpt lat="22.7460540" lon="120.3329720">
    <ele>15.0</ele>
    <time>2026-08-05T07:31:19Z</time>
   </trkpt>
   <trkpt lat="22.7460500" lon="120.3329760">
    <ele>15.0</ele>
    <time>2026-08-05T07:31:20Z</time>
   </trkpt>
   <trkpt lat="22.7460500" lon="120.3329760">
    <ele>15.0</ele>
    <time>2026-08-05T07:31:21Z</time>
   </trkpt>
   <trkpt lat="22.7460530" lon="120.3329800">
    <ele>15.0</ele>
    <time>2026-08-05T07:31:22Z</time>
   </trkpt>
   <trkpt lat="22.7460530" lon="120.3329800">
    <ele>15.0</ele>
    <time>2026-08-05T07:31:23Z</time>
   </trkpt>
   <trkpt lat="22.7460510" lon="120.3329760">
    <ele>15.0</ele>
    <time>2026-08-05T07:31:24Z</time>
   </trkpt>
   <trkpt lat="22.7460500" lon="120.3329770">
    <ele>15.0</ele>
    <time>2026-08-05T07:31:25Z</time>
   </trkpt>
   <trkpt lat="22.7460480" lon="120.3329780">
    <ele>15.0</ele>
    <time>2026-08-05T07:31:26Z</time>
   </trkpt>
   <trkpt lat="22.7460480" lon="120.3329790">
    <ele>15.0</ele>
    <time>2026-08-05T07:31:27Z</time>
   </trkpt>
   <trkpt lat="22.7460460" lon="120.3329800">
    <ele>15.0</ele>
    <time>2026-08-05T07:31:28Z</time>
   </trkpt>
  </trkseg>
 </trk>
</gpx>
