<?xml version="1.0" encoding="UTF-8"?>
<gpx creator="StravaGPX" version="1.1" xmlns="http://www.topografix.com/GPX/1/1" xmlns:xsi="http://www.w3.org/2001/XMLSchema-instance" xsi:schemaLocation="http://www.topografix.com/GPX/1/1 http://www.topografix.com/GPX/1/1/gpx.xsd">
 <metadata>
  <time>2026-08-10T07:03:43Z</time>
 </metadata>
 <trk>
  <name>午後電動自行車騎乘</name>
  <type>ebikeride</type>
  <trkseg>
   <trkpt lat="22.7526300" lon="120.3083420">
    <ele>11.7</ele>
    <time>2026-08-10T07:03:43Z</time>
   </trkpt>
   <trkpt lat="22.7526300" lon="120.3083420">
    <ele>11.7</ele>
    <time>2026-08-10T07:03:44Z</time>
   </trkpt>
   <trkpt lat="22.7526300" lon="120.3083410">
    <ele>11.7</ele>
    <time>2026-08-10T07:03:45Z</time>
   </trkpt>
   <trkpt lat="22.7526320" lon="120.3083420">
    <ele>11.7</ele>
    <time>2026-08-10T07:03:46Z</time>
   </trkpt>
   <trkpt lat="22.7526320" lon="120.3083420">
    <ele>11.7</ele>
    <time>2026-08-10T07:03:47Z</time>
   </trkpt>
   <trkpt lat="22.7526220" lon="120.3083690">
    <ele>11.7</ele>
    <time>2026-08-10T07:03:48Z</time>
   </trkpt>
   <trkpt lat="22.7525960" lon="120.3083950">
    <ele>11.7</ele>
    <time>2026-08-10T07:03:49Z</time>
   </trkpt>
   <trkpt lat="22.7525670" lon="120.3084400">
    <ele>11.7</ele>
    <time>2026-08-10T07:03:50Z</time>
   </trkpt>
   <trkpt lat="22.7525620" lon="120.3084930">
    <ele>11.8</ele>
    <time>2026-08-10T07:03:51Z</time>
   </trkpt>
   <trkpt lat="22.7525930" lon="120.3085410">
    <ele>11.8</ele>
    <time>2026-08-10T07:03:52Z</time>
   </trkpt>
   <trkpt lat="22.7526420" lon="120.3085830">
    <ele>11.8</ele>
    <time>2026-08-10T07:03:53Z</time>
   </trkpt>
   <trkpt lat="22.7526760" lon="120.3086390">
    <ele>11.9</ele>
    <time>2026-08-10T07:03:54Z</time>
   </trkpt>
   <trkpt lat="22.7527780" lon="120.3087380">
    <ele>11.9</ele>
    <time>2026-08-10T07:03:55Z</time>
   </trkpt>
   <trkpt lat="22.7528230" lon="120.3087750">
    <ele>12.0</ele>
    <time>2026-08-10T07:03:56Z</time>
   </trkpt>
   <trkpt lat="22.7528510" lon="120.3088030">
    <ele>12.0</ele>
    <time>2026-08-10T07:03:57Z</time>
   </trkpt>
   <trkpt lat="22.7528760" lon="120.3088120">
    <ele>12.0</ele>
    <time>2026-08-10T07:03:58Z</time>
   </trkpt>
   <trkpt lat="22.7529000" lon="120.3088190">
    <ele>12.0</ele>
    <time>2026-08-10T07:03:59Z</time>
   </trkpt>
   <trkpt lat="22.7529230" lon="120.3088330">
    <ele>12.0</ele>
    <time>2026-08-10T07:04:00Z</time>
   </trkpt>
   <trkpt lat="22.7529370" lon="120.3088560">
    <ele>12.0</ele>
    <time>2026-08-10T07:04:01Z</time>
   </trkpt>
   <trkpt lat="22.7529560" lon="120.3088880">
    <ele>12.0</ele>
    <time>2026-08-10T07:04:02Z</time>
   </trkpt>
   <trkpt lat="22.7529840" lon="120.3089180">
    <ele>12.0</ele>
    <time>2026-08-10T07:04:03Z</time>
   </trkpt>
   <trkpt lat="22.7530260" lon="120.3089500">
    <ele>12.0</ele>
    <time>2026-08-10T07:04:04Z</time>
   </trkpt>
   <trkpt lat="22.7530690" lon="120.3089780">
    <ele>12.0</ele>
    <time>2026-08-10T07:04:05Z</time>
   </trkpt>
   <trkpt lat="22.7531110" lon="120.3090190">
    <ele>12.1</ele>
    <time>2026-08-10T07:04:06Z</time>
   </trkpt>
   <trkpt lat="22.7531630" lon="120.3090600">
    <ele>12.1</ele>
    <time>2026-08-10T07:04:07Z</time>
   </trkpt>
   <trkpt lat="22.7532080" lon="120.3090930">
    <ele>12.1</ele>
    <time>2026-08-10T07:04:08Z</time>
   </trkpt>
   <trkpt lat="22.7532460" lon="120.3091260">
    <ele>12.1</ele>
    <time>2026-08-10T07:04:09Z</time>
   </trkpt>
   <trkpt lat="22.7532750" lon="120.3091310">
    <ele>12.1</ele>
    <time>2026-08-10T07:04:10Z</time>
   </trkpt>
   <trkpt lat="22.7532970" lon="120.3091050">
    <ele>12.1</ele>
    <time>2026-08-10T07:04:11Z</time>
   </trkpt>
   <trkpt lat="22.7533200" lon="120.3090670">
    <ele>12.2</ele>
    <time>2026-08-10T07:04:12Z</time>
   </trkpt>
   <trkpt lat="22.7533520" lon="120.3090360">
    <ele>12.2</ele>
    <time>2026-08-10T07:04:13Z</time>
   </trkpt>
   <trkpt lat="22.7533850" lon="120.3090030">
    <ele>12.2</ele>
    <time>2026-08-10T07:04:14Z</time>
   </trkpt>
   <trkpt lat="22.7534210" lon="120.3089670">
    <ele>12.3</ele>
    <time>2026-08-10T07:04:15Z</time>
   </trkpt>
   <trkpt lat="22.7534620" lon="120.3089320">
    <ele>12.3</ele>
    <time>2026-08-10T07:04:16Z</time>
   </trkpt>
   <trkpt lat="22.7534990" lon="120.3088900">
    <ele>12.4</ele>
    <time>2026-08-10T07:04:17Z</time>
   </trkpt>
   <trkpt lat="22.7535470" lon="120.3088530">
    <ele>12.5</ele>
    <time>2026-08-10T07:04:18Z</time>
   </trkpt>
   <trkpt lat="22.7535940" lon="120.3088100">
    <ele>12.5</ele>
    <time>2026-08-10T07:04:19Z</time>
   </trkpt>
   <trkpt lat="22.7536420" lon="120.3087600">
    <ele>12.6</ele>
    <time>2026-08-10T07:04:20Z</time>
   </trkpt>
   <trkpt lat="22.7536920" lon="120.3087140">
    <ele>12.7</ele>
    <time>2026-08-10T07:04:21Z</time>
   </trkpt>
   <trkpt lat="22.7537410" lon="120.3086720">
    <ele>12.8</ele>
    <time>2026-08-10T07:04:22Z</time>
   </trkpt>
   <trkpt lat="22.7537860" lon="120.3086320">
    <ele>12.9</ele>
    <time>2026-08-10T07:04:23Z</time>
   </trkpt>
   <trkpt lat="22.7538210" lon="120.3085920">
    <ele>13.0</ele>
    <time>2026-08-10T07:04:24Z</time>
   </trkpt>
   <trkpt lat="22.7538480" lon="120.3085630">
    <ele>13.1</ele>
    <time>2026-08-10T07:04:25Z</time>
   </trkpt>
   <trkpt lat="22.7538650" lon="120.3085500">
    <ele>13.2</ele>
    <time>2026-08-10T07:04:26Z</time>
   </trkpt>
   <trkpt lat="22.7538840" lon="120.3085540">
    <ele>13.2</ele>
    <time>2026-08-10T07:04:27Z</time>
   </trkpt>
   <trkpt lat="22.7539060" lon="120.3085700">
    <ele>13.3</ele>
    <time>2026-08-10T07:04:28Z</time>
   </trkpt>
   <trkpt lat="22.7539330" lon="120.3086090">
    <ele>13.5</ele>
    <time>2026-08-10T07:04:29Z</time>
   </trkpt>
   <trkpt lat="22.7539680" lon="120.3086560">
    <ele>13.7</ele>
    <time>2026-08-10T07:04:30Z</time>
   </trkpt>
   <trkpt lat="22.7540080" lon="120.3087020">
    <ele>13.9</ele>
    <time>2026-08-10T07:04:31Z</time>
   </trkpt>
   <trkpt lat="22.7540480" lon="120.3087510">
    <ele>14.1</ele>
    <time>2026-08-10T07:04:32Z</time>
   </trkpt>
   <trkpt lat="22.7540920" lon="120.3088030">
    <ele>14.3</ele>
    <time>2026-08-10T07:04:33Z</time>
   </trkpt>
   <trkpt lat="22.7541330" lon="120.3088570">
    <ele>14.4</ele>
    <time>2026-08-10T07:04:34Z</time>
   </trkpt>
   <trkpt lat="22.7541710" lon="120.3089040">
    <ele>14.5</ele>
    <time>2026-08-10T07:04:35Z</time>
   </trkpt>
   <trkpt lat="22.7542010" lon="120.3089450">
    <ele>14.6</ele>
    <time>2026-08-10T07:04:36Z</time>
   </trkpt>
   <trkpt lat="22.7542110" lon="120.3089870">
    <ele>14.6</ele>
    <time>2026-08-10T07:04:37Z</time>
   </trkpt>
   <trkpt lat="22.7542010" lon="120.3090240">
    <ele>14.5</ele>
    <time>2026-08-10T07:04:38Z</time>
   </trkpt>
   <trkpt lat="22.7541660" lon="120.3090570">
    <ele>14.4</ele>
    <time>2026-08-10T07:04:39Z</time>
   </trkpt>
   <trkpt lat="22.7541360" lon="120.3090730">
    <ele>14.3</ele>
    <time>2026-08-10T07:04:40Z</time>
   </trkpt>
   <trkpt lat="22.7541130" lon="120.3090970">
    <ele>14.3</ele>
    <time>2026-08-10T07:04:41Z</time>
   </trkpt>
   <trkpt lat="22.7540860" lon="120.3091260">
    <ele>14.2</ele>
    <time>2026-08-10T07:04:42Z</time>
   </trkpt>
   <trkpt lat="22.7540590" lon="120.3091570">
    <ele>14.1</ele>
    <time>2026-08-10T07:04:43Z</time>
   </trkpt>
   <trkpt lat="22.7540260" lon="120.3091840">
    <ele>14.0</ele>
    <time>2026-08-10T07:04:44Z</time>
   </trkpt>
   <trkpt lat="22.7539890" lon="120.3092140">
    <ele>13.9</ele>
    <time>2026-08-10T07:04:45Z</time>
   </trkpt>
   <trkpt lat="22.7539670" lon="120.3092340">
    <ele>13.8</ele>
    <time>2026-08-10T07:04:46Z</time>
   </trkpt>
   <trkpt lat="22.7539420" lon="120.3092340">
    <ele>13.7</ele>
    <time>2026-08-10T07:04:47Z</time>
   </trkpt>
   <trkpt lat="22.7539290" lon="120.3092200">
    <ele>13.7</ele>
    <time>2026-08-10T07:04:48Z</time>
   </trkpt>
   <trkpt lat="22.7539170" lon="120.3092020">
    <ele>13.6</ele>
    <time>2026-08-10T07:04:49Z</time>
   </trkpt>
   <trkpt lat="22.7538930" lon="120.3091710">
    <ele>13.5</ele>
    <time>2026-08-10T07:04:50Z</time>
   </trkpt>
   <trkpt lat="22.7538600" lon="120.3091360">
    <ele>13.4</ele>
    <time>2026-08-10T07:04:51Z</time>
   </trkpt>
   <trkpt lat="22.7538340" lon="120.3091100">
    <ele>13.4</ele>
    <time>2026-08-10T07:04:52Z</time>
   </trkpt>
   <trkpt lat="22.7538250" lon="120.3090760">
    <ele>13.3</ele>
    <time>2026-08-10T07:04:53Z</time>
   </trkpt>
   <trkpt lat="22.7538170" lon="120.3090580">
    <ele>13.2</ele>
    <time>2026-08-10T07:04:54Z</time>
   </trkpt>
   <trkpt lat="22.7538110" lon="120.3090560">
    <ele>13.2</ele>
    <time>2026-08-10T07:04:55Z</time>
   </trkpt>
   <trkpt lat="22.7538200" lon="120.3090700">
    <ele>13.2</ele>
    <time>2026-08-10T07:04:56Z</time>
   </trkpt>
   <trkpt lat="22.7538250" lon="120.3090780">
    <ele>13.2</ele>
    <time>2026-08-10T07:04:57Z</time>
   </trkpt>
   <trkpt lat="22.7538420" lon="120.3090850">
    <ele>13.1</ele>
    <time>2026-08-10T07:04:58Z</time>
   </trkpt>
   <trkpt lat="22.7538580" lon="120.3090970">
    <ele>13.1</ele>
    <time>2026-08-10T07:05:00Z</time>
   </trkpt>
   <trkpt lat="22.7538730" lon="120.3091150">
    <ele>13.0</ele>
    <time>2026-08-10T07:05:01Z</time>
   </trkpt>
   <trkpt lat="22.7538900" lon="120.3091400">
    <ele>13.0</ele>
    <time>2026-08-10T07:05:02Z</time>
   </trkpt>
   <trkpt lat="22.7539120" lon="120.3091610">
    <ele>12.9</ele>
    <time>2026-08-10T07:05:03Z</time>
   </trkpt>
   <trkpt lat="22.7539320" lon="120.3091850">
    <ele>12.9</ele>
    <time>2026-08-10T07:05:04Z</time>
   </trkpt>
   <trkpt lat="22.7539520" lon="120.3092060">
    <ele>12.8</ele>
    <time>2026-08-10T07:05:05Z</time>
   </trkpt>
   <trkpt lat="22.7539560" lon="120.3092780">
    <ele>12.7</ele>
    <time>2026-08-10T07:05:08Z</time>
   </trkpt>
   <trkpt lat="22.7539350" lon="120.3093070">
    <ele>12.6</ele>
    <time>2026-08-10T07:05:09Z</time>
   </trkpt>
   <trkpt lat="22.7539000" lon="120.3093380">
    <ele>12.5</ele>
    <time>2026-08-10T07:05:10Z</time>
   </trkpt>
   <trkpt lat="22.7538610" lon="120.3093720">
    <ele>12.4</ele>
    <time>2026-08-10T07:05:11Z</time>
   </trkpt>
   <trkpt lat="22.7538250" lon="120.3094070">
    <ele>12.4</ele>
    <time>2026-08-10T07:05:12Z</time>
   </trkpt>
   <trkpt lat="22.7538000" lon="120.3094440">
    <ele>12.3</ele>
    <time>2026-08-10T07:05:13Z</time>
   </trkpt>
   <trkpt lat="22.7537690" lon="120.3094570">
    <ele>12.3</ele>
    <time>2026-08-10T07:05:14Z</time>
   </trkpt>
   <trkpt lat="22.7537560" lon="120.3094740">
    <ele>12.2</ele>
    <time>2026-08-10T07:05:15Z</time>
   </trkpt>
   <trkpt lat="22.7537560" lon="120.3094890">
    <ele>12.2</ele>
    <time>2026-08-10T07:05:16Z</time>
   </trkpt>
   <trkpt lat="22.7537400" lon="120.3095050">
    <ele>12.1</ele>
    <time>2026-08-10T07:05:17Z</time>
   </trkpt>
   <trkpt lat="22.7537180" lon="120.3095320">
    <ele>12.0</ele>
    <time>2026-08-10T07:05:18Z</time>
   </trkpt>
   <trkpt lat="22.7536940" lon="120.3095680">
    <ele>11.8</ele>
    <time>2026-08-10T07:05:19Z</time>
   </trkpt>
   <trkpt lat="22.7536650" lon="120.3096050">
    <ele>11.7</ele>
    <time>2026-08-10T07:05:20Z</time>
   </trkpt>
   <trkpt lat="22.7536350" lon="120.3096470">
    <ele>11.5</ele>
    <time>2026-08-10T07:05:21Z</time>
   </trkpt>
   <trkpt lat="22.7536010" lon="120.3096960">
    <ele>11.2</ele>
    <time>2026-08-10T07:05:22Z</time>
   </trkpt>
   <trkpt lat="22.7535830" lon="120.3097500">
    <ele>11.0</ele>
    <time>2026-08-10T07:05:23Z</time>
   </trkpt>
   <trkpt lat="22.7535590" lon="120.3097960">
    <ele>10.8</ele>
    <time>2026-08-10T07:05:24Z</time>
   </trkpt>
   <trkpt lat="22.7535100" lon="120.3098200">
    <ele>10.6</ele>
    <time>2026-08-10T07:05:25Z</time>
   </trkpt>
   <trkpt lat="22.7534570" lon="120.3098450">
    <ele>10.4</ele>
    <time>2026-08-10T07:05:26Z</time>
   </trkpt>
   <trkpt lat="22.7534130" lon="120.3098830">
    <ele>10.1</ele>
    <time>2026-08-10T07:05:27Z</time>
   </trkpt>
   <trkpt lat="22.7533740" lon="120.3099150">
    <ele>9.9</ele>
    <time>2026-08-10T07:05:28Z</time>
   </trkpt>
   <trkpt lat="22.7533400" lon="120.3099470">
    <ele>9.8</ele>
    <time>2026-08-10T07:05:29Z</time>
   </trkpt>
   <trkpt lat="22.7533170" lon="120.3099700">
    <ele>9.6</ele>
    <time>2026-08-10T07:05:30Z</time>
   </trkpt>
   <trkpt lat="22.7533060" lon="120.3099850">
    <ele>9.6</ele>
    <time>2026-08-10T07:05:31Z</time>
   </trkpt>
   <trkpt lat="22.7533120" lon="120.3100000">
    <ele>9.5</ele>
    <time>2026-08-10T07:05:32Z</time>
   </trkpt>
   <trkpt lat="22.7533270" lon="120.3100080">
    <ele>9.5</ele>
    <time>2026-08-10T07:05:33Z</time>
   </trkpt>
   <trkpt lat="22.7533370" lon="120.3099860">
    <ele>9.6</ele>
    <time>2026-08-10T07:05:34Z</time>
   </trkpt>
   <trkpt lat="22.7533510" lon="120.3099640">
    <ele>9.7</ele>
    <time>2026-08-10T07:05:35Z</time>
   </trkpt>
   <trkpt lat="22.7533700" lon="120.3099250">
    <ele>9.9</ele>
    <time>2026-08-10T07:05:36Z</time>
   </trkpt>
   <trkpt lat="22.7533910" lon="120.3098930">
    <ele>10.0</ele>
    <time>2026-08-10T07:05:37Z</time>
   </trkpt>
   <trkpt lat="22.7534190" lon="120.3098640">
    <ele>10.2</ele>
    <time>2026-08-10T07:05:38Z</time>
   </trkpt>
   <trkpt lat="22.7534510" lon="120.3098350">
    <ele>10.4</ele>
    <time>2026-08-10T07:05:39Z</time>
   </trkpt>
   <trkpt lat="22.7534840" lon="120.3098030">
    <ele>10.6</ele>
    <time>2026-08-10T07:05:40Z</time>
   </trkpt>
   <trkpt lat="22.7535170" lon="120.3097700">
    <ele>10.8</ele>
    <time>2026-08-10T07:05:41Z</time>
   </trkpt>
   <trkpt lat="22.7535600" lon="120.3097370">
    <ele>11.0</ele>
    <time>2026-08-10T07:05:42Z</time>
   </trkpt>
   <trkpt lat="22.7535980" lon="120.3096920">
    <ele>11.2</ele>
    <time>2026-08-10T07:05:43Z</time>
   </trkpt>
   <trkpt lat="22.7536300" lon="120.3096370">
    <ele>11.5</ele>
    <time>2026-08-10T07:05:44Z</time>
   </trkpt>
   <trkpt lat="22.7536640" lon="120.3095890">
    <ele>11.7</ele>
    <time>2026-08-10T07:05:45Z</time>
   </trkpt>
   <trkpt lat="22.7536750" lon="120.3095420">
    <ele>11.9</ele>
    <time>2026-08-10T07:05:46Z</time>
   </trkpt>
   <trkpt lat="22.7537000" lon="120.3095220">
    <ele>12.0</ele>
    <time>2026-08-10T07:05:47Z</time>
   </trkpt>
   <trkpt lat="22.7537250" lon="120.3095180">
    <ele>12.1</ele>
    <time>2026-08-10T07:05:48Z</time>
   </trkpt>
   <trkpt lat="22.7537500" lon="120.3095150">
    <ele>12.2</ele>
    <time>2026-08-10T07:05:49Z</time>
   </trkpt>
   <trkpt lat="22.7537790" lon="120.3095240">
    <ele>12.2</ele>
    <time>2026-08-10T07:05:50Z</time>
   </trkpt>
   <trkpt lat="22.7538160" lon="120.3095590">
    <ele>12.2</ele>
    <time>2026-08-10T07:05:51Z</time>
   </trkpt>
   <trkpt lat="22.7538560" lon="120.3096060">
    <ele>12.3</ele>
    <time>2026-08-10T07:05:52Z</time>
   </trkpt>
   <trkpt lat="22.7538950" lon="120.3096460">
    <ele>12.3</ele>
    <time>2026-08-10T07:05:53Z</time>
   </trkpt>
   <trkpt lat="22.7539330" lon="120.3096670">
    <ele>12.3</ele>
    <time>2026-08-10T07:05:54Z</time>
   </trkpt>
   <trkpt lat="22.7539340" lon="120.3097010">
    <ele>12.4</ele>
    <time>2026-08-10T07:05:55Z</time>
   </trkpt>
   <trkpt lat="22.7539270" lon="120.3097300">
    <ele>12.4</ele>
    <time>2026-08-10T07:05:56Z</time>
   </trkpt>
   <trkpt lat="22.7539040" lon="120.3097650">
    <ele>12.5</ele>
    <time>2026-08-10T07:05:57Z</time>
   </trkpt>
   <trkpt lat="22.7538640" lon="120.3097930">
    <ele>12.6</ele>
    <time>2026-08-10T07:05:58Z</time>
   </trkpt>
   <trkpt lat="22.7538380" lon="120.3098360">
    <ele>12.7</ele>
    <time>2026-08-10T07:05:59Z</time>
   </trkpt>
   <trkpt lat="22.7538200" lon="120.3098830">
    <ele>12.8</ele>
    <time>2026-08-10T07:06:00Z</time>
   </trkpt>
   <trkpt lat="22.7537950" lon="120.3099910">
    <ele>11.8</ele>
    <time>2026-08-10T07:06:01Z</time>
   </trkpt>
   <trkpt lat="22.7537650" lon="120.3100300">
    <ele>11.4</ele>
    <time>2026-08-10T07:06:02Z</time>
   </trkpt>
   <trkpt lat="22.7537220" lon="120.3100690">
    <ele>10.8</ele>
    <time>2026-08-10T07:06:03Z</time>
   </trkpt>
   <trkpt lat="22.7536850" lon="120.3101110">
    <ele>10.2</ele>
    <time>2026-08-10T07:06:04Z</time>
   </trkpt>
   <trkpt lat="22.7536500" lon="120.3101620">
    <ele>9.6</ele>
    <time>2026-08-10T07:06:05Z</time>
   </trkpt>
   <trkpt lat="22.7536150" lon="120.3102100">
    <ele>9.3</ele>
    <time>2026-08-10T07:06:06Z</time>
   </trkpt>
   <trkpt lat="22.7535770" lon="120.3102610">
    <ele>9.6</ele>
    <time>2026-08-10T07:06:07Z</time>
   </trkpt>
   <trkpt lat="22.7535390" lon="120.3103050">
    <ele>9.9</ele>
    <time>2026-08-10T07:06:08Z</time>
   </trkpt>
   <trkpt lat="22.7535050" lon="120.3103550">
    <ele>10.2</ele>
    <time>2026-08-10T07:06:09Z</time>
   </trkpt>
   <trkpt lat="22.7534640" lon="120.3103940">
    <ele>10.4</ele>
    <time>2026-08-10T07:06:10Z</time>
   </trkpt>
   <trkpt lat="22.7534270" lon="120.3104420">
    <ele>10.7</ele>
    <time>2026-08-10T07:06:11Z</time>
   </trkpt>
   <trkpt lat="22.7533880" lon="120.3104850">
    <ele>11.0</ele>
    <time>2026-08-10T07:06:12Z</time>
   </trkpt>
   <trkpt lat="22.7533480" lon="120.3105270">
    <ele>11.3</ele>
    <time>2026-08-10T07:06:13Z</time>
   </trkpt>
   <trkpt lat="22.7533110" lon="120.3105660">
    <ele>11.6</ele>
    <time>2026-08-10T07:06:14Z</time>
   </trkpt>
   <trkpt lat="22.7532790" lon="120.3106070">
    <ele>11.8</ele>
    <time>2026-08-10T07:06:15Z</time>
   </trkpt>
   <trkpt lat="22.7532440" lon="120.3106400">
    <ele>12.0</ele>
    <time>2026-08-10T07:06:16Z</time>
   </trkpt>
   <trkpt lat="22.7532130" lon="120.3106700">
    <ele>12.3</ele>
    <time>2026-08-10T07:06:17Z</time>
   </trkpt>
   <trkpt lat="22.7531900" lon="120.3107090">
    <ele>12.5</ele>
    <time>2026-08-10T07:06:18Z</time>
   </trkpt>
   <trkpt lat="22.7531690" lon="120.3107390">
    <ele>12.7</ele>
    <time>2026-08-10T07:06:19Z</time>
   </trkpt>
   <trkpt lat="22.7531540" lon="120.3107580">
    <ele>12.8</ele>
    <time>2026-08-10T07:06:20Z</time>
   </trkpt>
   <trkpt lat="22.7531400" lon="120.3107790">
    <ele>12.9</ele>
    <time>2026-08-10T07:06:21Z</time>
   </trkpt>
   <trkpt lat="22.7531280" lon="120.3107940">
    <ele>13.0</ele>
    <time>2026-08-10T07:06:22Z</time>
   </trkpt>
   <trkpt lat="22.7531200" lon="120.3108080">
    <ele>13.1</ele>
    <time>2026-08-10T07:06:23Z</time>
   </trkpt>
   <trkpt lat="22.7531130" lon="120.3108190">
    <ele>13.2</ele>
    <time>2026-08-10T07:06:24Z</time>
   </trkpt>
   <trkpt lat="22.7531020" lon="120.3108410">
    <ele>13.3</ele>
    <time>2026-08-10T07:06:25Z</time>
   </trkpt>
   <trkpt lat="22.7530880" lon="120.3108700">
    <ele>13.5</ele>
    <time>2026-08-10T07:06:26Z</time>
   </trkpt>
   <trkpt lat="22.7530940" lon="120.3108990">
    <ele>13.5</ele>
    <time>2026-08-10T07:06:27Z</time>
   </trkpt>
   <trkpt lat="22.7531270" lon="120.3109300">
    <ele>13.5</ele>
    <time>2026-08-10T07:06:28Z</time>
   </trkpt>
   <trkpt lat="22.7531780" lon="120.3109380">
    <ele>13.5</ele>
    <time>2026-08-10T07:06:29Z</time>
   </trkpt>
   <trkpt lat="22.7532290" lon="120.3109370">
    <ele>13.4</ele>
    <time>2026-08-10T07:06:30Z</time>
   </trkpt>
   <trkpt lat="22.7532850" lon="120.3109480">
    <ele>13.4</ele>
    <time>2026-08-10T07:06:31Z</time>
   </trkpt>
   <trkpt lat="22.7533510" lon="120.3109680">
    <ele>13.4</ele>
    <time>2026-08-10T07:06:32Z</time>
   </trkpt>
   <trkpt lat="22.7534160" lon="120.3109820">
    <ele>13.4</ele>
    <time>2026-08-10T07:06:33Z</time>
   </trkpt>
  </trkseg>
 </trk>
</gpx>
