<?xml version="1.0" encoding="UTF-8"?>
<gpx creator="StravaGPX" version="1.1" xmlns="http://www.topografix.com/GPX/1/1" xmlns:xsi="http://www.w3.org/2001/XMLSchema-instance" xsi:schemaLocation="http://www.topografix.com/GPX/1/1 http://www.topografix.com/GPX/1/1/gpx.xsd">
 <metadata>
  <time>2026-08-10T06:50:44Z</time>
 </metadata>
 <trk>
  <name>午後電動自行車騎乘</name>
  <type>ebikeride</type>
  <trkseg>
   <trkpt lat="22.7587170" lon="120.3023490">
    <ele>12.6</ele>
    <time>2026-08-10T06:50:44Z</time>
   </trkpt>
   <trkpt lat="22.7587170" lon="120.3023490">
    <ele>12.6</ele>
    <time>2026-08-10T06:50:46Z</time>
   </trkpt>
   <trkpt lat="22.7587280" lon="120.3023560">
    <ele>12.6</ele>
    <time>2026-08-10T06:50:47Z</time>
   </trkpt>
   <trkpt lat="22.7587300" lon="120.3023610">
    <ele>12.6</ele>
    <time>2026-08-10T06:50:48Z</time>
   </trkpt>
   <trkpt lat="22.7587300" lon="120.3023650">
    <ele>12.6</ele>
    <time>2026-08-10T06:50:49Z</time>
   </trkpt>
   <trkpt lat="22.7587340" lon="120.3023690">
    <ele>12.6</ele>
    <time>2026-08-10T06:50:50Z</time>
   </trkpt>
   <trkpt lat="22.7587360" lon="120.3023680">
    <ele>12.7</ele>
    <time>2026-08-10T06:50:51Z</time>
   </trkpt>
   <trkpt lat="22.7587380" lon="120.3023650">
    <ele>12.7</ele>
    <time>2026-08-10T06:50:52Z</time>
   </trkpt>
   <trkpt lat="22.7587370" lon="120.3023620">
    <ele>12.7</ele>
    <time>2026-08-10T06:50:53Z</time>
   </trkpt>
   <trkpt lat="22.7587340" lon="120.3023540">
    <ele>12.7</ele>
    <time>2026-08-10T06:50:54Z</time>
   </trkpt>
   <trkpt lat="22.7587270" lon="120.3023410">
    <ele>12.7</ele>
    <time>2026-08-10T06:50:55Z</time>
   </trkpt>
   <trkpt lat="22.7587190" lon="120.3023200">
    <ele>12.8</ele>
    <time>2026-08-10T06:50:56Z</time>
   </trkpt>
   <trkpt lat="22.7587090" lon="120.3023080">
    <ele>12.8</ele>
    <time>2026-08-10T06:50:57Z</time>
   </trkpt>
   <trkpt lat="22.7586880" lon="120.3022670">
    <ele>12.9</ele>
    <time>2026-08-10T06:50:58Z</time>
   </trkpt>
   <trkpt lat="22.7586630" lon="120.3022100">
    <ele>13.0</ele>
    <time>2026-08-10T06:50:59Z</time>
   </trkpt>
   <trkpt lat="22.7586280" lon="120.3021210">
    <ele>13.3</ele>
    <time>2026-08-10T06:51:00Z</time>
   </trkpt>
   <trkpt lat="22.7586050" lon="120.3020730">
    <ele>13.4</ele>
    <time>2026-08-10T06:51:01Z</time>
   </trkpt>
   <trkpt lat="22.7585830" lon="120.3020230">
    <ele>13.5</ele>
    <time>2026-08-10T06:51:02Z</time>
   </trkpt>
   <trkpt lat="22.7585500" lon="120.3019740">
    <ele>13.6</ele>
    <time>2026-08-10T06:51:03Z</time>
   </trkpt>
   <trkpt lat="22.7585260" lon="120.3019230">
    <ele>13.7</ele>
    <time>2026-08-10T06:51:04Z</time>
   </trkpt>
   <trkpt lat="22.7585070" lon="120.3018750">
    <ele>13.9</ele>
    <time>2026-08-10T06:51:05Z</time>
   </trkpt>
   <trkpt lat="22.7585120" lon="120.3018270">
    <ele>14.0</ele>
    <time>2026-08-10T06:51:06Z</time>
   </trkpt>
   <trkpt lat="22.7585100" lon="120.3017950">
    <ele>14.0</ele>
    <time>2026-08-10T06:51:07Z</time>
   </trkpt>
   <trkpt lat="22.7585290" lon="120.3017730">
    <ele>14.1</ele>
    <time>2026-08-10T06:51:08Z</time>
   </trkpt>
   <trkpt lat="22.7585670" lon="120.3017500">
    <ele>14.0</ele>
    <time>2026-08-10T06:51:09Z</time>
   </trkpt>
   <trkpt lat="22.7585870" lon="120.3017500">
    <ele>14.0</ele>
    <time>2026-08-10T06:51:10Z</time>
   </trkpt>
   <trkpt lat="22.7586120" lon="120.3017640">
    <ele>14.0</ele>
    <time>2026-08-10T06:51:11Z</time>
   </trkpt>
   <trkpt lat="22.7586420" lon="120.3017670">
    <ele>14.0</ele>
    <time>2026-08-10T06:51:12Z</time>
   </trkpt>
   <trkpt lat="22.7586740" lon="120.3017650">
    <ele>14.0</ele>
    <time>2026-08-10T06:51:13Z</time>
   </trkpt>
   <trkpt lat="22.7587280" lon="120.3017730">
    <ele>14.0</ele>
    <time>2026-08-10T06:51:14Z</time>
   </trkpt>
   <trkpt lat="22.7587840" lon="120.3017810">
    <ele>14.0</ele>
    <time>2026-08-10T06:51:15Z</time>
   </trkpt>
   <trkpt lat="22.7588320" lon="120.3017790">
    <ele>14.0</ele>
    <time>2026-08-10T06:51:16Z</time>
   </trkpt>
   <trkpt lat="22.7588450" lon="120.3017770">
    <ele>14.0</ele>
    <time>2026-08-10T06:51:17Z</time>
   </trkpt>
   <trkpt lat="22.7588750" lon="120.3017770">
    <ele>14.0</ele>
    <time>2026-08-10T06:51:18Z</time>
   </trkpt>
   <trkpt lat="22.7588850" lon="120.3018060">
    <ele>14.0</ele>
    <time>2026-08-10T06:51:19Z</time>
   </trkpt>
   <trkpt lat="22.7588750" lon="120.3018250">
    <ele>14.0</ele>
    <time>2026-08-10T06:51:20Z</time>
   </trkpt>
   <trkpt lat="22.7588700" lon="120.3018520">
    <ele>13.9</ele>
    <time>2026-08-10T06:51:21Z</time>
   </trkpt>
   <trkpt lat="22.7588750" lon="120.3018870">
    <ele>13.9</ele>
    <time>2026-08-10T06:51:22Z</time>
   </trkpt>
   <trkpt lat="22.7588770" lon="120.3019280">
    <ele>13.9</ele>
    <time>2026-08-10T06:51:23Z</time>
   </trkpt>
   <trkpt lat="22.7588760" lon="120.3019780">
    <ele>13.9</ele>
    <time>2026-08-10T06:51:24Z</time>
   </trkpt>
   <trkpt lat="22.7589000" lon="120.3020290">
    <ele>13.9</ele>
    <time>2026-08-10T06:51:25Z</time>
   </trkpt>
   <trkpt lat="22.7589250" lon="120.3020820">
    <ele>13.8</ele>
    <time>2026-08-10T06:51:26Z</time>
   </trkpt>
   <trkpt lat="22.7589560" lon="120.3021300">
    <ele>13.8</ele>
    <time>2026-08-10T06:51:27Z</time>
   </trkpt>
   <trkpt lat="22.7589830" lon="120.3021730">
    <ele>13.8</ele>
    <time>2026-08-10T06:51:28Z</time>
   </trkpt>
   <trkpt lat="22.7590120" lon="120.3022150">
    <ele>13.7</ele>
    <time>2026-08-10T06:51:29Z</time>
   </trkpt>
   <trkpt lat="22.7590250" lon="120.3022500">
    <ele>13.7</ele>
    <time>2026-08-10T06:51:30Z</time>
   </trkpt>
   <trkpt lat="22.7590350" lon="120.3022670">
    <ele>13.7</ele>
    <time>2026-08-10T06:51:31Z</time>
   </trkpt>
   <trkpt lat="22.7590450" lon="120.3022740">
    <ele>13.7</ele>
    <time>2026-08-10T06:51:32Z</time>
   </trkpt>
   <trkpt lat="22.7590630" lon="120.3022700">
    <ele>13.7</ele>
    <time>2026-08-10T06:51:33Z</time>
   </trkpt>
   <trkpt lat="22.7590810" lon="120.3022460">
    <ele>13.6</ele>
    <time>2026-08-10T06:51:34Z</time>
   </trkpt>
   <trkpt lat="22.7591080" lon="120.3022290">
    <ele>13.5</ele>
    <time>2026-08-10T06:51:35Z</time>
   </trkpt>
   <trkpt lat="22.7591450" lon="120.3021950">
    <ele>13.4</ele>
    <time>2026-08-10T06:51:36Z</time>
   </trkpt>
   <trkpt lat="22.7591850" lon="120.3021670">
    <ele>13.3</ele>
    <time>2026-08-10T06:51:37Z</time>
   </trkpt>
   <trkpt lat="22.7592380" lon="120.3021510">
    <ele>13.2</ele>
    <time>2026-08-10T06:51:38Z</time>
   </trkpt>
   <trkpt lat="22.7592700" lon="120.3021110">
    <ele>13.1</ele>
    <time>2026-08-10T06:51:39Z</time>
   </trkpt>
   <trkpt lat="22.7592810" lon="120.3020660">
    <ele>13.0</ele>
    <time>2026-08-10T06:51:40Z</time>
   </trkpt>
   <trkpt lat="22.7592790" lon="120.3020330">
    <ele>12.7</ele>
    <time>2026-08-10T06:51:41Z</time>
   </trkpt>
   <trkpt lat="22.7592560" lon="120.3019980">
    <ele>12.4</ele>
    <time>2026-08-10T06:51:42Z</time>
   </trkpt>
   <trkpt lat="22.7592070" lon="120.3019540">
    <ele>11.8</ele>
    <time>2026-08-10T06:51:43Z</time>
   </trkpt>
   <trkpt lat="22.7591720" lon="120.3019050">
    <ele>11.3</ele>
    <time>2026-08-10T06:51:44Z</time>
   </trkpt>
   <trkpt lat="22.7591400" lon="120.3018540">
    <ele>10.7</ele>
    <time>2026-08-10T06:51:45Z</time>
   </trkpt>
   <trkpt lat="22.7591190" lon="120.3018020">
    <ele>10.3</ele>
    <time>2026-08-10T06:51:46Z</time>
   </trkpt>
   <trkpt lat="22.7591230" lon="120.3017660">
    <ele>10.0</ele>
    <time>2026-08-10T06:51:47Z</time>
   </trkpt>
   <trkpt lat="22.7591280" lon="120.3017510">
    <ele>9.8</ele>
    <time>2026-08-10T06:51:48Z</time>
   </trkpt>
   <trkpt lat="22.7591370" lon="120.3017700">
    <ele>9.8</ele>
    <time>2026-08-10T06:51:49Z</time>
   </trkpt>
   <trkpt lat="22.7591570" lon="120.3017600">
    <ele>9.8</ele>
    <time>2026-08-10T06:51:50Z</time>
   </trkpt>
   <trkpt lat="22.7591930" lon="120.3017460">
    <ele>9.8</ele>
    <time>2026-08-10T06:51:51Z</time>
   </trkpt>
   <trkpt lat="22.7592310" lon="120.3017370">
    <ele>9.9</ele>
    <time>2026-08-10T06:51:52Z</time>
   </trkpt>
   <trkpt lat="22.7592820" lon="120.3017390">
    <ele>9.9</ele>
    <time>2026-08-10T06:51:53Z</time>
   </trkpt>
   <trkpt lat="22.7593330" lon="120.3017390">
    <ele>10.0</ele>
    <time>2026-08-10T06:51:55Z</time>
   </trkpt>
   <trkpt lat="22.7593860" lon="120.3017370">
    <ele>10.0</ele>
    <time>2026-08-10T06:51:56Z</time>
   </trkpt>
   <trkpt lat="22.7594370" lon="120.3017400">
    <ele>10.0</ele>
    <time>2026-08-10T06:51:57Z</time>
   </trkpt>
   <trkpt lat="22.7594870" lon="120.3017390">
    <ele>10.0</ele>
    <time>2026-08-10T06:51:58Z</time>
   </trkpt>
   <trkpt lat="22.7595410" lon="120.3017440">
    <ele>10.1</ele>
    <time>2026-08-10T06:51:59Z</time>
   </trkpt>
   <trkpt lat="22.7595900" lon="120.3017620">
    <ele>10.1</ele>
    <time>2026-08-10T06:52:00Z</time>
   </trkpt>
   <trkpt lat="22.7596370" lon="120.3017870">
    <ele>10.1</ele>
    <time>2026-08-10T06:52:01Z</time>
   </trkpt>
   <trkpt lat="22.7596760" lon="120.3018220">
    <ele>10.1</ele>
    <time>2026-08-10T06:52:02Z</time>
   </trkpt>
   <trkpt lat="22.7597020" lon="120.3018760">
    <ele>10.2</ele>
    <time>2026-08-10T06:52:03Z</time>
   </trkpt>
   <trkpt lat="22.7597350" lon="120.3019290">
    <ele>10.2</ele>
    <time>2026-08-10T06:52:04Z</time>
   </trkpt>
   <trkpt lat="22.7597720" lon="120.3019760">
    <ele>10.2</ele>
    <time>2026-08-10T06:52:05Z</time>
   </trkpt>
   <trkpt lat="22.7598040" lon="120.3020240">
    <ele>10.2</ele>
    <time>2026-08-10T06:52:06Z</time>
   </trkpt>
   <trkpt lat="22.7598370" lon="120.3020660">
    <ele>10.2</ele>
    <time>2026-08-10T06:52:07Z</time>
   </trkpt>
   <trkpt lat="22.7598630" lon="120.3021160">
    <ele>10.3</ele>
    <time>2026-08-10T06:52:08Z</time>
   </trkpt>
   <trkpt lat="22.7599000" lon="120.3021560">
    <ele>10.3</ele>
    <time>2026-08-10T06:52:09Z</time>
   </trkpt>
   <trkpt lat="22.7599300" lon="120.3022020">
    <ele>10.3</ele>
    <time>2026-08-10T06:52:10Z</time>
   </trkpt>
   <trkpt lat="22.7599680" lon="120.3022460">
    <ele>10.3</ele>
    <time>2026-08-10T06:52:11Z</time>
   </trkpt>
   <trkpt lat="22.7600010" lon="120.3022910">
    <ele>10.4</ele>
    <time>2026-08-10T06:52:12Z</time>
   </trkpt>
   <trkpt lat="22.7600290" lon="120.3023390">
    <ele>10.4</ele>
    <time>2026-08-10T06:52:13Z</time>
   </trkpt>
   <trkpt lat="22.7600590" lon="120.3023860">
    <ele>10.4</ele>
    <time>2026-08-10T06:52:14Z</time>
   </trkpt>
   <trkpt lat="22.7600760" lon="120.3024440">
    <ele>10.5</ele>
    <time>2026-08-10T06:52:15Z</time>
   </trkpt>
   <trkpt lat="22.7601100" lon="120.3024840">
    <ele>10.5</ele>
    <time>2026-08-10T06:52:16Z</time>
   </trkpt>
   <trkpt lat="22.7601340" lon="120.3025240">
    <ele>10.6</ele>
    <time>2026-08-10T06:52:17Z</time>
   </trkpt>
   <trkpt lat="22.7601570" lon="120.3025620">
    <ele>10.6</ele>
    <time>2026-08-10T06:52:18Z</time>
   </trkpt>
   <trkpt lat="22.7601730" lon="120.3026020">
    <ele>10.6</ele>
    <time>2026-08-10T06:52:19Z</time>
   </trkpt>
   <trkpt lat="22.7601830" lon="120.3026390">
    <ele>10.7</ele>
    <time>2026-08-10T06:52:20Z</time>
   </trkpt>
   <trkpt lat="22.7601970" lon="120.3026740">
    <ele>10.7</ele>
    <time>2026-08-10T06:52:21Z</time>
   </trkpt>
   <trkpt lat="22.7602190" lon="120.3026950">
    <ele>10.7</ele>
    <time>2026-08-10T06:52:22Z</time>
   </trkpt>
   <trkpt lat="22.7602500" lon="120.3027190">
    <ele>10.7</ele>
    <time>2026-08-10T06:52:23Z</time>
   </trkpt>
   <trkpt lat="22.7602810" lon="120.3027410">
    <ele>10.7</ele>
    <time>2026-08-10T06:52:24Z</time>
   </trkpt>
   <trkpt lat="22.7603160" lon="120.3027690">
    <ele>10.7</ele>
    <time>2026-08-10T06:52:25Z</time>
   </trkpt>
   <trkpt lat="22.7603360" lon="120.3028080">
    <ele>10.7</ele>
    <time>2026-08-10T06:52:26Z</time>
   </trkpt>
   <trkpt lat="22.7603570" lon="120.3028520">
    <ele>10.6</ele>
    <time>2026-08-10T06:52:27Z</time>
   </trkpt>
   <trkpt lat="22.7603630" lon="120.3028930">
    <ele>10.6</ele>
    <time>2026-08-10T06:52:28Z</time>
   </trkpt>
   <trkpt lat="22.7603440" lon="120.3029040">
    <ele>10.6</ele>
    <time>2026-08-10T06:52:29Z</time>
   </trkpt>
   <trkpt lat="22.7603240" lon="120.3029150">
    <ele>10.7</ele>
    <time>2026-08-10T06:52:30Z</time>
   </trkpt>
   <trkpt lat="22.7602960" lon="120.3029280">
    <ele>10.7</ele>
    <time>2026-08-10T06:52:31Z</time>
   </trkpt>
   <trkpt lat="22.7602720" lon="120.3029480">
    <ele>10.7</ele>
    <time>2026-08-10T06:52:32Z</time>
   </trkpt>
   <trkpt lat="22.7602350" lon="120.3029830">
    <ele>10.7</ele>
    <time>2026-08-10T06:52:33Z</time>
   </trkpt>
   <trkpt lat="22.7601750" lon="120.3030110">
    <ele>10.8</ele>
    <time>2026-08-10T06:52:34Z</time>
   </trkpt>
   <trkpt lat="22.7601260" lon="120.3030460">
    <ele>10.9</ele>
    <time>2026-08-10T06:52:35Z</time>
   </trkpt>
   <trkpt lat="22.7600970" lon="120.3030910">
    <ele>10.9</ele>
    <time>2026-08-10T06:52:36Z</time>
   </trkpt>
   <trkpt lat="22.7600630" lon="120.3031280">
    <ele>11.0</ele>
    <time>2026-08-10T06:52:37Z</time>
   </trkpt>
   <trkpt lat="22.7600270" lon="120.3031570">
    <ele>11.0</ele>
    <time>2026-08-10T06:52:38Z</time>
   </trkpt>
   <trkpt lat="22.7599990" lon="120.3031800">
    <ele>11.0</ele>
    <time>2026-08-10T06:52:39Z</time>
   </trkpt>
   <trkpt lat="22.7599730" lon="120.3032110">
    <ele>11.0</ele>
    <time>2026-08-10T06:52:40Z</time>
   </trkpt>
   <trkpt lat="22.7599520" lon="120.3032530">
    <ele>11.0</ele>
    <time>2026-08-10T06:52:41Z</time>
   </trkpt>
   <trkpt lat="22.7599340" lon="120.3032870">
    <ele>10.9</ele>
    <time>2026-08-10T06:52:42Z</time>
   </trkpt>
   <trkpt lat="22.7599210" lon="120.3033200">
    <ele>10.9</ele>
    <time>2026-08-10T06:52:43Z</time>
   </trkpt>
   <trkpt lat="22.7599090" lon="120.3033610">
    <ele>10.8</ele>
    <time>2026-08-10T06:52:44Z</time>
   </trkpt>
   <trkpt lat="22.7598940" lon="120.3033840">
    <ele>10.8</ele>
    <time>2026-08-10T06:52:45Z</time>
   </trkpt>
   <trkpt lat="22.7598640" lon="120.3034170">
    <ele>10.7</ele>
    <time>2026-08-10T06:52:46Z</time>
   </trkpt>
   <trkpt lat="22.7598400" lon="120.3034350">
    <ele>10.7</ele>
    <time>2026-08-10T06:52:47Z</time>
   </trkpt>
   <trkpt lat="22.7598140" lon="120.3034550">
    <ele>10.7</ele>
    <time>2026-08-10T06:52:48Z</time>
   </trkpt>
   <trkpt lat="22.7597850" lon="120.3034690">
    <ele>10.6</ele>
    <time>2026-08-10T06:52:49Z</time>
   </trkpt>
   <trkpt lat="22.7597560" lon="120.3034910">
    <ele>10.6</ele>
    <time>2026-08-10T06:52:50Z</time>
   </trkpt>
   <trkpt lat="22.7597290" lon="120.3035130">
    <ele>10.6</ele>
    <time>2026-08-10T06:52:51Z</time>
   </trkpt>
   <trkpt lat="22.7597030" lon="120.3035430">
    <ele>10.5</ele>
    <time>2026-08-10T06:52:52Z</time>
   </trkpt>
   <trkpt lat="22.7596750" lon="120.3035760">
    <ele>10.5</ele>
    <time>2026-08-10T06:52:53Z</time>
   </trkpt>
   <trkpt lat="22.7596410" lon="120.3035960">
    <ele>10.5</ele>
    <time>2026-08-10T06:52:54Z</time>
   </trkpt>
   <trkpt lat="22.7596360" lon="120.3036340">
    <ele>10.4</ele>
    <time>2026-08-10T06:52:55Z</time>
   </trkpt>
   <trkpt lat="22.7596330" lon="120.3037270">
    <ele>10.4</ele>
    <time>2026-08-10T06:52:56Z</time>
   </trkpt>
   <trkpt lat="22.7596310" lon="120.3037550">
    <ele>10.3</ele>
    <time>2026-08-10T06:52:57Z</time>
   </trkpt>
   <trkpt lat="22.7596140" lon="120.3037810">
    <ele>10.3</ele>
    <time>2026-08-10T06:52:58Z</time>
   </trkpt>
   <trkpt lat="22.7595830" lon="120.3038100">
    <ele>10.2</ele>
    <time>2026-08-10T06:52:59Z</time>
   </trkpt>
   <trkpt lat="22.7595470" lon="120.3038320">
    <ele>10.2</ele>
    <time>2026-08-10T06:53:00Z</time>
   </trkpt>
   <trkpt lat="22.7595000" lon="120.3038570">
    <ele>10.2</ele>
    <time>2026-08-10T06:53:01Z</time>
   </trkpt>
   <trkpt lat="22.7594550" lon="120.3038850">
    <ele>10.1</ele>
    <time>2026-08-10T06:53:02Z</time>
   </trkpt>
   <trkpt lat="22.7593950" lon="120.3039180">
    <ele>10.1</ele>
    <time>2026-08-10T06:53:03Z</time>
   </trkpt>
   <trkpt lat="22.7593330" lon="120.3039350">
    <ele>10.0</ele>
    <time>2026-08-10T06:53:04Z</time>
   </trkpt>
   <trkpt lat="22.7592630" lon="120.3039520">
    <ele>9.9</ele>
    <time>2026-08-10T06:53:05Z</time>
   </trkpt>
   <trkpt lat="22.7592030" lon="120.3039690">
    <ele>9.9</ele>
    <time>2026-08-10T06:53:06Z</time>
   </trkpt>
   <trkpt lat="22.7591490" lon="120.3039830">
    <ele>9.8</ele>
    <time>2026-08-10T06:53:07Z</time>
   </trkpt>
   <trkpt lat="22.7590860" lon="120.3039640">
    <ele>9.8</ele>
    <time>2026-08-10T06:53:08Z</time>
   </trkpt>
   <trkpt lat="22.7590370" lon="120.3039590">
    <ele>9.8</ele>
    <time>2026-08-10T06:53:09Z</time>
   </trkpt>
   <trkpt lat="22.7589900" lon="120.3039520">
    <ele>9.8</ele>
    <time>2026-08-10T06:53:10Z</time>
   </trkpt>
   <trkpt lat="22.7589500" lon="120.3039500">
    <ele>9.8</ele>
    <time>2026-08-10T06:53:11Z</time>
   </trkpt>
   <trkpt lat="22.7589290" lon="120.3039600">
    <ele>9.7</ele>
    <time>2026-08-10T06:53:12Z</time>
   </trkpt>
   <trkpt lat="22.7589000" lon="120.3039570">
    <ele>9.7</ele>
    <time>2026-08-10T06:53:13Z</time>
   </trkpt>
   <trkpt lat="22.7588700" lon="120.3039640">
    <ele>9.7</ele>
    <time>2026-08-10T06:53:14Z</time>
   </trkpt>
   <trkpt lat="22.7588410" lon="120.3039930">
    <ele>9.7</ele>
    <time>2026-08-10T06:53:15Z</time>
   </trkpt>
   <trkpt lat="22.7588120" lon="120.3040430">
    <ele>9.7</ele>
    <time>2026-08-10T06:53:16Z</time>
   </trkpt>
   <trkpt lat="22.7587840" lon="120.3041050">
    <ele>9.7</ele>
    <time>2026-08-10T06:53:17Z</time>
   </trkpt>
   <trkpt lat="22.7587510" lon="120.3041830">
    <ele>9.7</ele>
    <time>2026-08-10T06:53:18Z</time>
   </trkpt>
   <trkpt lat="22.7587190" lon="120.3042560">
    <ele>9.7</ele>
    <time>2026-08-10T06:53:19Z</time>
   </trkpt>
   <trkpt lat="22.7586880" lon="120.3043250">
    <ele>9.7</ele>
    <time>2026-08-10T06:53:20Z</time>
   </trkpt>
   <trkpt lat="22.7586620" lon="120.3043890">
    <ele>9.7</ele>
    <time>2026-08-10T06:53:21Z</time>
   </trkpt>
   <trkpt lat="22.7586320" lon="120.3044490">
    <ele>9.8</ele>
    <time>2026-08-10T06:53:22Z</time>
   </trkpt>
   <trkpt lat="22.7586010" lon="120.3045080">
    <ele>9.8</ele>
    <time>2026-08-10T06:53:23Z</time>
   </trkpt>
   <trkpt lat="22.7585720" lon="120.3045610">
    <ele>9.9</ele>
    <time>2026-08-10T06:53:24Z</time>
   </trkpt>
   <trkpt lat="22.7585510" lon="120.3046100">
    <ele>9.9</ele>
    <time>2026-08-10T06:53:25Z</time>
   </trkpt>
   <trkpt lat="22.7585320" lon="120.3046540">
    <ele>10.0</ele>
    <time>2026-08-10T06:53:26Z</time>
   </trkpt>
   <trkpt lat="22.7585150" lon="120.3046930">
    <ele>10.0</ele>
    <time>2026-08-10T06:53:27Z</time>
   </trkpt>
   <trkpt lat="22.7585000" lon="120.3047300">
    <ele>10.0</ele>
    <time>2026-08-10T06:53:28Z</time>
   </trkpt>
   <trkpt lat="22.7584830" lon="120.3047540">
    <ele>10.0</ele>
    <time>2026-08-10T06:53:29Z</time>
   </trkpt>
   <trkpt lat="22.7584800" lon="120.3047640">
    <ele>10.0</ele>
    <time>2026-08-10T06:53:30Z</time>
   </trkpt>
   <trkpt lat="22.7584800" lon="120.3047650">
    <ele>10.0</ele>
    <time>2026-08-10T06:53:31Z</time>
   </trkpt>
   <trkpt lat="22.7584780" lon="120.3047610">
    <ele>10.0</ele>
    <time>2026-08-10T06:53:32Z</time>
   </trkpt>
   <trkpt lat="22.7584750" lon="120.3047650">
    <ele>10.0</ele>
    <time>2026-08-10T06:53:33Z</time>
   </trkpt>
   <trkpt lat="22.7584740" lon="120.3047640">
    <ele>10.0</ele>
    <time>2026-08-10T06:53:34Z</time>
   </trkpt>
   <trkpt lat="22.7584750" lon="120.3047640">
    <ele>10.0</ele>
    <time>2026-08-10T06:53:35Z</time>
   </trkpt>
   <trkpt lat="22.7584720" lon="120.3047620">
    <ele>10.0</ele>
    <time>2026-08-10T06:53:36Z</time>
   </trkpt>
   <trkpt lat="22.7584700" lon="120.3047620">
    <ele>10.0</ele>
    <time>2026-08-10T06:53:37Z</time>
   </trkpt>
   <trkpt lat="22.7584690" lon="120.3047630">
    <ele>10.0</ele>
    <time>2026-08-10T06:53:38Z</time>
   </trkpt>
   <trkpt lat="22.7584670" lon="120.3047640">
    <ele>10.0</ele>
    <time>2026-08-10T06:53:39Z</time>
   </trkpt>
   <trkpt lat="22.7584640" lon="120.3047630">
    <ele>10.0</ele>
    <time>2026-08-10T06:53:40Z</time>
   </trkpt>
   <trkpt lat="22.7584390" lon="120.3048070">
    <ele>10.0</ele>
    <time>2026-08-10T06:54:03Z</time>
   </trkpt>
   <trkpt lat="22.7584290" lon="120.3048310">
    <ele>10.0</ele>
    <time>2026-08-10T06:54:04Z</time>
   </trkpt>
   <trkpt lat="22.7584190" lon="120.3048570">
    <ele>10.0</ele>
    <time>2026-08-10T06:54:05Z</time>
   </trkpt>
   <trkpt lat="22.7584100" lon="120.3048800">
    <ele>10.0</ele>
    <time>2026-08-10T06:54:06Z</time>
   </trkpt>
   <trkpt lat="22.7584050" lon="120.3049040">
    <ele>10.0</ele>
    <time>2026-08-10T06:54:07Z</time>
   </trkpt>
   <trkpt lat="22.7584040" lon="120.3049250">
    <ele>10.0</ele>
    <time>2026-08-10T06:54:08Z</time>
   </trkpt>
   <trkpt lat="22.7584000" lon="120.3049390">
    <ele>10.0</ele>
    <time>2026-08-10T06:54:09Z</time>
   </trkpt>
   <trkpt lat="22.7584010" lon="120.3049520">
    <ele>10.0</ele>
    <time>2026-08-10T06:54:10Z</time>
   </trkpt>
   <trkpt lat="22.7584040" lon="120.3049580">
    <ele>10.0</ele>
    <time>2026-08-10T06:54:11Z</time>
   </trkpt>
   <trkpt lat="22.7584080" lon="120.3049660">
    <ele>9.9</ele>
    <time>2026-08-10T06:54:12Z</time>
   </trkpt>
   <trkpt lat="22.7584100" lon="120.3049680">
    <ele>9.9</ele>
    <time>2026-08-10T06:54:13Z</time>
   </trkpt>
   <trkpt lat="22.7584120" lon="120.3049720">
    <ele>9.9</ele>
    <time>2026-08-10T06:54:14Z</time>
   </trkpt>
   <trkpt lat="22.7584160" lon="120.3049740">
    <ele>9.9</ele>
    <time>2026-08-10T06:54:15Z</time>
   </trkpt>
   <trkpt lat="22.7584280" lon="120.3049880">
    <ele>9.9</ele>
    <time>2026-08-10T06:54:16Z</time>
   </trkpt>
   <trkpt lat="22.7584490" lon="120.3050010">
    <ele>10.0</ele>
    <time>2026-08-10T06:54:17Z</time>
   </trkpt>
   <trkpt lat="22.7584800" lon="120.3050090">
    <ele>10.0</ele>
    <time>2026-08-10T06:54:18Z</time>
   </trkpt>
   <trkpt lat="22.7585210" lon="120.3050100">
    <ele>10.0</ele>
    <time>2026-08-10T06:54:19Z</time>
   </trkpt>
   <trkpt lat="22.7585660" lon="120.3050010">
    <ele>10.0</ele>
    <time>2026-08-10T06:54:20Z</time>
   </trkpt>
   <trkpt lat="22.7586170" lon="120.3049940">
    <ele>10.0</ele>
    <time>2026-08-10T06:54:21Z</time>
   </trkpt>
   <trkpt lat="22.7586720" lon="120.3049870">
    <ele>10.0</ele>
    <time>2026-08-10T06:54:22Z</time>
   </trkpt>
   <trkpt lat="22.7587580" lon="120.3049650">
    <ele>10.0</ele>
    <time>2026-08-10T06:54:23Z</time>
   </trkpt>
   <trkpt lat="22.7588260" lon="120.3049440">
    <ele>10.1</ele>
    <time>2026-08-10T06:54:24Z</time>
   </trkpt>
   <trkpt lat="22.7588890" lon="120.3049370">
    <ele>10.1</ele>
    <time>2026-08-10T06:54:25Z</time>
   </trkpt>
   <trkpt lat="22.7589470" lon="120.3049290">
    <ele>10.1</ele>
    <time>2026-08-10T06:54:26Z</time>
   </trkpt>
   <trkpt lat="22.7590020" lon="120.3049200">
    <ele>10.1</ele>
    <time>2026-08-10T06:54:27Z</time>
   </trkpt>
   <trkpt lat="22.7590510" lon="120.3049160">
    <ele>10.1</ele>
    <time>2026-08-10T06:54:28Z</time>
   </trkpt>
   <trkpt lat="22.7590910" lon="120.3049120">
    <ele>10.1</ele>
    <time>2026-08-10T06:54:29Z</time>
   </trkpt>
   <trkpt lat="22.7591170" lon="120.3049150">
    <ele>10.1</ele>
    <time>2026-08-10T06:54:30Z</time>
   </trkpt>
   <trkpt lat="22.7591370" lon="120.3049310">
    <ele>10.1</ele>
    <time>2026-08-10T06:54:31Z</time>
   </trkpt>
   <trkpt lat="22.7591460" lon="120.3049300">
    <ele>10.1</ele>
    <time>2026-08-10T06:54:32Z</time>
   </trkpt>
   <trkpt lat="22.7591460" lon="120.3049300">
    <ele>10.1</ele>
    <time>2026-08-10T06:54:33Z</time>
   </trkpt>
   <trkpt lat="22.7591450" lon="120.3049280">
    <ele>10.1</ele>
    <time>2026-08-10T06:54:34Z</time>
   </trkpt>
   <trkpt lat="22.7591450" lon="120.3049270">
    <ele>10.1</ele>
    <time>2026-08-10T06:54:35Z</time>
   </trkpt>
   <trkpt lat="22.7591470" lon="120.3049290">
    <ele>10.1</ele>
    <time>2026-08-10T06:54:36Z</time>
   </trkpt>
   <trkpt lat="22.7591510" lon="120.3049290">
    <ele>10.1</ele>
    <time>2026-08-10T06:54:37Z</time>
   </trkpt>
   <trkpt lat="22.7591520" lon="120.3049400">
    <ele>10.1</ele>
    <time>2026-08-10T06:54:38Z</time>
   </trkpt>
   <trkpt lat="22.7591530" lon="120.3049330">
    <ele>10.1</ele>
    <time>2026-08-10T06:54:39Z</time>
   </trkpt>
   <trkpt lat="22.7591520" lon="120.3049280">
    <ele>10.1</ele>
    <time>2026-08-10T06:54:40Z</time>
   </trkpt>
   <trkpt lat="22.7591520" lon="120.3049280">
    <ele>10.1</ele>
    <time>2026-08-10T06:54:41Z</time>
   </trkpt>
   <trkpt lat="22.7591520" lon="120.3049280">
    <ele>10.1</ele>
    <time>2026-08-10T06:54:42Z</time>
   </trkpt>
   <trkpt lat="22.7591720" lon="120.3049270">
    <ele>10.1</ele>
    <time>2026-08-10T06:54:47Z</time>
   </trkpt>
   <trkpt lat="22.7591690" lon="120.3049140">
    <ele>10.1</ele>
    <time>2026-08-10T06:54:48Z</time>
   </trkpt>
   <trkpt lat="22.7591610" lon="120.3049090">
    <ele>10.1</ele>
    <time>2026-08-10T06:54:49Z</time>
   </trkpt>
   <trkpt lat="22.7591650" lon="120.3049140">
    <ele>10.1</ele>
    <time>2026-08-10T06:54:50Z</time>
   </trkpt>
   <trkpt lat="22.7591610" lon="120.3049090">
    <ele>10.1</ele>
    <time>2026-08-10T06:54:51Z</time>
   </trkpt>
   <trkpt lat="22.7591680" lon="120.3049060">
    <ele>10.1</ele>
    <time>2026-08-10T06:54:52Z</time>
   </trkpt>
   <trkpt lat="22.7591650" lon="120.3049040">
    <ele>10.1</ele>
    <time>2026-08-10T06:54:53Z</time>
   </trkpt>
   <trkpt lat="22.7591620" lon="120.3048970">
    <ele>10.1</ele>
    <time>2026-08-10T06:54:54Z</time>
   </trkpt>
   <trkpt lat="22.7591590" lon="120.3048940">
    <ele>10.1</ele>
    <time>2026-08-10T06:54:55Z</time>
   </trkpt>
   <trkpt lat="22.7591630" lon="120.3049000">
    <ele>10.1</ele>
    <time>2026-08-10T06:54:56Z</time>
   </trkpt>
   <trkpt lat="22.7592370" lon="120.3049310">
    <ele>10.1</ele>
    <time>2026-08-10T06:55:03Z</time>
   </trkpt>
   <trkpt lat="22.7592630" lon="120.3049500">
    <ele>10.1</ele>
    <time>2026-08-10T06:55:04Z</time>
   </trkpt>
   <trkpt lat="22.7592650" lon="120.3049260">
    <ele>10.1</ele>
    <time>2026-08-10T06:55:05Z</time>
   </trkpt>
   <trkpt lat="22.7592670" lon="120.3049020">
    <ele>10.1</ele>
    <time>2026-08-10T06:55:06Z</time>
   </trkpt>
   <trkpt lat="22.7592690" lon="120.3048780">
    <ele>10.1</ele>
    <time>2026-08-10T06:55:07Z</time>
   </trkpt>
   <trkpt lat="22.7592870" lon="120.3048820">
    <ele>10.1</ele>
    <time>2026-08-10T06:55:08Z</time>
   </trkpt>
   <trkpt lat="22.7593040" lon="120.3048830">
    <ele>10.1</ele>
    <time>2026-08-10T06:55:09Z</time>
   </trkpt>
   <trkpt lat="22.7593040" lon="120.3048770">
    <ele>10.1</ele>
    <time>2026-08-10T06:55:10Z</time>
   </trkpt>
   <trkpt lat="22.7593150" lon="120.3048740">
    <ele>10.1</ele>
    <time>2026-08-10T06:55:11Z</time>
   </trkpt>
   <trkpt lat="22.7592980" lon="120.3048650">
    <ele>10.1</ele>
    <time>2026-08-10T06:55:12Z</time>
   </trkpt>
   <trkpt lat="22.7593410" lon="120.3048640">
    <ele>10.1</ele>
    <time>2026-08-10T06:55:13Z</time>
   </trkpt>
   <trkpt lat="22.7593450" lon="120.3048260">
    <ele>10.1</ele>
    <time>2026-08-10T06:55:14Z</time>
   </trkpt>
   <trkpt lat="22.7593150" lon="120.3048550">
    <ele>10.1</ele>
    <time>2026-08-10T06:55:15Z</time>
   </trkpt>
   <trkpt lat="22.7592850" lon="120.3048270">
    <ele>10.1</ele>
    <time>2026-08-10T06:55:16Z</time>
   </trkpt>
   <trkpt lat="22.7592690" lon="120.3048430">
    <ele>10.1</ele>
    <time>2026-08-10T06:55:17Z</time>
   </trkpt>
   <trkpt lat="22.7592710" lon="120.3048560">
    <ele>10.1</ele>
    <time>2026-08-10T06:55:18Z</time>
   </trkpt>
   <trkpt lat="22.7592600" lon="120.3048710">
    <ele>10.1</ele>
    <time>2026-08-10T06:55:19Z</time>
   </trkpt>
   <trkpt lat="22.7592650" lon="120.3048620">
    <ele>10.1</ele>
    <time>2026-08-10T06:55:21Z</time>
   </trkpt>
   <trkpt lat="22.7592580" lon="120.3048740">
    <ele>10.1</ele>
    <time>2026-08-10T06:55:22Z</time>
   </trkpt>
   <trkpt lat="22.7592640" lon="120.3048620">
    <ele>10.1</ele>
    <time>2026-08-10T06:55:23Z</time>
   </trkpt>
   <trkpt lat="22.7592510" lon="120.3048780">
    <ele>10.1</ele>
    <time>2026-08-10T06:55:24Z</time>
   </trkpt>
   <trkpt lat="22.7592650" lon="120.3048530">
    <ele>10.1</ele>
    <time>2026-08-10T06:55:42Z</time>
   </trkpt>
   <trkpt lat="22.7592600" lon="120.3048640">
    <ele>10.1</ele>
    <time>2026-08-10T06:55:43Z</time>
   </trkpt>
   <trkpt lat="22.7592660" lon="120.3048570">
    <ele>10.1</ele>
    <time>2026-08-10T06:55:44Z</time>
   </trkpt>
   <trkpt lat="22.7592950" lon="120.3048660">
    <ele>10.1</ele>
    <time>2026-08-10T06:55:45Z</time>
   </trkpt>
   <trkpt lat="22.7592950" lon="120.3048560">
    <ele>10.1</ele>
    <time>2026-08-10T06:55:46Z</time>
   </trkpt>
   <trkpt lat="22.7592770" lon="120.3048510">
    <ele>10.1</ele>
    <time>2026-08-10T06:55:47Z</time>
   </trkpt>
   <trkpt lat="22.7592820" lon="120.3048570">
    <ele>10.1</ele>
    <time>2026-08-10T06:55:48Z</time>
   </trkpt>
   <trkpt lat="22.7592600" lon="120.3048920">
    <ele>10.1</ele>
    <time>2026-08-10T06:55:49Z</time>
   </trkpt>
   <trkpt lat="22.7592780" lon="120.3048600">
    <ele>10.1</ele>
    <time>2026-08-10T06:55:50Z</time>
   </trkpt>
   <trkpt lat="22.7592950" lon="120.3048290">
    <ele>10.1</ele>
    <time>2026-08-10T06:55:51Z</time>
   </trkpt>
   <trkpt lat="22.7592850" lon="120.3047950">
    <ele>10.1</ele>
    <time>2026-08-10T06:55:52Z</time>
   </trkpt>
   <trkpt lat="22.7592740" lon="120.3047600">
    <ele>10.1</ele>
    <time>2026-08-10T06:55:53Z</time>
   </trkpt>
   <trkpt lat="22.7592680" lon="120.3047740">
    <ele>10.1</ele>
    <time>2026-08-10T06:55:54Z</time>
   </trkpt>
   <trkpt lat="22.7592700" lon="120.3047730">
    <ele>10.1</ele>
    <time>2026-08-10T06:55:55Z</time>
   </trkpt>
   <trkpt lat="22.7592770" lon="120.3047910">
    <ele>10.1</ele>
    <time>2026-08-10T06:55:56Z</time>
   </trkpt>
   <trkpt lat="22.7592800" lon="120.3047930">
    <ele>10.1</ele>
    <time>2026-08-10T06:55:57Z</time>
   </trkpt>
   <trkpt lat="22.7592840" lon="120.3047890">
    <ele>10.1</ele>
    <time>2026-08-10T06:55:58Z</time>
   </trkpt>
   <trkpt lat="22.7592840" lon="120.3047890">
    <ele>10.1</ele>
    <time>2026-08-10T06:55:59Z</time>
   </trkpt>
   <trkpt lat="22.7592810" lon="120.3047950">
    <ele>10.1</ele>
    <time>2026-08-10T06:56:00Z</time>
   </trkpt>
   <trkpt lat="22.7592800" lon="120.3047950">
    <ele>10.1</ele>
    <time>2026-08-10T06:56:01Z</time>
   </trkpt>
   <trkpt lat="22.7592800" lon="120.3047950">
    <ele>10.1</ele>
    <time>2026-08-10T06:56:02Z</time>
   </trkpt>
   <trkpt lat="22.7592540" lon="120.3048180">
    <ele>10.1</ele>
    <time>2026-08-10T06:56:03Z</time>
   </trkpt>
   <trkpt lat="22.7592490" lon="120.3048220">
    <ele>10.1</ele>
    <time>2026-08-10T06:56:04Z</time>
   </trkpt>
   <trkpt lat="22.7593120" lon="120.3048350">
    <ele>10.1</ele>
    <time>2026-08-10T06:56:20Z</time>
   </trkpt>
   <trkpt lat="22.7593180" lon="120.3048460">
    <ele>10.1</ele>
    <time>2026-08-10T06:56:21Z</time>
   </trkpt>
   <trkpt lat="22.7593440" lon="120.3048680">
    <ele>10.1</ele>
    <time>2026-08-10T06:56:22Z</time>
   </trkpt>
   <trkpt lat="22.7592060" lon="120.3048830">
    <ele>10.1</ele>
    <time>2026-08-10T06:56:23Z</time>
   </trkpt>
   <trkpt lat="22.7591810" lon="120.3047610">
    <ele>10.1</ele>
    <time>2026-08-10T06:56:24Z</time>
   </trkpt>
   <trkpt lat="22.7592150" lon="120.3048030">
    <ele>10.1</ele>
    <time>2026-08-10T06:56:25Z</time>
   </trkpt>
   <trkpt lat="22.7592370" lon="120.3048180">
    <ele>10.1</ele>
    <time>2026-08-10T06:56:26Z</time>
   </trkpt>
   <trkpt lat="22.7592230" lon="120.3048300">
    <ele>10.1</ele>
    <time>2026-08-10T06:56:27Z</time>
   </trkpt>
   <trkpt lat="22.7592010" lon="120.3048210">
    <ele>10.1</ele>
    <time>2026-08-10T06:56:28Z</time>
   </trkpt>
   <trkpt lat="22.7592000" lon="120.3048160">
    <ele>10.1</ele>
    <time>2026-08-10T06:56:29Z</time>
   </trkpt>
   <trkpt lat="22.7592000" lon="120.3048090">
    <ele>10.1</ele>
    <time>2026-08-10T06:56:30Z</time>
   </trkpt>
   <trkpt lat="22.7591600" lon="120.3047990">
    <ele>10.1</ele>
    <time>2026-08-10T06:56:31Z</time>
   </trkpt>
   <trkpt lat="22.7591650" lon="120.3047790">
    <ele>10.1</ele>
    <time>2026-08-10T06:56:32Z</time>
   </trkpt>
   <trkpt lat="22.7591680" lon="120.3047900">
    <ele>10.1</ele>
    <time>2026-08-10T06:56:33Z</time>
   </trkpt>
   <trkpt lat="22.7591500" lon="120.3047820">
    <ele>10.1</ele>
    <time>2026-08-10T06:56:34Z</time>
   </trkpt>
   <trkpt lat="22.7591460" lon="120.3047890">
    <ele>10.1</ele>
    <time>2026-08-10T06:56:35Z</time>
   </trkpt>
   <trkpt lat="22.7591410" lon="120.3047980">
    <ele>10.1</ele>
    <time>2026-08-10T06:56:36Z</time>
   </trkpt>
   <trkpt lat="22.7591350" lon="120.3048030">
    <ele>10.1</ele>
    <time>2026-08-10T06:56:37Z</time>
   </trkpt>
   <trkpt lat="22.7591390" lon="120.3048070">
    <ele>10.1</ele>
    <time>2026-08-10T06:56:38Z</time>
   </trkpt>
   <trkpt lat="22.7591390" lon="120.3048290">
    <ele>10.1</ele>
    <time>2026-08-10T06:56:39Z</time>
   </trkpt>
   <trkpt lat="22.7591420" lon="120.3048470">
    <ele>10.1</ele>
    <time>2026-08-10T06:56:40Z</time>
   </trkpt>
   <trkpt lat="22.7591450" lon="120.3048560">
    <ele>10.1</ele>
    <time>2026-08-10T06:56:41Z</time>
   </trkpt>
   <trkpt lat="22.7591450" lon="120.3048560">
    <ele>10.1</ele>
    <time>2026-08-10T06:56:42Z</time>
   </trkpt>
   <trkpt lat="22.7591510" lon="120.3048760">
    <ele>10.1</ele>
    <time>2026-08-10T06:56:43Z</time>
   </trkpt>
   <trkpt lat="22.7591500" lon="120.3048790">
    <ele>10.1</ele>
    <time>2026-08-10T06:56:44Z</time>
   </trkpt>
   <trkpt lat="22.7591540" lon="120.3048850">
    <ele>10.1</ele>
    <time>2026-08-10T06:56:45Z</time>
   </trkpt>
   <trkpt lat="22.7591560" lon="120.3048870">
    <ele>10.1</ele>
    <time>2026-08-10T06:56:46Z</time>
   </trkpt>
   <trkpt lat="22.7592240" lon="120.3048630">
    <ele>10.2</ele>
    <time>2026-08-10T06:57:51Z</time>
   </trkpt>
   <trkpt lat="22.7592550" lon="120.3048520">
    <ele>10.2</ele>
    <time>2026-08-10T06:57:52Z</time>
   </trkpt>
   <trkpt lat="22.7592980" lon="120.3048450">
    <ele>10.2</ele>
    <time>2026-08-10T06:57:53Z</time>
   </trkpt>
   <trkpt lat="22.7593540" lon="120.3048390">
    <ele>10.2</ele>
    <time>2026-08-10T06:57:54Z</time>
   </trkpt>
   <trkpt lat="22.7594130" lon="120.3048400">
    <ele>10.2</ele>
    <time>2026-08-10T06:57:55Z</time>
   </trkpt>
   <trkpt lat="22.7594830" lon="120.3048360">
    <ele>10.2</ele>
    <time>2026-08-10T06:57:56Z</time>
   </trkpt>
   <trkpt lat="22.7595580" lon="120.3048260">
    <ele>10.3</ele>
    <time>2026-08-10T06:57:57Z</time>
   </trkpt>
   <trkpt lat="22.7596280" lon="120.3048120">
    <ele>10.3</ele>
    <time>2026-08-10T06:57:58Z</time>
   </trkpt>
   <trkpt lat="22.7597050" lon="120.3047930">
    <ele>10.3</ele>
    <time>2026-08-10T06:57:59Z</time>
   </trkpt>
   <trkpt lat="22.7597800" lon="120.3047860">
    <ele>10.4</ele>
    <time>2026-08-10T06:58:00Z</time>
   </trkpt>
   <trkpt lat="22.7598470" lon="120.3047710">
    <ele>10.4</ele>
    <time>2026-08-10T06:58:01Z</time>
   </trkpt>
   <trkpt lat="22.7599120" lon="120.3047570">
    <ele>10.4</ele>
    <time>2026-08-10T06:58:02Z</time>
   </trkpt>
   <trkpt lat="22.7599770" lon="120.3047400">
    <ele>10.4</ele>
    <time>2026-08-10T06:58:03Z</time>
   </trkpt>
   <trkpt lat="22.7600380" lon="120.3047230">
    <ele>10.4</ele>
    <time>2026-08-10T06:58:04Z</time>
   </trkpt>
   <trkpt lat="22.7600920" lon="120.3047110">
    <ele>10.4</ele>
    <time>2026-08-10T06:58:05Z</time>
   </trkpt>
   <trkpt lat="22.7601320" lon="120.3046940">
    <ele>10.4</ele>
    <time>2026-08-10T06:58:06Z</time>
   </trkpt>
   <trkpt lat="22.7601480" lon="120.3046520">
    <ele>10.4</ele>
    <time>2026-08-10T06:58:07Z</time>
   </trkpt>
   <trkpt lat="22.7601470" lon="120.3046110">
    <ele>9.5</ele>
    <time>2026-08-10T06:58:08Z</time>
   </trkpt>
   <trkpt lat="22.7601360" lon="120.3045670">
    <ele>8.5</ele>
    <time>2026-08-10T06:58:09Z</time>
   </trkpt>
   <trkpt lat="22.7601080" lon="120.3045480">
    <ele>7.7</ele>
    <time>2026-08-10T06:58:10Z</time>
   </trkpt>
   <trkpt lat="22.7601070" lon="120.3045130">
    <ele>6.9</ele>
    <time>2026-08-10T06:58:11Z</time>
   </trkpt>
   <trkpt lat="22.7601210" lon="120.3044790">
    <ele>6.1</ele>
    <time>2026-08-10T06:58:12Z</time>
   </trkpt>
   <trkpt lat="22.7601650" lon="120.3044280">
    <ele>6.3</ele>
    <time>2026-08-10T06:58:13Z</time>
   </trkpt>
   <trkpt lat="22.7601950" lon="120.3043930">
    <ele>6.4</ele>
    <time>2026-08-10T06:58:14Z</time>
   </trkpt>
   <trkpt lat="22.7602250" lon="120.3043590">
    <ele>6.4</ele>
    <time>2026-08-10T06:58:15Z</time>
   </trkpt>
   <trkpt lat="22.7602540" lon="120.3043280">
    <ele>6.5</ele>
    <time>2026-08-10T06:58:16Z</time>
   </trkpt>
   <trkpt lat="22.7602820" lon="120.3043060">
    <ele>6.5</ele>
    <time>2026-08-10T06:58:17Z</time>
   </trkpt>
   <trkpt lat="22.7602990" lon="120.3042900">
    <ele>6.6</ele>
    <time>2026-08-10T06:58:18Z</time>
   </trkpt>
   <trkpt lat="22.7603190" lon="120.3042740">
    <ele>6.6</ele>
    <time>2026-08-10T06:58:19Z</time>
   </trkpt>
   <trkpt lat="22.7603330" lon="120.3042610">
    <ele>6.6</ele>
    <time>2026-08-10T06:58:20Z</time>
   </trkpt>
   <trkpt lat="22.7603410" lon="120.3042480">
    <ele>6.6</ele>
    <time>2026-08-10T06:58:21Z</time>
   </trkpt>
   <trkpt lat="22.7603500" lon="120.3042440">
    <ele>6.7</ele>
    <time>2026-08-10T06:58:22Z</time>
   </trkpt>
   <trkpt lat="22.7603540" lon="120.3042350">
    <ele>6.7</ele>
    <time>2026-08-10T06:58:23Z</time>
   </trkpt>
   <trkpt lat="22.7603540" lon="120.3042310">
    <ele>6.7</ele>
    <time>2026-08-10T06:58:24Z</time>
   </trkpt>
   <trkpt lat="22.7603540" lon="120.3042350">
    <ele>6.7</ele>
    <time>2026-08-10T06:58:25Z</time>
   </trkpt>
   <trkpt lat="22.7603520" lon="120.3042350">
    <ele>6.7</ele>
    <time>2026-08-10T06:58:26Z</time>
   </trkpt>
   <trkpt lat="22.7603520" lon="120.3042380">
    <ele>6.7</ele>
    <time>2026-08-10T06:58:27Z</time>
   </trkpt>
   <trkpt lat="22.7603540" lon="120.3042390">
    <ele>6.7</ele>
    <time>2026-08-10T06:58:28Z</time>
   </trkpt>
   <trkpt lat="22.7603510" lon="120.3042380">
    <ele>6.7</ele>
    <time>2026-08-10T06:58:29Z</time>
   </trkpt>
   <trkpt lat="22.7603490" lon="120.3042360">
    <ele>6.7</ele>
    <time>2026-08-10T06:58:30Z</time>
   </trkpt>
   <trkpt lat="22.7603490" lon="120.3042480">
    <ele>6.7</ele>
    <time>2026-08-10T06:58:31Z</time>
   </trkpt>
   <trkpt lat="22.7603480" lon="120.3042450">
    <ele>6.7</ele>
    <time>2026-08-10T06:58:32Z</time>
   </trkpt>
   <trkpt lat="22.7603430" lon="120.3042440">
    <ele>6.7</ele>
    <time>2026-08-10T06:58:33Z</time>
   </trkpt>
   <trkpt lat="22.7603060" lon="120.3042990">
    <ele>6.8</ele>
    <time>2026-08-10T06:58:38Z</time>
   </trkpt>
   <trkpt lat="22.7603010" lon="120.3043100">
    <ele>6.8</ele>
    <time>2026-08-10T06:58:39Z</time>
   </trkpt>
   <trkpt lat="22.7602990" lon="120.3043280">
    <ele>6.8</ele>
    <time>2026-08-10T06:58:40Z</time>
   </trkpt>
   <trkpt lat="22.7602940" lon="120.3043460">
    <ele>6.9</ele>
    <time>2026-08-10T06:58:41Z</time>
   </trkpt>
   <trkpt lat="22.7602850" lon="120.3043510">
    <ele>6.9</ele>
    <time>2026-08-10T06:58:42Z</time>
   </trkpt>
   <trkpt lat="22.7602770" lon="120.3043680">
    <ele>6.9</ele>
    <time>2026-08-10T06:58:43Z</time>
   </trkpt>
   <trkpt lat="22.7602750" lon="120.3043710">
    <ele>6.9</ele>
    <time>2026-08-10T06:58:44Z</time>
   </trkpt>
   <trkpt lat="22.7602730" lon="120.3043790">
    <ele>6.9</ele>
    <time>2026-08-10T06:58:45Z</time>
   </trkpt>
   <trkpt lat="22.7602620" lon="120.3043840">
    <ele>6.9</ele>
    <time>2026-08-10T06:58:46Z</time>
   </trkpt>
   <trkpt lat="22.7602490" lon="120.3043960">
    <ele>6.9</ele>
    <time>2026-08-10T06:58:47Z</time>
   </trkpt>
   <trkpt lat="22.7602390" lon="120.3043990">
    <ele>7.0</ele>
    <time>2026-08-10T06:58:48Z</time>
   </trkpt>
   <trkpt lat="22.7602380" lon="120.3043980">
    <ele>7.0</ele>
    <time>2026-08-10T06:58:49Z</time>
   </trkpt>
   <trkpt lat="22.7602410" lon="120.3044020">
    <ele>7.0</ele>
    <time>2026-08-10T06:58:50Z</time>
   </trkpt>
   <trkpt lat="22.7602450" lon="120.3044010">
    <ele>7.0</ele>
    <time>2026-08-10T06:58:51Z</time>
   </trkpt>
   <trkpt lat="22.7602450" lon="120.3044000">
    <ele>7.0</ele>
    <time>2026-08-10T06:58:52Z</time>
   </trkpt>
   <trkpt lat="22.7602450" lon="120.3044000">
    <ele>7.0</ele>
    <time>2026-08-10T06:58:53Z</time>
   </trkpt>
   <trkpt lat="22.7602500" lon="120.3044000">
    <ele>7.0</ele>
    <time>2026-08-10T06:58:54Z</time>
   </trkpt>
   <trkpt lat="22.7602510" lon="120.3043950">
    <ele>7.0</ele>
    <time>2026-08-10T06:58:55Z</time>
   </trkpt>
   <trkpt lat="22.7602550" lon="120.3043790">
    <ele>7.0</ele>
    <time>2026-08-10T06:58:56Z</time>
   </trkpt>
   <trkpt lat="22.7602590" lon="120.3043680">
    <ele>7.0</ele>
    <time>2026-08-10T06:58:57Z</time>
   </trkpt>
   <trkpt lat="22.7602670" lon="120.3043510">
    <ele>7.0</ele>
    <time>2026-08-10T06:58:58Z</time>
   </trkpt>
   <trkpt lat="22.7602790" lon="120.3043480">
    <ele>7.1</ele>
    <time>2026-08-10T06:58:59Z</time>
   </trkpt>
   <trkpt lat="22.7602770" lon="120.3043400">
    <ele>7.1</ele>
    <time>2026-08-10T06:59:00Z</time>
   </trkpt>
   <trkpt lat="22.7602930" lon="120.3043390">
    <ele>7.1</ele>
    <time>2026-08-10T06:59:01Z</time>
   </trkpt>
   <trkpt lat="22.7603020" lon="120.3043260">
    <ele>7.1</ele>
    <time>2026-08-10T06:59:02Z</time>
   </trkpt>
   <trkpt lat="22.7603130" lon="120.3043150">
    <ele>7.1</ele>
    <time>2026-08-10T06:59:03Z</time>
   </trkpt>
   <trkpt lat="22.7603250" lon="120.3043050">
    <ele>7.1</ele>
    <time>2026-08-10T06:59:04Z</time>
   </trkpt>
   <trkpt lat="22.7603340" lon="120.3043040">
    <ele>7.2</ele>
    <time>2026-08-10T06:59:05Z</time>
   </trkpt>
   <trkpt lat="22.7603410" lon="120.3043010">
    <ele>7.2</ele>
    <time>2026-08-10T06:59:06Z</time>
   </trkpt>
   <trkpt lat="22.7603420" lon="120.3042950">
    <ele>7.2</ele>
    <time>2026-08-10T06:59:07Z</time>
   </trkpt>
   <trkpt lat="22.7603410" lon="120.3042860">
    <ele>7.2</ele>
    <time>2026-08-10T06:59:08Z</time>
   </trkpt>
   <trkpt lat="22.7603370" lon="120.3042840">
    <ele>7.2</ele>
    <time>2026-08-10T06:59:09Z</time>
   </trkpt>
   <trkpt lat="22.7603340" lon="120.3042810">
    <ele>7.2</ele>
    <time>2026-08-10T06:59:10Z</time>
   </trkpt>
   <trkpt lat="22.7603340" lon="120.3042790">
    <ele>7.2</ele>
    <time>2026-08-10T06:59:11Z</time>
   </trkpt>
   <trkpt lat="22.7603340" lon="120.3042780">
    <ele>7.2</ele>
    <time>2026-08-10T06:59:12Z</time>
   </trkpt>
   <trkpt lat="22.7603370" lon="120.3042760">
    <ele>7.2</ele>
    <time>2026-08-10T06:59:13Z</time>
   </trkpt>
   <trkpt lat="22.7603360" lon="120.3042760">
    <ele>7.2</ele>
    <time>2026-08-10T06:59:14Z</time>
   </trkpt>
   <trkpt lat="22.7603380" lon="120.3042730">
    <ele>7.2</ele>
    <time>2026-08-10T06:59:15Z</time>
   </trkpt>
   <trkpt lat="22.7603370" lon="120.3042730">
    <ele>7.2</ele>
    <time>2026-08-10T06:59:16Z</time>
   </trkpt>
   <trkpt lat="22.7603530" lon="120.3042360">
    <ele>7.3</ele>
    <time>2026-08-10T06:59:43Z</time>
   </trkpt>
   <trkpt lat="22.7603630" lon="120.3042390">
    <ele>7.3</ele>
    <time>2026-08-10T06:59:44Z</time>
   </trkpt>
   <trkpt lat="22.7603550" lon="120.3042570">
    <ele>7.3</ele>
    <time>2026-08-10T06:59:46Z</time>
   </trkpt>
   <trkpt lat="22.7603520" lon="120.3042530">
    <ele>7.3</ele>
    <time>2026-08-10T06:59:47Z</time>
   </trkpt>
   <trkpt lat="22.7603500" lon="120.3042590">
    <ele>7.3</ele>
    <time>2026-08-10T06:59:48Z</time>
   </trkpt>
   <trkpt lat="22.7603440" lon="120.3042590">
    <ele>7.3</ele>
    <time>2026-08-10T06:59:49Z</time>
   </trkpt>
   <trkpt lat="22.7603380" lon="120.3042590">
    <ele>7.3</ele>
    <time>2026-08-10T06:59:50Z</time>
   </trkpt>
   <trkpt lat="22.7603370" lon="120.3042640">
    <ele>7.3</ele>
    <time>2026-08-10T06:59:51Z</time>
   </trkpt>
   <trkpt lat="22.7603350" lon="120.3042650">
    <ele>7.3</ele>
    <time>2026-08-10T06:59:52Z</time>
   </trkpt>
   <trkpt lat="22.7603380" lon="120.3042630">
    <ele>7.3</ele>
    <time>2026-08-10T06:59:53Z</time>
   </trkpt>
   <trkpt lat="22.7603360" lon="120.3042660">
    <ele>7.3</ele>
    <time>2026-08-10T06:59:54Z</time>
   </trkpt>
  </trkseg>
 </trk>
</gpx>
