<?xml version="1.0" encoding="UTF-8"?>
<gpx creator="StravaGPX" version="1.1" xmlns="http://www.topografix.com/GPX/1/1" xmlns:xsi="http://www.w3.org/2001/XMLSchema-instance" xsi:schemaLocation="http://www.topografix.com/GPX/1/1 http://www.topografix.com/GPX/1/1/gpx.xsd">
 <metadata>
  <time>2026-08-12T14:03:44Z</time>
 </metadata>
 <trk>
  <name>晚間電動自行車騎乘</name>
  <type>ebikeride</type>
  <trkseg>
   <trkpt lat="22.7261790" lon="120.3204630">
    <ele>10.9</ele>
    <time>2026-08-12T14:03:44Z</time>
   </trkpt>
   <trkpt lat="22.7261710" lon="120.3204750">
    <ele>11.0</ele>
    <time>2026-08-12T14:03:45Z</time>
   </trkpt>
   <trkpt lat="22.7261680" lon="120.3204770">
    <ele>11.0</ele>
    <time>2026-08-12T14:03:46Z</time>
   </trkpt>
   <trkpt lat="22.7261680" lon="120.3204670">
    <ele>11.0</ele>
    <time>2026-08-12T14:03:47Z</time>
   </trkpt>
   <trkpt lat="22.7261730" lon="120.3204650">
    <ele>11.0</ele>
    <time>2026-08-12T14:03:48Z</time>
   </trkpt>
   <trkpt lat="22.7261810" lon="120.3204620">
    <ele>11.0</ele>
    <time>2026-08-12T14:03:49Z</time>
   </trkpt>
   <trkpt lat="22.7261970" lon="120.3204480">
    <ele>11.1</ele>
    <time>2026-08-12T14:03:50Z</time>
   </trkpt>
   <trkpt lat="22.7262160" lon="120.3204190">
    <ele>11.1</ele>
    <time>2026-08-12T14:03:51Z</time>
   </trkpt>
   <trkpt lat="22.7262460" lon="120.3203910">
    <ele>11.2</ele>
    <time>2026-08-12T14:03:52Z</time>
   </trkpt>
   <trkpt lat="22.7262650" lon="120.3203680">
    <ele>11.3</ele>
    <time>2026-08-12T14:03:53Z</time>
   </trkpt>
   <trkpt lat="22.7263060" lon="120.3203220">
    <ele>11.4</ele>
    <time>2026-08-12T14:03:54Z</time>
   </trkpt>
   <trkpt lat="22.7263540" lon="120.3202540">
    <ele>11.7</ele>
    <time>2026-08-12T14:03:55Z</time>
   </trkpt>
   <trkpt lat="22.7263980" lon="120.3202040">
    <ele>12.0</ele>
    <time>2026-08-12T14:03:56Z</time>
   </trkpt>
   <trkpt lat="22.7264660" lon="120.3201490">
    <ele>12.4</ele>
    <time>2026-08-12T14:03:57Z</time>
   </trkpt>
   <trkpt lat="22.7265240" lon="120.3200860">
    <ele>12.9</ele>
    <time>2026-08-12T14:03:58Z</time>
   </trkpt>
   <trkpt lat="22.7265730" lon="120.3200300">
    <ele>13.3</ele>
    <time>2026-08-12T14:03:59Z</time>
   </trkpt>
   <trkpt lat="22.7266100" lon="120.3199780">
    <ele>13.7</ele>
    <time>2026-08-12T14:04:00Z</time>
   </trkpt>
   <trkpt lat="22.7266420" lon="120.3199190">
    <ele>14.2</ele>
    <time>2026-08-12T14:04:01Z</time>
   </trkpt>
   <trkpt lat="22.7266730" lon="120.3198700">
    <ele>14.7</ele>
    <time>2026-08-12T14:04:02Z</time>
   </trkpt>
   <trkpt lat="22.7266730" lon="120.3198500">
    <ele>14.7</ele>
    <time>2026-08-12T14:04:03Z</time>
   </trkpt>
   <trkpt lat="22.7266760" lon="120.3198450">
    <ele>14.6</ele>
    <time>2026-08-12T14:04:04Z</time>
   </trkpt>
   <trkpt lat="22.7266730" lon="120.3198240">
    <ele>14.6</ele>
    <time>2026-08-12T14:04:05Z</time>
   </trkpt>
   <trkpt lat="22.7266490" lon="120.3198060">
    <ele>14.5</ele>
    <time>2026-08-12T14:04:06Z</time>
   </trkpt>
   <trkpt lat="22.7266080" lon="120.3197870">
    <ele>14.3</ele>
    <time>2026-08-12T14:04:07Z</time>
   </trkpt>
   <trkpt lat="22.7265840" lon="120.3197490">
    <ele>14.1</ele>
    <time>2026-08-12T14:04:08Z</time>
   </trkpt>
   <trkpt lat="22.7265930" lon="120.3196980">
    <ele>13.8</ele>
    <time>2026-08-12T14:04:09Z</time>
   </trkpt>
   <trkpt lat="22.7266300" lon="120.3196450">
    <ele>13.4</ele>
    <time>2026-08-12T14:04:10Z</time>
   </trkpt>
   <trkpt lat="22.7266590" lon="120.3195990">
    <ele>13.1</ele>
    <time>2026-08-12T14:04:11Z</time>
   </trkpt>
   <trkpt lat="22.7266900" lon="120.3195200">
    <ele>12.8</ele>
    <time>2026-08-12T14:04:12Z</time>
   </trkpt>
   <trkpt lat="22.7267480" lon="120.3194360">
    <ele>12.5</ele>
    <time>2026-08-12T14:04:13Z</time>
   </trkpt>
   <trkpt lat="22.7267880" lon="120.3193510">
    <ele>12.4</ele>
    <time>2026-08-12T14:04:14Z</time>
   </trkpt>
   <trkpt lat="22.7268320" lon="120.3192700">
    <ele>12.2</ele>
    <time>2026-08-12T14:04:15Z</time>
   </trkpt>
   <trkpt lat="22.7268820" lon="120.3191920">
    <ele>12.1</ele>
    <time>2026-08-12T14:04:16Z</time>
   </trkpt>
   <trkpt lat="22.7269300" lon="120.3191150">
    <ele>11.9</ele>
    <time>2026-08-12T14:04:17Z</time>
   </trkpt>
   <trkpt lat="22.7269780" lon="120.3190540">
    <ele>11.8</ele>
    <time>2026-08-12T14:04:18Z</time>
   </trkpt>
   <trkpt lat="22.7270290" lon="120.3190010">
    <ele>11.6</ele>
    <time>2026-08-12T14:04:19Z</time>
   </trkpt>
   <trkpt lat="22.7270830" lon="120.3189310">
    <ele>11.4</ele>
    <time>2026-08-12T14:04:20Z</time>
   </trkpt>
   <trkpt lat="22.7271390" lon="120.3188670">
    <ele>11.3</ele>
    <time>2026-08-12T14:04:21Z</time>
   </trkpt>
   <trkpt lat="22.7271820" lon="120.3188080">
    <ele>11.2</ele>
    <time>2026-08-12T14:04:22Z</time>
   </trkpt>
   <trkpt lat="22.7272240" lon="120.3187620">
    <ele>11.2</ele>
    <time>2026-08-12T14:04:23Z</time>
   </trkpt>
   <trkpt lat="22.7272690" lon="120.3187050">
    <ele>11.1</ele>
    <time>2026-08-12T14:04:24Z</time>
   </trkpt>
   <trkpt lat="22.7273190" lon="120.3186380">
    <ele>11.0</ele>
    <time>2026-08-12T14:04:25Z</time>
   </trkpt>
   <trkpt lat="22.7273750" lon="120.3185700">
    <ele>10.9</ele>
    <time>2026-08-12T14:04:26Z</time>
   </trkpt>
   <trkpt lat="22.7274370" lon="120.3184980">
    <ele>10.8</ele>
    <time>2026-08-12T14:04:27Z</time>
   </trkpt>
   <trkpt lat="22.7274910" lon="120.3184250">
    <ele>10.8</ele>
    <time>2026-08-12T14:04:28Z</time>
   </trkpt>
   <trkpt lat="22.7275450" lon="120.3183510">
    <ele>10.7</ele>
    <time>2026-08-12T14:04:29Z</time>
   </trkpt>
   <trkpt lat="22.7276050" lon="120.3182830">
    <ele>10.7</ele>
    <time>2026-08-12T14:04:30Z</time>
   </trkpt>
   <trkpt lat="22.7276720" lon="120.3182190">
    <ele>10.6</ele>
    <time>2026-08-12T14:04:31Z</time>
   </trkpt>
   <trkpt lat="22.7277300" lon="120.3181390">
    <ele>10.6</ele>
    <time>2026-08-12T14:04:32Z</time>
   </trkpt>
   <trkpt lat="22.7277840" lon="120.3180570">
    <ele>10.6</ele>
    <time>2026-08-12T14:04:33Z</time>
   </trkpt>
   <trkpt lat="22.7278430" lon="120.3179690">
    <ele>10.6</ele>
    <time>2026-08-12T14:04:34Z</time>
   </trkpt>
   <trkpt lat="22.7279040" lon="120.3178880">
    <ele>10.7</ele>
    <time>2026-08-12T14:04:35Z</time>
   </trkpt>
   <trkpt lat="22.7279600" lon="120.3178030">
    <ele>10.7</ele>
    <time>2026-08-12T14:04:36Z</time>
   </trkpt>
   <trkpt lat="22.7280130" lon="120.3177210">
    <ele>10.8</ele>
    <time>2026-08-12T14:04:37Z</time>
   </trkpt>
   <trkpt lat="22.7280550" lon="120.3176460">
    <ele>10.8</ele>
    <time>2026-08-12T14:04:38Z</time>
   </trkpt>
   <trkpt lat="22.7280880" lon="120.3175840">
    <ele>10.9</ele>
    <time>2026-08-12T14:04:39Z</time>
   </trkpt>
   <trkpt lat="22.7281150" lon="120.3175470">
    <ele>10.8</ele>
    <time>2026-08-12T14:04:40Z</time>
   </trkpt>
   <trkpt lat="22.7281250" lon="120.3175260">
    <ele>10.8</ele>
    <time>2026-08-12T14:04:41Z</time>
   </trkpt>
   <trkpt lat="22.7281240" lon="120.3175310">
    <ele>10.8</ele>
    <time>2026-08-12T14:04:42Z</time>
   </trkpt>
   <trkpt lat="22.7281230" lon="120.3175440">
    <ele>10.8</ele>
    <time>2026-08-12T14:04:43Z</time>
   </trkpt>
   <trkpt lat="22.7281160" lon="120.3175450">
    <ele>10.8</ele>
    <time>2026-08-12T14:04:44Z</time>
   </trkpt>
   <trkpt lat="22.7281210" lon="120.3175510">
    <ele>10.9</ele>
    <time>2026-08-12T14:04:45Z</time>
   </trkpt>
   <trkpt lat="22.7281180" lon="120.3175530">
    <ele>10.9</ele>
    <time>2026-08-12T14:04:46Z</time>
   </trkpt>
   <trkpt lat="22.7281070" lon="120.3175570">
    <ele>10.9</ele>
    <time>2026-08-12T14:04:47Z</time>
   </trkpt>
   <trkpt lat="22.7281010" lon="120.3175590">
    <ele>10.9</ele>
    <time>2026-08-12T14:04:48Z</time>
   </trkpt>
   <trkpt lat="22.7280770" lon="120.3175900">
    <ele>10.9</ele>
    <time>2026-08-12T14:04:49Z</time>
   </trkpt>
   <trkpt lat="22.7280440" lon="120.3176480">
    <ele>10.8</ele>
    <time>2026-08-12T14:04:50Z</time>
   </trkpt>
   <trkpt lat="22.7280140" lon="120.3177230">
    <ele>10.8</ele>
    <time>2026-08-12T14:04:51Z</time>
   </trkpt>
   <trkpt lat="22.7279700" lon="120.3177940">
    <ele>10.7</ele>
    <time>2026-08-12T14:04:52Z</time>
   </trkpt>
   <trkpt lat="22.7279160" lon="120.3178700">
    <ele>10.7</ele>
    <time>2026-08-12T14:04:53Z</time>
   </trkpt>
   <trkpt lat="22.7278570" lon="120.3179480">
    <ele>10.6</ele>
    <time>2026-08-12T14:04:54Z</time>
   </trkpt>
   <trkpt lat="22.7277970" lon="120.3180320">
    <ele>10.6</ele>
    <time>2026-08-12T14:04:55Z</time>
   </trkpt>
   <trkpt lat="22.7277280" lon="120.3181080">
    <ele>10.6</ele>
    <time>2026-08-12T14:04:56Z</time>
   </trkpt>
   <trkpt lat="22.7276660" lon="120.3181940">
    <ele>10.6</ele>
    <time>2026-08-12T14:04:57Z</time>
   </trkpt>
   <trkpt lat="22.7276010" lon="120.3182710">
    <ele>10.7</ele>
    <time>2026-08-12T14:04:58Z</time>
   </trkpt>
   <trkpt lat="22.7275420" lon="120.3183460">
    <ele>10.7</ele>
    <time>2026-08-12T14:04:59Z</time>
   </trkpt>
   <trkpt lat="22.7274840" lon="120.3184150">
    <ele>10.7</ele>
    <time>2026-08-12T14:05:00Z</time>
   </trkpt>
   <trkpt lat="22.7274330" lon="120.3184780">
    <ele>10.8</ele>
    <time>2026-08-12T14:05:01Z</time>
   </trkpt>
   <trkpt lat="22.7273890" lon="120.3185170">
    <ele>10.9</ele>
    <time>2026-08-12T14:05:02Z</time>
   </trkpt>
   <trkpt lat="22.7273510" lon="120.3185690">
    <ele>10.9</ele>
    <time>2026-08-12T14:05:03Z</time>
   </trkpt>
   <trkpt lat="22.7273010" lon="120.3186240">
    <ele>11.0</ele>
    <time>2026-08-12T14:05:04Z</time>
   </trkpt>
   <trkpt lat="22.7272510" lon="120.3186820">
    <ele>11.1</ele>
    <time>2026-08-12T14:05:05Z</time>
   </trkpt>
   <trkpt lat="22.7272130" lon="120.3187320">
    <ele>11.1</ele>
    <time>2026-08-12T14:05:06Z</time>
   </trkpt>
   <trkpt lat="22.7271940" lon="120.3187720">
    <ele>11.2</ele>
    <time>2026-08-12T14:05:07Z</time>
   </trkpt>
   <trkpt lat="22.7272040" lon="120.3188090">
    <ele>11.4</ele>
    <time>2026-08-12T14:05:08Z</time>
   </trkpt>
   <trkpt lat="22.7272460" lon="120.3188450">
    <ele>11.7</ele>
    <time>2026-08-12T14:05:09Z</time>
   </trkpt>
   <trkpt lat="22.7272930" lon="120.3188850">
    <ele>12.1</ele>
    <time>2026-08-12T14:05:10Z</time>
   </trkpt>
   <trkpt lat="22.7273570" lon="120.3189330">
    <ele>12.7</ele>
    <time>2026-08-12T14:05:11Z</time>
   </trkpt>
   <trkpt lat="22.7274140" lon="120.3189890">
    <ele>13.3</ele>
    <time>2026-08-12T14:05:12Z</time>
   </trkpt>
   <trkpt lat="22.7274640" lon="120.3190310">
    <ele>14.0</ele>
    <time>2026-08-12T14:05:13Z</time>
   </trkpt>
   <trkpt lat="22.7274990" lon="120.3190560">
    <ele>14.4</ele>
    <time>2026-08-12T14:05:14Z</time>
   </trkpt>
   <trkpt lat="22.7275140" lon="120.3190520">
    <ele>14.6</ele>
    <time>2026-08-12T14:05:15Z</time>
   </trkpt>
   <trkpt lat="22.7275250" lon="120.3190570">
    <ele>14.7</ele>
    <time>2026-08-12T14:05:16Z</time>
   </trkpt>
   <trkpt lat="22.7275630" lon="120.3190540">
    <ele>14.8</ele>
    <time>2026-08-12T14:05:17Z</time>
   </trkpt>
   <trkpt lat="22.7275940" lon="120.3190160">
    <ele>14.8</ele>
    <time>2026-08-12T14:05:18Z</time>
   </trkpt>
   <trkpt lat="22.7276240" lon="120.3189470">
    <ele>14.8</ele>
    <time>2026-08-12T14:05:19Z</time>
   </trkpt>
   <trkpt lat="22.7276500" lon="120.3188910">
    <ele>14.7</ele>
    <time>2026-08-12T14:05:20Z</time>
   </trkpt>
   <trkpt lat="22.7276960" lon="120.3188480">
    <ele>14.7</ele>
    <time>2026-08-12T14:05:21Z</time>
   </trkpt>
   <trkpt lat="22.7277290" lon="120.3187900">
    <ele>14.7</ele>
    <time>2026-08-12T14:05:22Z</time>
   </trkpt>
   <trkpt lat="22.7277670" lon="120.3187290">
    <ele>14.7</ele>
    <time>2026-08-12T14:05:23Z</time>
   </trkpt>
   <trkpt lat="22.7278050" lon="120.3186760">
    <ele>14.7</ele>
    <time>2026-08-12T14:05:24Z</time>
   </trkpt>
   <trkpt lat="22.7278290" lon="120.3186310">
    <ele>14.8</ele>
    <time>2026-08-12T14:05:25Z</time>
   </trkpt>
   <trkpt lat="22.7278590" lon="120.3185820">
    <ele>14.8</ele>
    <time>2026-08-12T14:05:26Z</time>
   </trkpt>
   <trkpt lat="22.7278930" lon="120.3185300">
    <ele>14.8</ele>
    <time>2026-08-12T14:05:27Z</time>
   </trkpt>
   <trkpt lat="22.7279280" lon="120.3184720">
    <ele>14.8</ele>
    <time>2026-08-12T14:05:28Z</time>
   </trkpt>
   <trkpt lat="22.7279540" lon="120.3184090">
    <ele>14.9</ele>
    <time>2026-08-12T14:05:29Z</time>
   </trkpt>
   <trkpt lat="22.7279830" lon="120.3183610">
    <ele>14.9</ele>
    <time>2026-08-12T14:05:30Z</time>
   </trkpt>
   <trkpt lat="22.7279980" lon="120.3183310">
    <ele>14.9</ele>
    <time>2026-08-12T14:05:31Z</time>
   </trkpt>
   <trkpt lat="22.7279980" lon="120.3183310">
    <ele>14.9</ele>
    <time>2026-08-12T14:05:32Z</time>
   </trkpt>
   <trkpt lat="22.7279980" lon="120.3183310">
    <ele>14.9</ele>
    <time>2026-08-12T14:05:33Z</time>
   </trkpt>
   <trkpt lat="22.7279980" lon="120.3183310">
    <ele>14.9</ele>
    <time>2026-08-12T14:05:34Z</time>
   </trkpt>
   <trkpt lat="22.7279980" lon="120.3183310">
    <ele>14.9</ele>
    <time>2026-08-12T14:05:35Z</time>
   </trkpt>
   <trkpt lat="22.7279980" lon="120.3183310">
    <ele>14.9</ele>
    <time>2026-08-12T14:05:36Z</time>
   </trkpt>
   <trkpt lat="22.7279690" lon="120.3182790">
    <ele>14.9</ele>
    <time>2026-08-12T14:05:37Z</time>
   </trkpt>
   <trkpt lat="22.7279680" lon="120.3182770">
    <ele>14.9</ele>
    <time>2026-08-12T14:05:38Z</time>
   </trkpt>
   <trkpt lat="22.7279670" lon="120.3182740">
    <ele>14.9</ele>
    <time>2026-08-12T14:05:39Z</time>
   </trkpt>
   <trkpt lat="22.7279650" lon="120.3182720">
    <ele>14.9</ele>
    <time>2026-08-12T14:05:40Z</time>
   </trkpt>
   <trkpt lat="22.7279640" lon="120.3182700">
    <ele>14.9</ele>
    <time>2026-08-12T14:05:41Z</time>
   </trkpt>
   <trkpt lat="22.7279630" lon="120.3182670">
    <ele>14.9</ele>
    <time>2026-08-12T14:05:42Z</time>
   </trkpt>
   <trkpt lat="22.7278930" lon="120.3181410">
    <ele>15.0</ele>
    <time>2026-08-12T14:06:37Z</time>
   </trkpt>
   <trkpt lat="22.7278920" lon="120.3181390">
    <ele>15.0</ele>
    <time>2026-08-12T14:06:38Z</time>
   </trkpt>
   <trkpt lat="22.7279090" lon="120.3180760">
    <ele>15.1</ele>
    <time>2026-08-12T14:06:39Z</time>
   </trkpt>
   <trkpt lat="22.7279700" lon="120.3180360">
    <ele>15.1</ele>
    <time>2026-08-12T14:06:40Z</time>
   </trkpt>
   <trkpt lat="22.7280130" lon="120.3179690">
    <ele>15.2</ele>
    <time>2026-08-12T14:06:41Z</time>
   </trkpt>
   <trkpt lat="22.7280630" lon="120.3179080">
    <ele>15.2</ele>
    <time>2026-08-12T14:06:42Z</time>
   </trkpt>
   <trkpt lat="22.7281180" lon="120.3178370">
    <ele>15.3</ele>
    <time>2026-08-12T14:06:43Z</time>
   </trkpt>
   <trkpt lat="22.7281680" lon="120.3177760">
    <ele>15.3</ele>
    <time>2026-08-12T14:06:44Z</time>
   </trkpt>
   <trkpt lat="22.7282120" lon="120.3177170">
    <ele>15.3</ele>
    <time>2026-08-12T14:06:45Z</time>
   </trkpt>
   <trkpt lat="22.7282560" lon="120.3176660">
    <ele>15.4</ele>
    <time>2026-08-12T14:06:46Z</time>
   </trkpt>
   <trkpt lat="22.7282970" lon="120.3176170">
    <ele>15.4</ele>
    <time>2026-08-12T14:06:47Z</time>
   </trkpt>
   <trkpt lat="22.7283370" lon="120.3175670">
    <ele>15.5</ele>
    <time>2026-08-12T14:06:48Z</time>
   </trkpt>
   <trkpt lat="22.7283870" lon="120.3175140">
    <ele>15.6</ele>
    <time>2026-08-12T14:06:49Z</time>
   </trkpt>
   <trkpt lat="22.7284350" lon="120.3174560">
    <ele>15.7</ele>
    <time>2026-08-12T14:06:50Z</time>
   </trkpt>
   <trkpt lat="22.7284800" lon="120.3174070">
    <ele>15.8</ele>
    <time>2026-08-12T14:06:51Z</time>
   </trkpt>
   <trkpt lat="22.7285200" lon="120.3173840">
    <ele>15.9</ele>
    <time>2026-08-12T14:06:52Z</time>
   </trkpt>
   <trkpt lat="22.7285650" lon="120.3173830">
    <ele>15.9</ele>
    <time>2026-08-12T14:06:53Z</time>
   </trkpt>
   <trkpt lat="22.7286130" lon="120.3174040">
    <ele>16.0</ele>
    <time>2026-08-12T14:06:54Z</time>
   </trkpt>
   <trkpt lat="22.7286620" lon="120.3174470">
    <ele>16.1</ele>
    <time>2026-08-12T14:06:55Z</time>
   </trkpt>
   <trkpt lat="22.7287040" lon="120.3175010">
    <ele>16.2</ele>
    <time>2026-08-12T14:06:56Z</time>
   </trkpt>
   <trkpt lat="22.7287520" lon="120.3175560">
    <ele>16.2</ele>
    <time>2026-08-12T14:06:57Z</time>
   </trkpt>
   <trkpt lat="22.7288070" lon="120.3176090">
    <ele>16.3</ele>
    <time>2026-08-12T14:06:58Z</time>
   </trkpt>
   <trkpt lat="22.7288650" lon="120.3176600">
    <ele>16.4</ele>
    <time>2026-08-12T14:06:59Z</time>
   </trkpt>
   <trkpt lat="22.7289130" lon="120.3177090">
    <ele>16.5</ele>
    <time>2026-08-12T14:07:00Z</time>
   </trkpt>
   <trkpt lat="22.7289530" lon="120.3177480">
    <ele>16.6</ele>
    <time>2026-08-12T14:07:01Z</time>
   </trkpt>
   <trkpt lat="22.7289700" lon="120.3177780">
    <ele>16.7</ele>
    <time>2026-08-12T14:07:02Z</time>
   </trkpt>
   <trkpt lat="22.7289770" lon="120.3178040">
    <ele>16.8</ele>
    <time>2026-08-12T14:07:03Z</time>
   </trkpt>
   <trkpt lat="22.7289850" lon="120.3178330">
    <ele>17.0</ele>
    <time>2026-08-12T14:07:04Z</time>
   </trkpt>
   <trkpt lat="22.7289810" lon="120.3178660">
    <ele>17.0</ele>
    <time>2026-08-12T14:07:05Z</time>
   </trkpt>
   <trkpt lat="22.7289500" lon="120.3179100">
    <ele>17.1</ele>
    <time>2026-08-12T14:07:06Z</time>
   </trkpt>
   <trkpt lat="22.7289020" lon="120.3179480">
    <ele>17.1</ele>
    <time>2026-08-12T14:07:07Z</time>
   </trkpt>
   <trkpt lat="22.7288650" lon="120.3179930">
    <ele>17.1</ele>
    <time>2026-08-12T14:07:08Z</time>
   </trkpt>
   <trkpt lat="22.7288270" lon="120.3180390">
    <ele>17.1</ele>
    <time>2026-08-12T14:07:09Z</time>
   </trkpt>
   <trkpt lat="22.7287920" lon="120.3180860">
    <ele>17.1</ele>
    <time>2026-08-12T14:07:10Z</time>
   </trkpt>
   <trkpt lat="22.7287510" lon="120.3181370">
    <ele>17.2</ele>
    <time>2026-08-12T14:07:11Z</time>
   </trkpt>
   <trkpt lat="22.7287060" lon="120.3181940">
    <ele>17.2</ele>
    <time>2026-08-12T14:07:12Z</time>
   </trkpt>
   <trkpt lat="22.7286620" lon="120.3182550">
    <ele>17.2</ele>
    <time>2026-08-12T14:07:13Z</time>
   </trkpt>
   <trkpt lat="22.7286170" lon="120.3183130">
    <ele>17.3</ele>
    <time>2026-08-12T14:07:14Z</time>
   </trkpt>
   <trkpt lat="22.7285770" lon="120.3183690">
    <ele>17.3</ele>
    <time>2026-08-12T14:07:15Z</time>
   </trkpt>
   <trkpt lat="22.7285360" lon="120.3184260">
    <ele>17.3</ele>
    <time>2026-08-12T14:07:16Z</time>
   </trkpt>
   <trkpt lat="22.7284980" lon="120.3184840">
    <ele>17.3</ele>
    <time>2026-08-12T14:07:17Z</time>
   </trkpt>
   <trkpt lat="22.7284600" lon="120.3185420">
    <ele>17.2</ele>
    <time>2026-08-12T14:07:18Z</time>
   </trkpt>
   <trkpt lat="22.7284170" lon="120.3185980">
    <ele>17.1</ele>
    <time>2026-08-12T14:07:19Z</time>
   </trkpt>
   <trkpt lat="22.7283710" lon="120.3186580">
    <ele>16.9</ele>
    <time>2026-08-12T14:07:20Z</time>
   </trkpt>
   <trkpt lat="22.7283230" lon="120.3187180">
    <ele>16.8</ele>
    <time>2026-08-12T14:07:21Z</time>
   </trkpt>
   <trkpt lat="22.7282750" lon="120.3187790">
    <ele>16.7</ele>
    <time>2026-08-12T14:07:22Z</time>
   </trkpt>
   <trkpt lat="22.7282280" lon="120.3188420">
    <ele>16.5</ele>
    <time>2026-08-12T14:07:23Z</time>
   </trkpt>
   <trkpt lat="22.7281820" lon="120.3189060">
    <ele>16.4</ele>
    <time>2026-08-12T14:07:24Z</time>
   </trkpt>
   <trkpt lat="22.7281370" lon="120.3189700">
    <ele>16.3</ele>
    <time>2026-08-12T14:07:25Z</time>
   </trkpt>
   <trkpt lat="22.7280960" lon="120.3190320">
    <ele>16.2</ele>
    <time>2026-08-12T14:07:26Z</time>
   </trkpt>
   <trkpt lat="22.7280480" lon="120.3190940">
    <ele>16.1</ele>
    <time>2026-08-12T14:07:27Z</time>
   </trkpt>
   <trkpt lat="22.7280020" lon="120.3191530">
    <ele>16.0</ele>
    <time>2026-08-12T14:07:28Z</time>
   </trkpt>
   <trkpt lat="22.7279570" lon="120.3192090">
    <ele>15.9</ele>
    <time>2026-08-12T14:07:29Z</time>
   </trkpt>
   <trkpt lat="22.7279200" lon="120.3192580">
    <ele>15.8</ele>
    <time>2026-08-12T14:07:30Z</time>
   </trkpt>
   <trkpt lat="22.7278950" lon="120.3193000">
    <ele>15.8</ele>
    <time>2026-08-12T14:07:31Z</time>
   </trkpt>
   <trkpt lat="22.7278650" lon="120.3193360">
    <ele>15.7</ele>
    <time>2026-08-12T14:07:32Z</time>
   </trkpt>
   <trkpt lat="22.7278300" lon="120.3193820">
    <ele>15.7</ele>
    <time>2026-08-12T14:07:33Z</time>
   </trkpt>
   <trkpt lat="22.7277950" lon="120.3194380">
    <ele>15.5</ele>
    <time>2026-08-12T14:07:34Z</time>
   </trkpt>
   <trkpt lat="22.7277530" lon="120.3194980">
    <ele>15.4</ele>
    <time>2026-08-12T14:07:35Z</time>
   </trkpt>
   <trkpt lat="22.7277010" lon="120.3195610">
    <ele>15.2</ele>
    <time>2026-08-12T14:07:36Z</time>
   </trkpt>
   <trkpt lat="22.7276520" lon="120.3196280">
    <ele>15.2</ele>
    <time>2026-08-12T14:07:37Z</time>
   </trkpt>
   <trkpt lat="22.7276000" lon="120.3197000">
    <ele>15.2</ele>
    <time>2026-08-12T14:07:38Z</time>
   </trkpt>
   <trkpt lat="22.7275490" lon="120.3197750">
    <ele>15.3</ele>
    <time>2026-08-12T14:07:39Z</time>
   </trkpt>
   <trkpt lat="22.7274940" lon="120.3198490">
    <ele>15.5</ele>
    <time>2026-08-12T14:07:40Z</time>
   </trkpt>
   <trkpt lat="22.7274390" lon="120.3199250">
    <ele>15.7</ele>
    <time>2026-08-12T14:07:41Z</time>
   </trkpt>
   <trkpt lat="22.7273820" lon="120.3200000">
    <ele>15.9</ele>
    <time>2026-08-12T14:07:42Z</time>
   </trkpt>
   <trkpt lat="22.7273300" lon="120.3200710">
    <ele>15.7</ele>
    <time>2026-08-12T14:07:43Z</time>
   </trkpt>
   <trkpt lat="22.7272830" lon="120.3201360">
    <ele>15.7</ele>
    <time>2026-08-12T14:07:44Z</time>
   </trkpt>
   <trkpt lat="22.7272440" lon="120.3201890">
    <ele>15.7</ele>
    <time>2026-08-12T14:07:45Z</time>
   </trkpt>
   <trkpt lat="22.7272100" lon="120.3202310">
    <ele>15.7</ele>
    <time>2026-08-12T14:07:46Z</time>
   </trkpt>
   <trkpt lat="22.7272090" lon="120.3203080">
    <ele>15.8</ele>
    <time>2026-08-12T14:07:47Z</time>
   </trkpt>
   <trkpt lat="22.7271710" lon="120.3203120">
    <ele>15.7</ele>
    <time>2026-08-12T14:07:48Z</time>
   </trkpt>
   <trkpt lat="22.7271190" lon="120.3202850">
    <ele>15.6</ele>
    <time>2026-08-12T14:07:49Z</time>
   </trkpt>
   <trkpt lat="22.7270710" lon="120.3202370">
    <ele>15.5</ele>
    <time>2026-08-12T14:07:50Z</time>
   </trkpt>
   <trkpt lat="22.7270240" lon="120.3201750">
    <ele>15.5</ele>
    <time>2026-08-12T14:07:51Z</time>
   </trkpt>
   <trkpt lat="22.7269850" lon="120.3201240">
    <ele>15.4</ele>
    <time>2026-08-12T14:07:52Z</time>
   </trkpt>
   <trkpt lat="22.7269670" lon="120.3201080">
    <ele>15.4</ele>
    <time>2026-08-12T14:07:53Z</time>
   </trkpt>
   <trkpt lat="22.7269510" lon="120.3200720">
    <ele>15.3</ele>
    <time>2026-08-12T14:07:54Z</time>
   </trkpt>
   <trkpt lat="22.7269290" lon="120.3200260">
    <ele>15.2</ele>
    <time>2026-08-12T14:07:55Z</time>
   </trkpt>
   <trkpt lat="22.7268690" lon="120.3199890">
    <ele>15.1</ele>
    <time>2026-08-12T14:07:56Z</time>
   </trkpt>
   <trkpt lat="22.7268070" lon="120.3199460">
    <ele>15.0</ele>
    <time>2026-08-12T14:07:57Z</time>
   </trkpt>
   <trkpt lat="22.7267500" lon="120.3199040">
    <ele>14.9</ele>
    <time>2026-08-12T14:07:58Z</time>
   </trkpt>
   <trkpt lat="22.7267490" lon="120.3198660">
    <ele>14.8</ele>
    <time>2026-08-12T14:07:59Z</time>
   </trkpt>
   <trkpt lat="22.7266830" lon="120.3198320">
    <ele>14.6</ele>
    <time>2026-08-12T14:08:00Z</time>
   </trkpt>
   <trkpt lat="22.7266580" lon="120.3198000">
    <ele>14.4</ele>
    <time>2026-08-12T14:08:01Z</time>
   </trkpt>
   <trkpt lat="22.7266120" lon="120.3197820">
    <ele>14.2</ele>
    <time>2026-08-12T14:08:02Z</time>
   </trkpt>
   <trkpt lat="22.7265640" lon="120.3197430">
    <ele>14.1</ele>
    <time>2026-08-12T14:08:03Z</time>
   </trkpt>
   <trkpt lat="22.7265100" lon="120.3197060">
    <ele>14.0</ele>
    <time>2026-08-12T14:08:04Z</time>
   </trkpt>
   <trkpt lat="22.7264540" lon="120.3196620">
    <ele>14.0</ele>
    <time>2026-08-12T14:08:05Z</time>
   </trkpt>
   <trkpt lat="22.7263950" lon="120.3196140">
    <ele>14.0</ele>
    <time>2026-08-12T14:08:06Z</time>
   </trkpt>
   <trkpt lat="22.7263320" lon="120.3195620">
    <ele>14.0</ele>
    <time>2026-08-12T14:08:07Z</time>
   </trkpt>
   <trkpt lat="22.7262720" lon="120.3195170">
    <ele>14.0</ele>
    <time>2026-08-12T14:08:08Z</time>
   </trkpt>
   <trkpt lat="22.7262170" lon="120.3194800">
    <ele>13.9</ele>
    <time>2026-08-12T14:08:09Z</time>
   </trkpt>
   <trkpt lat="22.7261700" lon="120.3194500">
    <ele>13.9</ele>
    <time>2026-08-12T14:08:10Z</time>
   </trkpt>
   <trkpt lat="22.7261390" lon="120.3194190">
    <ele>13.9</ele>
    <time>2026-08-12T14:08:11Z</time>
   </trkpt>
   <trkpt lat="22.7261120" lon="120.3193940">
    <ele>14.0</ele>
    <time>2026-08-12T14:08:12Z</time>
   </trkpt>
   <trkpt lat="22.7260890" lon="120.3193660">
    <ele>14.1</ele>
    <time>2026-08-12T14:08:13Z</time>
   </trkpt>
   <trkpt lat="22.7260740" lon="120.3193200">
    <ele>14.1</ele>
    <time>2026-08-12T14:08:14Z</time>
   </trkpt>
   <trkpt lat="22.7260530" lon="120.3192670">
    <ele>14.2</ele>
    <time>2026-08-12T14:08:15Z</time>
   </trkpt>
   <trkpt lat="22.7260190" lon="120.3192090">
    <ele>14.2</ele>
    <time>2026-08-12T14:08:16Z</time>
   </trkpt>
   <trkpt lat="22.7259800" lon="120.3191680">
    <ele>14.3</ele>
    <time>2026-08-12T14:08:17Z</time>
   </trkpt>
   <trkpt lat="22.7259450" lon="120.3191370">
    <ele>14.3</ele>
    <time>2026-08-12T14:08:18Z</time>
   </trkpt>
   <trkpt lat="22.7259210" lon="120.3191090">
    <ele>14.3</ele>
    <time>2026-08-12T14:08:19Z</time>
   </trkpt>
   <trkpt lat="22.7259000" lon="120.3190780">
    <ele>14.4</ele>
    <time>2026-08-12T14:08:20Z</time>
   </trkpt>
   <trkpt lat="22.7258670" lon="120.3190430">
    <ele>14.4</ele>
    <time>2026-08-12T14:08:21Z</time>
   </trkpt>
   <trkpt lat="22.7258310" lon="120.3190050">
    <ele>14.5</ele>
    <time>2026-08-12T14:08:22Z</time>
   </trkpt>
   <trkpt lat="22.7257870" lon="120.3189600">
    <ele>14.5</ele>
    <time>2026-08-12T14:08:23Z</time>
   </trkpt>
   <trkpt lat="22.7257400" lon="120.3189110">
    <ele>14.6</ele>
    <time>2026-08-12T14:08:24Z</time>
   </trkpt>
   <trkpt lat="22.7256910" lon="120.3188590">
    <ele>14.7</ele>
    <time>2026-08-12T14:08:25Z</time>
   </trkpt>
   <trkpt lat="22.7256400" lon="120.3188050">
    <ele>14.8</ele>
    <time>2026-08-12T14:08:26Z</time>
   </trkpt>
   <trkpt lat="22.7255900" lon="120.3187550">
    <ele>14.9</ele>
    <time>2026-08-12T14:08:27Z</time>
   </trkpt>
   <trkpt lat="22.7255430" lon="120.3187030">
    <ele>14.9</ele>
    <time>2026-08-12T14:08:28Z</time>
   </trkpt>
   <trkpt lat="22.7254930" lon="120.3186530">
    <ele>15.0</ele>
    <time>2026-08-12T14:08:29Z</time>
   </trkpt>
   <trkpt lat="22.7254440" lon="120.3185980">
    <ele>15.1</ele>
    <time>2026-08-12T14:08:30Z</time>
   </trkpt>
   <trkpt lat="22.7253920" lon="120.3185410">
    <ele>15.1</ele>
    <time>2026-08-12T14:08:31Z</time>
   </trkpt>
   <trkpt lat="22.7253460" lon="120.3184820">
    <ele>15.2</ele>
    <time>2026-08-12T14:08:32Z</time>
   </trkpt>
   <trkpt lat="22.7252960" lon="120.3184230">
    <ele>15.2</ele>
    <time>2026-08-12T14:08:33Z</time>
   </trkpt>
   <trkpt lat="22.7252520" lon="120.3183760">
    <ele>15.3</ele>
    <time>2026-08-12T14:08:34Z</time>
   </trkpt>
   <trkpt lat="22.7252120" lon="120.3183320">
    <ele>15.3</ele>
    <time>2026-08-12T14:08:35Z</time>
   </trkpt>
   <trkpt lat="22.7251820" lon="120.3183030">
    <ele>15.4</ele>
    <time>2026-08-12T14:08:36Z</time>
   </trkpt>
   <trkpt lat="22.7251730" lon="120.3182930">
    <ele>15.4</ele>
    <time>2026-08-12T14:08:37Z</time>
   </trkpt>
   <trkpt lat="22.7251750" lon="120.3182870">
    <ele>15.4</ele>
    <time>2026-08-12T14:08:38Z</time>
   </trkpt>
   <trkpt lat="22.7251740" lon="120.3182740">
    <ele>15.4</ele>
    <time>2026-08-12T14:08:39Z</time>
   </trkpt>
   <trkpt lat="22.7251860" lon="120.3182780">
    <ele>15.4</ele>
    <time>2026-08-12T14:08:40Z</time>
   </trkpt>
   <trkpt lat="22.7251840" lon="120.3182780">
    <ele>15.4</ele>
    <time>2026-08-12T14:08:41Z</time>
   </trkpt>
   <trkpt lat="22.7251810" lon="120.3182780">
    <ele>15.4</ele>
    <time>2026-08-12T14:08:42Z</time>
   </trkpt>
   <trkpt lat="22.7251800" lon="120.3182760">
    <ele>15.4</ele>
    <time>2026-08-12T14:08:43Z</time>
   </trkpt>
   <trkpt lat="22.7251800" lon="120.3182760">
    <ele>15.4</ele>
    <time>2026-08-12T14:08:44Z</time>
   </trkpt>
   <trkpt lat="22.7251800" lon="120.3182760">
    <ele>15.4</ele>
    <time>2026-08-12T14:08:45Z</time>
   </trkpt>
   <trkpt lat="22.7251800" lon="120.3182730">
    <ele>15.4</ele>
    <time>2026-08-12T14:08:46Z</time>
   </trkpt>
   <trkpt lat="22.7251790" lon="120.3182730">
    <ele>15.4</ele>
    <time>2026-08-12T14:08:47Z</time>
   </trkpt>
   <trkpt lat="22.7251780" lon="120.3182710">
    <ele>15.4</ele>
    <time>2026-08-12T14:08:48Z</time>
   </trkpt>
   <trkpt lat="22.7251710" lon="120.3182670">
    <ele>15.4</ele>
    <time>2026-08-12T14:08:49Z</time>
   </trkpt>
   <trkpt lat="22.7250410" lon="120.3182800">
    <ele>15.5</ele>
    <time>2026-08-12T14:09:02Z</time>
   </trkpt>
   <trkpt lat="22.7250350" lon="120.3182910">
    <ele>15.5</ele>
    <time>2026-08-12T14:09:03Z</time>
   </trkpt>
   <trkpt lat="22.7250380" lon="120.3182970">
    <ele>15.5</ele>
    <time>2026-08-12T14:09:04Z</time>
   </trkpt>
   <trkpt lat="22.7250370" lon="120.3182960">
    <ele>15.5</ele>
    <time>2026-08-12T14:09:05Z</time>
   </trkpt>
  </trkseg>
 </trk>
</gpx>
