<?xml version="1.0" encoding="UTF-8"?>
<gpx creator="StravaGPX" version="1.1" xmlns="http://www.topografix.com/GPX/1/1" xmlns:xsi="http://www.w3.org/2001/XMLSchema-instance" xsi:schemaLocation="http://www.topografix.com/GPX/1/1 http://www.topografix.com/GPX/1/1/gpx.xsd">
 <metadata>
  <time>2026-08-12T13:59:23Z</time>
 </metadata>
 <trk>
  <name>晚間電動自行車騎乘</name>
  <type>ebikeride</type>
  <trkseg>
   <trkpt lat="22.7252920" lon="120.3290940">
    <ele>18.2</ele>
    <time>2026-08-12T13:59:23Z</time>
   </trkpt>
   <trkpt lat="22.7252920" lon="120.3290940">
    <ele>18.2</ele>
    <time>2026-08-12T13:59:26Z</time>
   </trkpt>
   <trkpt lat="22.7253130" lon="120.3290750">
    <ele>18.3</ele>
    <time>2026-08-12T13:59:27Z</time>
   </trkpt>
   <trkpt lat="22.7253120" lon="120.3290590">
    <ele>18.3</ele>
    <time>2026-08-12T13:59:28Z</time>
   </trkpt>
   <trkpt lat="22.7253120" lon="120.3290540">
    <ele>18.3</ele>
    <time>2026-08-12T13:59:29Z</time>
   </trkpt>
   <trkpt lat="22.7253120" lon="120.3290410">
    <ele>18.3</ele>
    <time>2026-08-12T13:59:30Z</time>
   </trkpt>
   <trkpt lat="22.7253380" lon="120.3290260">
    <ele>18.3</ele>
    <time>2026-08-12T13:59:31Z</time>
   </trkpt>
   <trkpt lat="22.7253440" lon="120.3289900">
    <ele>18.3</ele>
    <time>2026-08-12T13:59:32Z</time>
   </trkpt>
   <trkpt lat="22.7253680" lon="120.3289540">
    <ele>18.3</ele>
    <time>2026-08-12T13:59:33Z</time>
   </trkpt>
   <trkpt lat="22.7253970" lon="120.3288860">
    <ele>18.3</ele>
    <time>2026-08-12T13:59:34Z</time>
   </trkpt>
   <trkpt lat="22.7254140" lon="120.3288320">
    <ele>18.4</ele>
    <time>2026-08-12T13:59:35Z</time>
   </trkpt>
   <trkpt lat="22.7254300" lon="120.3287780">
    <ele>18.4</ele>
    <time>2026-08-12T13:59:36Z</time>
   </trkpt>
   <trkpt lat="22.7254550" lon="120.3287270">
    <ele>18.4</ele>
    <time>2026-08-12T13:59:37Z</time>
   </trkpt>
   <trkpt lat="22.7254800" lon="120.3286830">
    <ele>18.4</ele>
    <time>2026-08-12T13:59:38Z</time>
   </trkpt>
   <trkpt lat="22.7255090" lon="120.3286430">
    <ele>18.5</ele>
    <time>2026-08-12T13:59:39Z</time>
   </trkpt>
   <trkpt lat="22.7255510" lon="120.3285910">
    <ele>18.5</ele>
    <time>2026-08-12T13:59:40Z</time>
   </trkpt>
   <trkpt lat="22.7255790" lon="120.3285630">
    <ele>18.5</ele>
    <time>2026-08-12T13:59:41Z</time>
   </trkpt>
   <trkpt lat="22.7255960" lon="120.3285430">
    <ele>18.5</ele>
    <time>2026-08-12T13:59:42Z</time>
   </trkpt>
   <trkpt lat="22.7256110" lon="120.3285120">
    <ele>18.5</ele>
    <time>2026-08-12T13:59:43Z</time>
   </trkpt>
   <trkpt lat="22.7256310" lon="120.3284800">
    <ele>18.6</ele>
    <time>2026-08-12T13:59:44Z</time>
   </trkpt>
   <trkpt lat="22.7256440" lon="120.3284610">
    <ele>18.6</ele>
    <time>2026-08-12T13:59:45Z</time>
   </trkpt>
   <trkpt lat="22.7256380" lon="120.3284570">
    <ele>18.6</ele>
    <time>2026-08-12T13:59:46Z</time>
   </trkpt>
   <trkpt lat="22.7256320" lon="120.3284410">
    <ele>18.6</ele>
    <time>2026-08-12T13:59:47Z</time>
   </trkpt>
   <trkpt lat="22.7256280" lon="120.3284310">
    <ele>18.6</ele>
    <time>2026-08-12T13:59:48Z</time>
   </trkpt>
   <trkpt lat="22.7256170" lon="120.3284490">
    <ele>18.6</ele>
    <time>2026-08-12T13:59:49Z</time>
   </trkpt>
   <trkpt lat="22.7256160" lon="120.3284500">
    <ele>18.6</ele>
    <time>2026-08-12T13:59:50Z</time>
   </trkpt>
   <trkpt lat="22.7256080" lon="120.3284680">
    <ele>18.6</ele>
    <time>2026-08-12T13:59:51Z</time>
   </trkpt>
   <trkpt lat="22.7256080" lon="120.3284650">
    <ele>18.6</ele>
    <time>2026-08-12T13:59:52Z</time>
   </trkpt>
   <trkpt lat="22.7256090" lon="120.3284670">
    <ele>18.6</ele>
    <time>2026-08-12T13:59:53Z</time>
   </trkpt>
   <trkpt lat="22.7256010" lon="120.3284910">
    <ele>18.6</ele>
    <time>2026-08-12T13:59:54Z</time>
   </trkpt>
   <trkpt lat="22.7255790" lon="120.3285270">
    <ele>18.6</ele>
    <time>2026-08-12T13:59:55Z</time>
   </trkpt>
   <trkpt lat="22.7255430" lon="120.3285970">
    <ele>18.5</ele>
    <time>2026-08-12T13:59:56Z</time>
   </trkpt>
   <trkpt lat="22.7254960" lon="120.3286790">
    <ele>18.5</ele>
    <time>2026-08-12T13:59:57Z</time>
   </trkpt>
   <trkpt lat="22.7254550" lon="120.3287560">
    <ele>18.4</ele>
    <time>2026-08-12T13:59:58Z</time>
   </trkpt>
   <trkpt lat="22.7254130" lon="120.3288340">
    <ele>18.4</ele>
    <time>2026-08-12T13:59:59Z</time>
   </trkpt>
   <trkpt lat="22.7253950" lon="120.3289020">
    <ele>18.3</ele>
    <time>2026-08-12T14:00:00Z</time>
   </trkpt>
   <trkpt lat="22.7253460" lon="120.3289870">
    <ele>18.3</ele>
    <time>2026-08-12T14:00:01Z</time>
   </trkpt>
   <trkpt lat="22.7253170" lon="120.3290220">
    <ele>18.3</ele>
    <time>2026-08-12T14:00:02Z</time>
   </trkpt>
   <trkpt lat="22.7252990" lon="120.3290340">
    <ele>18.2</ele>
    <time>2026-08-12T14:00:03Z</time>
   </trkpt>
   <trkpt lat="22.7252750" lon="120.3290300">
    <ele>18.2</ele>
    <time>2026-08-12T14:00:04Z</time>
   </trkpt>
   <trkpt lat="22.7252420" lon="120.3290130">
    <ele>18.3</ele>
    <time>2026-08-12T14:00:05Z</time>
   </trkpt>
   <trkpt lat="22.7251930" lon="120.3289780">
    <ele>18.3</ele>
    <time>2026-08-12T14:00:06Z</time>
   </trkpt>
   <trkpt lat="22.7251470" lon="120.3289280">
    <ele>18.3</ele>
    <time>2026-08-12T14:00:07Z</time>
   </trkpt>
   <trkpt lat="22.7250960" lon="120.3288800">
    <ele>18.3</ele>
    <time>2026-08-12T14:00:08Z</time>
   </trkpt>
   <trkpt lat="22.7250460" lon="120.3288390">
    <ele>18.4</ele>
    <time>2026-08-12T14:00:09Z</time>
   </trkpt>
   <trkpt lat="22.7250140" lon="120.3288070">
    <ele>18.4</ele>
    <time>2026-08-12T14:00:10Z</time>
   </trkpt>
   <trkpt lat="22.7250040" lon="120.3287760">
    <ele>18.4</ele>
    <time>2026-08-12T14:00:11Z</time>
   </trkpt>
   <trkpt lat="22.7250190" lon="120.3287710">
    <ele>18.4</ele>
    <time>2026-08-12T14:00:12Z</time>
   </trkpt>
   <trkpt lat="22.7250520" lon="120.3287500">
    <ele>18.4</ele>
    <time>2026-08-12T14:00:13Z</time>
   </trkpt>
   <trkpt lat="22.7250870" lon="120.3286790">
    <ele>18.3</ele>
    <time>2026-08-12T14:00:14Z</time>
   </trkpt>
   <trkpt lat="22.7251320" lon="120.3286120">
    <ele>18.2</ele>
    <time>2026-08-12T14:00:15Z</time>
   </trkpt>
   <trkpt lat="22.7251800" lon="120.3285470">
    <ele>18.0</ele>
    <time>2026-08-12T14:00:16Z</time>
   </trkpt>
   <trkpt lat="22.7252090" lon="120.3284830">
    <ele>17.9</ele>
    <time>2026-08-12T14:00:17Z</time>
   </trkpt>
   <trkpt lat="22.7252690" lon="120.3284090">
    <ele>17.9</ele>
    <time>2026-08-12T14:00:18Z</time>
   </trkpt>
   <trkpt lat="22.7253190" lon="120.3283430">
    <ele>17.9</ele>
    <time>2026-08-12T14:00:19Z</time>
   </trkpt>
   <trkpt lat="22.7253700" lon="120.3282770">
    <ele>17.9</ele>
    <time>2026-08-12T14:00:20Z</time>
   </trkpt>
   <trkpt lat="22.7254140" lon="120.3282090">
    <ele>18.0</ele>
    <time>2026-08-12T14:00:21Z</time>
   </trkpt>
   <trkpt lat="22.7254580" lon="120.3281440">
    <ele>18.1</ele>
    <time>2026-08-12T14:00:22Z</time>
   </trkpt>
   <trkpt lat="22.7255060" lon="120.3280860">
    <ele>18.1</ele>
    <time>2026-08-12T14:00:23Z</time>
   </trkpt>
   <trkpt lat="22.7255350" lon="120.3280400">
    <ele>18.2</ele>
    <time>2026-08-12T14:00:24Z</time>
   </trkpt>
   <trkpt lat="22.7255560" lon="120.3280090">
    <ele>18.1</ele>
    <time>2026-08-12T14:00:25Z</time>
   </trkpt>
   <trkpt lat="22.7255560" lon="120.3279780">
    <ele>18.2</ele>
    <time>2026-08-12T14:00:26Z</time>
   </trkpt>
   <trkpt lat="22.7255450" lon="120.3279480">
    <ele>18.3</ele>
    <time>2026-08-12T14:00:27Z</time>
   </trkpt>
   <trkpt lat="22.7255140" lon="120.3279170">
    <ele>18.5</ele>
    <time>2026-08-12T14:00:28Z</time>
   </trkpt>
   <trkpt lat="22.7254830" lon="120.3278990">
    <ele>18.6</ele>
    <time>2026-08-12T14:00:29Z</time>
   </trkpt>
   <trkpt lat="22.7254320" lon="120.3278580">
    <ele>18.7</ele>
    <time>2026-08-12T14:00:30Z</time>
   </trkpt>
   <trkpt lat="22.7253940" lon="120.3278320">
    <ele>18.4</ele>
    <time>2026-08-12T14:00:31Z</time>
   </trkpt>
   <trkpt lat="22.7253470" lon="120.3277910">
    <ele>17.7</ele>
    <time>2026-08-12T14:00:32Z</time>
   </trkpt>
   <trkpt lat="22.7252960" lon="120.3277650">
    <ele>17.1</ele>
    <time>2026-08-12T14:00:33Z</time>
   </trkpt>
   <trkpt lat="22.7252470" lon="120.3277290">
    <ele>16.5</ele>
    <time>2026-08-12T14:00:34Z</time>
   </trkpt>
   <trkpt lat="22.7251960" lon="120.3276890">
    <ele>15.9</ele>
    <time>2026-08-12T14:00:35Z</time>
   </trkpt>
   <trkpt lat="22.7251510" lon="120.3276460">
    <ele>15.4</ele>
    <time>2026-08-12T14:00:36Z</time>
   </trkpt>
   <trkpt lat="22.7251070" lon="120.3276080">
    <ele>14.8</ele>
    <time>2026-08-12T14:00:37Z</time>
   </trkpt>
   <trkpt lat="22.7250700" lon="120.3275780">
    <ele>14.4</ele>
    <time>2026-08-12T14:00:38Z</time>
   </trkpt>
   <trkpt lat="22.7250360" lon="120.3275680">
    <ele>14.0</ele>
    <time>2026-08-12T14:00:39Z</time>
   </trkpt>
   <trkpt lat="22.7250010" lon="120.3275790">
    <ele>14.1</ele>
    <time>2026-08-12T14:00:40Z</time>
   </trkpt>
   <trkpt lat="22.7249690" lon="120.3276020">
    <ele>14.2</ele>
    <time>2026-08-12T14:00:41Z</time>
   </trkpt>
   <trkpt lat="22.7249640" lon="120.3276410">
    <ele>14.4</ele>
    <time>2026-08-12T14:00:42Z</time>
   </trkpt>
   <trkpt lat="22.7249300" lon="120.3276730">
    <ele>14.5</ele>
    <time>2026-08-12T14:00:43Z</time>
   </trkpt>
   <trkpt lat="22.7249020" lon="120.3277300">
    <ele>14.7</ele>
    <time>2026-08-12T14:00:44Z</time>
   </trkpt>
   <trkpt lat="22.7248650" lon="120.3277840">
    <ele>14.9</ele>
    <time>2026-08-12T14:00:45Z</time>
   </trkpt>
   <trkpt lat="22.7248270" lon="120.3278430">
    <ele>15.1</ele>
    <time>2026-08-12T14:00:46Z</time>
   </trkpt>
   <trkpt lat="22.7247840" lon="120.3278960">
    <ele>15.3</ele>
    <time>2026-08-12T14:00:47Z</time>
   </trkpt>
   <trkpt lat="22.7247400" lon="120.3279540">
    <ele>15.5</ele>
    <time>2026-08-12T14:00:48Z</time>
   </trkpt>
   <trkpt lat="22.7246980" lon="120.3280030">
    <ele>15.7</ele>
    <time>2026-08-12T14:00:49Z</time>
   </trkpt>
   <trkpt lat="22.7246530" lon="120.3280500">
    <ele>15.9</ele>
    <time>2026-08-12T14:00:50Z</time>
   </trkpt>
   <trkpt lat="22.7246070" lon="120.3280980">
    <ele>16.1</ele>
    <time>2026-08-12T14:00:51Z</time>
   </trkpt>
   <trkpt lat="22.7245610" lon="120.3281490">
    <ele>16.3</ele>
    <time>2026-08-12T14:00:52Z</time>
   </trkpt>
   <trkpt lat="22.7245160" lon="120.3282110">
    <ele>16.6</ele>
    <time>2026-08-12T14:00:53Z</time>
   </trkpt>
   <trkpt lat="22.7244750" lon="120.3282700">
    <ele>16.8</ele>
    <time>2026-08-12T14:00:54Z</time>
   </trkpt>
   <trkpt lat="22.7244420" lon="120.3283100">
    <ele>17.0</ele>
    <time>2026-08-12T14:00:55Z</time>
   </trkpt>
   <trkpt lat="22.7244220" lon="120.3283300">
    <ele>17.0</ele>
    <time>2026-08-12T14:00:56Z</time>
   </trkpt>
   <trkpt lat="22.7243930" lon="120.3283300">
    <ele>17.1</ele>
    <time>2026-08-12T14:00:57Z</time>
   </trkpt>
   <trkpt lat="22.7243580" lon="120.3283190">
    <ele>17.3</ele>
    <time>2026-08-12T14:00:58Z</time>
   </trkpt>
   <trkpt lat="22.7243310" lon="120.3282770">
    <ele>17.5</ele>
    <time>2026-08-12T14:00:59Z</time>
   </trkpt>
   <trkpt lat="22.7242900" lon="120.3282240">
    <ele>17.7</ele>
    <time>2026-08-12T14:01:00Z</time>
   </trkpt>
   <trkpt lat="22.7242460" lon="120.3281730">
    <ele>18.0</ele>
    <time>2026-08-12T14:01:01Z</time>
   </trkpt>
   <trkpt lat="22.7241920" lon="120.3281350">
    <ele>18.3</ele>
    <time>2026-08-12T14:01:02Z</time>
   </trkpt>
   <trkpt lat="22.7241480" lon="120.3281190">
    <ele>18.5</ele>
    <time>2026-08-12T14:01:03Z</time>
   </trkpt>
   <trkpt lat="22.7240960" lon="120.3281350">
    <ele>19.2</ele>
    <time>2026-08-12T14:01:04Z</time>
   </trkpt>
   <trkpt lat="22.7240420" lon="120.3281670">
    <ele>19.5</ele>
    <time>2026-08-12T14:01:05Z</time>
   </trkpt>
   <trkpt lat="22.7240090" lon="120.3282120">
    <ele>19.8</ele>
    <time>2026-08-12T14:01:06Z</time>
   </trkpt>
   <trkpt lat="22.7239960" lon="120.3282830">
    <ele>20.2</ele>
    <time>2026-08-12T14:01:07Z</time>
   </trkpt>
   <trkpt lat="22.7239740" lon="120.3283340">
    <ele>20.5</ele>
    <time>2026-08-12T14:01:08Z</time>
   </trkpt>
   <trkpt lat="22.7239340" lon="120.3283820">
    <ele>20.8</ele>
    <time>2026-08-12T14:01:09Z</time>
   </trkpt>
   <trkpt lat="22.7239110" lon="120.3284270">
    <ele>21.1</ele>
    <time>2026-08-12T14:01:10Z</time>
   </trkpt>
   <trkpt lat="22.7238930" lon="120.3284620">
    <ele>21.3</ele>
    <time>2026-08-12T14:01:11Z</time>
   </trkpt>
   <trkpt lat="22.7238870" lon="120.3284880">
    <ele>21.5</ele>
    <time>2026-08-12T14:01:12Z</time>
   </trkpt>
   <trkpt lat="22.7238820" lon="120.3285090">
    <ele>21.6</ele>
    <time>2026-08-12T14:01:13Z</time>
   </trkpt>
   <trkpt lat="22.7238760" lon="120.3285290">
    <ele>21.8</ele>
    <time>2026-08-12T14:01:14Z</time>
   </trkpt>
   <trkpt lat="22.7238680" lon="120.3285480">
    <ele>21.9</ele>
    <time>2026-08-12T14:01:15Z</time>
   </trkpt>
   <trkpt lat="22.7238570" lon="120.3285650">
    <ele>21.9</ele>
    <time>2026-08-12T14:01:16Z</time>
   </trkpt>
   <trkpt lat="22.7238490" lon="120.3286060">
    <ele>21.5</ele>
    <time>2026-08-12T14:01:17Z</time>
   </trkpt>
   <trkpt lat="22.7238180" lon="120.3286380">
    <ele>21.1</ele>
    <time>2026-08-12T14:01:18Z</time>
   </trkpt>
   <trkpt lat="22.7237550" lon="120.3286700">
    <ele>20.4</ele>
    <time>2026-08-12T14:01:19Z</time>
   </trkpt>
   <trkpt lat="22.7237030" lon="120.3287090">
    <ele>19.8</ele>
    <time>2026-08-12T14:01:20Z</time>
   </trkpt>
   <trkpt lat="22.7236600" lon="120.3287560">
    <ele>19.2</ele>
    <time>2026-08-12T14:01:21Z</time>
   </trkpt>
   <trkpt lat="22.7236000" lon="120.3287950">
    <ele>18.6</ele>
    <time>2026-08-12T14:01:22Z</time>
   </trkpt>
   <trkpt lat="22.7235550" lon="120.3288110">
    <ele>18.2</ele>
    <time>2026-08-12T14:01:23Z</time>
   </trkpt>
   <trkpt lat="22.7235320" lon="120.3288410">
    <ele>17.9</ele>
    <time>2026-08-12T14:01:24Z</time>
   </trkpt>
   <trkpt lat="22.7235170" lon="120.3288460">
    <ele>17.8</ele>
    <time>2026-08-12T14:01:25Z</time>
   </trkpt>
   <trkpt lat="22.7235240" lon="120.3288390">
    <ele>17.7</ele>
    <time>2026-08-12T14:01:26Z</time>
   </trkpt>
   <trkpt lat="22.7235120" lon="120.3288350">
    <ele>17.6</ele>
    <time>2026-08-12T14:01:27Z</time>
   </trkpt>
   <trkpt lat="22.7235060" lon="120.3288380">
    <ele>17.6</ele>
    <time>2026-08-12T14:01:28Z</time>
   </trkpt>
   <trkpt lat="22.7234950" lon="120.3288420">
    <ele>17.5</ele>
    <time>2026-08-12T14:01:29Z</time>
   </trkpt>
  </trkseg>
 </trk>
</gpx>
