<?xml version="1.0" encoding="UTF-8"?>
<gpx creator="StravaGPX" version="1.1" xmlns="http://www.topografix.com/GPX/1/1" xmlns:xsi="http://www.w3.org/2001/XMLSchema-instance" xsi:schemaLocation="http://www.topografix.com/GPX/1/1 http://www.topografix.com/GPX/1/1/gpx.xsd">
 <metadata>
  <time>2026-08-11T13:15:39Z</time>
 </metadata>
 <trk>
  <name>晚間電動自行車騎乘</name>
  <type>ebikeride</type>
  <trkseg>
   <trkpt lat="22.7305350" lon="120.3321660">
    <ele>20.8</ele>
    <time>2026-08-11T13:15:39Z</time>
   </trkpt>
   <trkpt lat="22.7305310" lon="120.3321630">
    <ele>20.8</ele>
    <time>2026-08-11T13:15:42Z</time>
   </trkpt>
   <trkpt lat="22.7305220" lon="120.3321570">
    <ele>20.8</ele>
    <time>2026-08-11T13:15:49Z</time>
   </trkpt>
   <trkpt lat="22.7302710" lon="120.3319930">
    <ele>20.8</ele>
    <time>2026-08-11T13:18:55Z</time>
   </trkpt>
   <trkpt lat="22.7302700" lon="120.3319920">
    <ele>20.8</ele>
    <time>2026-08-11T13:18:56Z</time>
   </trkpt>
   <trkpt lat="22.7302680" lon="120.3319910">
    <ele>20.7</ele>
    <time>2026-08-11T13:18:57Z</time>
   </trkpt>
   <trkpt lat="22.7302670" lon="120.3319900">
    <ele>20.7</ele>
    <time>2026-08-11T13:18:58Z</time>
   </trkpt>
   <trkpt lat="22.7302370" lon="120.3319790">
    <ele>20.7</ele>
    <time>2026-08-11T13:18:59Z</time>
   </trkpt>
   <trkpt lat="22.7302080" lon="120.3319620">
    <ele>20.7</ele>
    <time>2026-08-11T13:19:00Z</time>
   </trkpt>
   <trkpt lat="22.7301760" lon="120.3319400">
    <ele>20.7</ele>
    <time>2026-08-11T13:19:01Z</time>
   </trkpt>
   <trkpt lat="22.7301480" lon="120.3319130">
    <ele>20.7</ele>
    <time>2026-08-11T13:19:02Z</time>
   </trkpt>
   <trkpt lat="22.7301230" lon="120.3318890">
    <ele>20.7</ele>
    <time>2026-08-11T13:19:03Z</time>
   </trkpt>
   <trkpt lat="22.7301010" lon="120.3318670">
    <ele>20.7</ele>
    <time>2026-08-11T13:19:04Z</time>
   </trkpt>
   <trkpt lat="22.7300850" lon="120.3318460">
    <ele>20.7</ele>
    <time>2026-08-11T13:19:05Z</time>
   </trkpt>
   <trkpt lat="22.7302500" lon="120.3319230">
    <ele>20.8</ele>
    <time>2026-08-11T13:19:06Z</time>
   </trkpt>
   <trkpt lat="22.7302360" lon="120.3319110">
    <ele>20.8</ele>
    <time>2026-08-11T13:19:07Z</time>
   </trkpt>
   <trkpt lat="22.7302240" lon="120.3318970">
    <ele>20.8</ele>
    <time>2026-08-11T13:19:08Z</time>
   </trkpt>
   <trkpt lat="22.7302080" lon="120.3318790">
    <ele>20.8</ele>
    <time>2026-08-11T13:19:09Z</time>
   </trkpt>
   <trkpt lat="22.7302020" lon="120.3318700">
    <ele>20.8</ele>
    <time>2026-08-11T13:19:10Z</time>
   </trkpt>
   <trkpt lat="22.7301970" lon="120.3318450">
    <ele>21.1</ele>
    <time>2026-08-11T13:19:11Z</time>
   </trkpt>
   <trkpt lat="22.7301970" lon="120.3318170">
    <ele>21.3</ele>
    <time>2026-08-11T13:19:12Z</time>
   </trkpt>
   <trkpt lat="22.7301960" lon="120.3317890">
    <ele>21.4</ele>
    <time>2026-08-11T13:19:13Z</time>
   </trkpt>
   <trkpt lat="22.7301960" lon="120.3317610">
    <ele>21.7</ele>
    <time>2026-08-11T13:19:14Z</time>
   </trkpt>
   <trkpt lat="22.7301950" lon="120.3317330">
    <ele>21.7</ele>
    <time>2026-08-11T13:19:15Z</time>
   </trkpt>
   <trkpt lat="22.7306840" lon="120.3318850">
    <ele>23.3</ele>
    <time>2026-08-11T13:19:16Z</time>
   </trkpt>
   <trkpt lat="22.7307080" lon="120.3318580">
    <ele>25.9</ele>
    <time>2026-08-11T13:19:17Z</time>
   </trkpt>
   <trkpt lat="22.7307750" lon="120.3317680">
    <ele>23.7</ele>
    <time>2026-08-11T13:19:18Z</time>
   </trkpt>
   <trkpt lat="22.7308500" lon="120.3316920">
    <ele>18.8</ele>
    <time>2026-08-11T13:19:19Z</time>
   </trkpt>
   <trkpt lat="22.7308390" lon="120.3317270">
    <ele>19.0</ele>
    <time>2026-08-11T13:19:20Z</time>
   </trkpt>
   <trkpt lat="22.7308270" lon="120.3317620">
    <ele>21.7</ele>
    <time>2026-08-11T13:19:21Z</time>
   </trkpt>
   <trkpt lat="22.7307840" lon="120.3318290">
    <ele>24.0</ele>
    <time>2026-08-11T13:19:22Z</time>
   </trkpt>
   <trkpt lat="22.7307350" lon="120.3319110">
    <ele>23.3</ele>
    <time>2026-08-11T13:19:23Z</time>
   </trkpt>
   <trkpt lat="22.7307330" lon="120.3319360">
    <ele>21.2</ele>
    <time>2026-08-11T13:19:24Z</time>
   </trkpt>
   <trkpt lat="22.7307010" lon="120.3320180">
    <ele>18.1</ele>
    <time>2026-08-11T13:19:25Z</time>
   </trkpt>
   <trkpt lat="22.7306200" lon="120.3321270">
    <ele>16.5</ele>
    <time>2026-08-11T13:19:26Z</time>
   </trkpt>
   <trkpt lat="22.7306030" lon="120.3321530">
    <ele>13.7</ele>
    <time>2026-08-11T13:19:27Z</time>
   </trkpt>
   <trkpt lat="22.7306320" lon="120.3321300">
    <ele>15.1</ele>
    <time>2026-08-11T13:19:28Z</time>
   </trkpt>
   <trkpt lat="22.7306030" lon="120.3321660">
    <ele>14.4</ele>
    <time>2026-08-11T13:19:29Z</time>
   </trkpt>
   <trkpt lat="22.7305290" lon="120.3322340">
    <ele>12.8</ele>
    <time>2026-08-11T13:19:30Z</time>
   </trkpt>
   <trkpt lat="22.7304070" lon="120.3323280">
    <ele>12.2</ele>
    <time>2026-08-11T13:19:31Z</time>
   </trkpt>
   <trkpt lat="22.7302240" lon="120.3324230">
    <ele>9.2</ele>
    <time>2026-08-11T13:19:32Z</time>
   </trkpt>
   <trkpt lat="22.7302040" lon="120.3324210">
    <ele>9.6</ele>
    <time>2026-08-11T13:19:33Z</time>
   </trkpt>
   <trkpt lat="22.7304510" lon="120.3321760">
    <ele>23.7</ele>
    <time>2026-08-11T13:19:34Z</time>
   </trkpt>
   <trkpt lat="22.7304140" lon="120.3321740">
    <ele>25.4</ele>
    <time>2026-08-11T13:19:35Z</time>
   </trkpt>
   <trkpt lat="22.7304470" lon="120.3321290">
    <ele>26.9</ele>
    <time>2026-08-11T13:19:36Z</time>
   </trkpt>
   <trkpt lat="22.7306220" lon="120.3319620">
    <ele>31.6</ele>
    <time>2026-08-11T13:19:37Z</time>
   </trkpt>
   <trkpt lat="22.7306130" lon="120.3319640">
    <ele>32.0</ele>
    <time>2026-08-11T13:19:38Z</time>
   </trkpt>
   <trkpt lat="22.7305780" lon="120.3319700">
    <ele>31.1</ele>
    <time>2026-08-11T13:19:39Z</time>
   </trkpt>
   <trkpt lat="22.7305970" lon="120.3319450">
    <ele>32.7</ele>
    <time>2026-08-11T13:19:40Z</time>
   </trkpt>
   <trkpt lat="22.7306160" lon="120.3319210">
    <ele>35.6</ele>
    <time>2026-08-11T13:19:41Z</time>
   </trkpt>
   <trkpt lat="22.7306040" lon="120.3319960">
    <ele>30.6</ele>
    <time>2026-08-11T13:19:42Z</time>
   </trkpt>
   <trkpt lat="22.7306040" lon="120.3319960">
    <ele>30.9</ele>
    <time>2026-08-11T13:19:43Z</time>
   </trkpt>
   <trkpt lat="22.7306040" lon="120.3319960">
    <ele>31.3</ele>
    <time>2026-08-11T13:19:44Z</time>
   </trkpt>
   <trkpt lat="22.7306060" lon="120.3319920">
    <ele>31.6</ele>
    <time>2026-08-11T13:19:45Z</time>
   </trkpt>
   <trkpt lat="22.7306060" lon="120.3319900">
    <ele>32.0</ele>
    <time>2026-08-11T13:19:46Z</time>
   </trkpt>
   <trkpt lat="22.7306070" lon="120.3319890">
    <ele>32.3</ele>
    <time>2026-08-11T13:19:47Z</time>
   </trkpt>
   <trkpt lat="22.7305900" lon="120.3320030">
    <ele>34.2</ele>
    <time>2026-08-11T13:19:48Z</time>
   </trkpt>
   <trkpt lat="22.7305680" lon="120.3320230">
    <ele>31.9</ele>
    <time>2026-08-11T13:19:49Z</time>
   </trkpt>
   <trkpt lat="22.7305550" lon="120.3320440">
    <ele>32.2</ele>
    <time>2026-08-11T13:19:50Z</time>
   </trkpt>
   <trkpt lat="22.7305420" lon="120.3320650">
    <ele>31.5</ele>
    <time>2026-08-11T13:19:51Z</time>
   </trkpt>
   <trkpt lat="22.7305290" lon="120.3320860">
    <ele>31.8</ele>
    <time>2026-08-11T13:19:52Z</time>
   </trkpt>
   <trkpt lat="22.7305120" lon="120.3320840">
    <ele>32.2</ele>
    <time>2026-08-11T13:19:53Z</time>
   </trkpt>
   <trkpt lat="22.7304880" lon="120.3321090">
    <ele>31.5</ele>
    <time>2026-08-11T13:19:54Z</time>
   </trkpt>
   <trkpt lat="22.7305060" lon="120.3321160">
    <ele>31.9</ele>
    <time>2026-08-11T13:19:55Z</time>
   </trkpt>
   <trkpt lat="22.7304910" lon="120.3321360">
    <ele>32.2</ele>
    <time>2026-08-11T13:19:56Z</time>
   </trkpt>
   <trkpt lat="22.7305220" lon="120.3321180">
    <ele>30.8</ele>
    <time>2026-08-11T13:19:57Z</time>
   </trkpt>
   <trkpt lat="22.7305410" lon="120.3321080">
    <ele>31.2</ele>
    <time>2026-08-11T13:19:58Z</time>
   </trkpt>
   <trkpt lat="22.7305450" lon="120.3321140">
    <ele>31.5</ele>
    <time>2026-08-11T13:19:59Z</time>
   </trkpt>
   <trkpt lat="22.7305460" lon="120.3321150">
    <ele>31.9</ele>
    <time>2026-08-11T13:20:00Z</time>
   </trkpt>
   <trkpt lat="22.7305650" lon="120.3320980">
    <ele>30.3</ele>
    <time>2026-08-11T13:20:01Z</time>
   </trkpt>
   <trkpt lat="22.7305470" lon="120.3321160">
    <ele>32.5</ele>
    <time>2026-08-11T13:20:02Z</time>
   </trkpt>
   <trkpt lat="22.7305410" lon="120.3321210">
    <ele>32.9</ele>
    <time>2026-08-11T13:20:03Z</time>
   </trkpt>
   <trkpt lat="22.7305090" lon="120.3321520">
    <ele>32.3</ele>
    <time>2026-08-11T13:20:04Z</time>
   </trkpt>
   <trkpt lat="22.7304640" lon="120.3321980">
    <ele>31.6</ele>
    <time>2026-08-11T13:20:05Z</time>
   </trkpt>
   <trkpt lat="22.7304150" lon="120.3322150">
    <ele>33.4</ele>
    <time>2026-08-11T13:20:06Z</time>
   </trkpt>
   <trkpt lat="22.7304550" lon="120.3321810">
    <ele>32.3</ele>
    <time>2026-08-11T13:20:07Z</time>
   </trkpt>
   <trkpt lat="22.7304410" lon="120.3321990">
    <ele>32.6</ele>
    <time>2026-08-11T13:20:08Z</time>
   </trkpt>
   <trkpt lat="22.7305120" lon="120.3321760">
    <ele>32.1</ele>
    <time>2026-08-11T13:20:09Z</time>
   </trkpt>
   <trkpt lat="22.7305830" lon="120.3321520">
    <ele>30.4</ele>
    <time>2026-08-11T13:20:10Z</time>
   </trkpt>
   <trkpt lat="22.7305130" lon="120.3322060">
    <ele>29.8</ele>
    <time>2026-08-11T13:20:11Z</time>
   </trkpt>
   <trkpt lat="22.7304220" lon="120.3323130">
    <ele>26.2</ele>
    <time>2026-08-11T13:20:12Z</time>
   </trkpt>
   <trkpt lat="22.7303300" lon="120.3324200">
    <ele>20.8</ele>
    <time>2026-08-11T13:20:13Z</time>
   </trkpt>
   <trkpt lat="22.7302900" lon="120.3324360">
    <ele>20.8</ele>
    <time>2026-08-11T13:20:14Z</time>
   </trkpt>
   <trkpt lat="22.7303270" lon="120.3323160">
    <ele>20.8</ele>
    <time>2026-08-11T13:20:15Z</time>
   </trkpt>
   <trkpt lat="22.7303000" lon="120.3322850">
    <ele>20.8</ele>
    <time>2026-08-11T13:20:16Z</time>
   </trkpt>
   <trkpt lat="22.7302490" lon="120.3322440">
    <ele>20.8</ele>
    <time>2026-08-11T13:20:17Z</time>
   </trkpt>
   <trkpt lat="22.7301760" lon="120.3321770">
    <ele>20.8</ele>
    <time>2026-08-11T13:20:18Z</time>
   </trkpt>
   <trkpt lat="22.7302660" lon="120.3320730">
    <ele>20.8</ele>
    <time>2026-08-11T13:20:19Z</time>
   </trkpt>
   <trkpt lat="22.7302420" lon="120.3321050">
    <ele>20.8</ele>
    <time>2026-08-11T13:20:20Z</time>
   </trkpt>
   <trkpt lat="22.7302100" lon="120.3320350">
    <ele>20.7</ele>
    <time>2026-08-11T13:20:21Z</time>
   </trkpt>
   <trkpt lat="22.7301780" lon="120.3319710">
    <ele>20.7</ele>
    <time>2026-08-11T13:20:22Z</time>
   </trkpt>
   <trkpt lat="22.7301470" lon="120.3318820">
    <ele>20.8</ele>
    <time>2026-08-11T13:20:23Z</time>
   </trkpt>
   <trkpt lat="22.7301000" lon="120.3318350">
    <ele>20.9</ele>
    <time>2026-08-11T13:20:24Z</time>
   </trkpt>
   <trkpt lat="22.7300700" lon="120.3317960">
    <ele>20.9</ele>
    <time>2026-08-11T13:20:25Z</time>
   </trkpt>
   <trkpt lat="22.7302440" lon="120.3321180">
    <ele>20.8</ele>
    <time>2026-08-11T13:20:27Z</time>
   </trkpt>
   <trkpt lat="22.7302760" lon="120.3321530">
    <ele>20.8</ele>
    <time>2026-08-11T13:20:28Z</time>
   </trkpt>
   <trkpt lat="22.7302870" lon="120.3321660">
    <ele>20.8</ele>
    <time>2026-08-11T13:20:29Z</time>
   </trkpt>
   <trkpt lat="22.7302980" lon="120.3321790">
    <ele>20.8</ele>
    <time>2026-08-11T13:20:30Z</time>
   </trkpt>
   <trkpt lat="22.7303090" lon="120.3321910">
    <ele>20.8</ele>
    <time>2026-08-11T13:20:31Z</time>
   </trkpt>
   <trkpt lat="22.7303200" lon="120.3322040">
    <ele>20.8</ele>
    <time>2026-08-11T13:20:32Z</time>
   </trkpt>
   <trkpt lat="22.7303190" lon="120.3322000">
    <ele>20.8</ele>
    <time>2026-08-11T13:20:33Z</time>
   </trkpt>
   <trkpt lat="22.7303320" lon="120.3321910">
    <ele>20.8</ele>
    <time>2026-08-11T13:20:34Z</time>
   </trkpt>
   <trkpt lat="22.7303430" lon="120.3321850">
    <ele>20.8</ele>
    <time>2026-08-11T13:20:35Z</time>
   </trkpt>
   <trkpt lat="22.7303440" lon="120.3321850">
    <ele>20.8</ele>
    <time>2026-08-11T13:20:36Z</time>
   </trkpt>
   <trkpt lat="22.7303420" lon="120.3321860">
    <ele>20.8</ele>
    <time>2026-08-11T13:20:37Z</time>
   </trkpt>
   <trkpt lat="22.7303460" lon="120.3321840">
    <ele>20.8</ele>
    <time>2026-08-11T13:20:38Z</time>
   </trkpt>
   <trkpt lat="22.7304080" lon="120.3320940">
    <ele>20.8</ele>
    <time>2026-08-11T13:22:29Z</time>
   </trkpt>
   <trkpt lat="22.7303990" lon="120.3320840">
    <ele>20.8</ele>
    <time>2026-08-11T13:22:30Z</time>
   </trkpt>
   <trkpt lat="22.7303920" lon="120.3320810">
    <ele>20.8</ele>
    <time>2026-08-11T13:22:31Z</time>
   </trkpt>
   <trkpt lat="22.7303820" lon="120.3320780">
    <ele>20.8</ele>
    <time>2026-08-11T13:22:32Z</time>
   </trkpt>
   <trkpt lat="22.7303710" lon="120.3320740">
    <ele>20.8</ele>
    <time>2026-08-11T13:22:33Z</time>
   </trkpt>
   <trkpt lat="22.7303550" lon="120.3320690">
    <ele>20.8</ele>
    <time>2026-08-11T13:22:34Z</time>
   </trkpt>
   <trkpt lat="22.7303320" lon="120.3320710">
    <ele>20.8</ele>
    <time>2026-08-11T13:22:35Z</time>
   </trkpt>
   <trkpt lat="22.7303230" lon="120.3320670">
    <ele>20.8</ele>
    <time>2026-08-11T13:22:36Z</time>
   </trkpt>
   <trkpt lat="22.7303110" lon="120.3320630">
    <ele>20.8</ele>
    <time>2026-08-11T13:22:37Z</time>
   </trkpt>
   <trkpt lat="22.7302960" lon="120.3320580">
    <ele>20.8</ele>
    <time>2026-08-11T13:22:38Z</time>
   </trkpt>
   <trkpt lat="22.7302820" lon="120.3320440">
    <ele>20.8</ele>
    <time>2026-08-11T13:22:39Z</time>
   </trkpt>
   <trkpt lat="22.7302700" lon="120.3320380">
    <ele>20.8</ele>
    <time>2026-08-11T13:22:40Z</time>
   </trkpt>
   <trkpt lat="22.7302670" lon="120.3320280">
    <ele>20.8</ele>
    <time>2026-08-11T13:22:41Z</time>
   </trkpt>
   <trkpt lat="22.7302680" lon="120.3320130">
    <ele>20.8</ele>
    <time>2026-08-11T13:22:42Z</time>
   </trkpt>
   <trkpt lat="22.7302720" lon="120.3320000">
    <ele>20.7</ele>
    <time>2026-08-11T13:22:43Z</time>
   </trkpt>
   <trkpt lat="22.7302690" lon="120.3319830">
    <ele>20.7</ele>
    <time>2026-08-11T13:22:44Z</time>
   </trkpt>
   <trkpt lat="22.7302660" lon="120.3319710">
    <ele>20.7</ele>
    <time>2026-08-11T13:22:45Z</time>
   </trkpt>
   <trkpt lat="22.7302630" lon="120.3319530">
    <ele>20.7</ele>
    <time>2026-08-11T13:22:46Z</time>
   </trkpt>
   <trkpt lat="22.7302600" lon="120.3319330">
    <ele>20.7</ele>
    <time>2026-08-11T13:22:47Z</time>
   </trkpt>
   <trkpt lat="22.7302570" lon="120.3319160">
    <ele>20.7</ele>
    <time>2026-08-11T13:22:48Z</time>
   </trkpt>
   <trkpt lat="22.7302490" lon="120.3319070">
    <ele>20.7</ele>
    <time>2026-08-11T13:22:49Z</time>
   </trkpt>
   <trkpt lat="22.7302390" lon="120.3318920">
    <ele>20.7</ele>
    <time>2026-08-11T13:22:50Z</time>
   </trkpt>
   <trkpt lat="22.7302220" lon="120.3318810">
    <ele>20.7</ele>
    <time>2026-08-11T13:22:51Z</time>
   </trkpt>
   <trkpt lat="22.7302050" lon="120.3318650">
    <ele>20.8</ele>
    <time>2026-08-11T13:22:52Z</time>
   </trkpt>
   <trkpt lat="22.7301910" lon="120.3318600">
    <ele>20.8</ele>
    <time>2026-08-11T13:22:53Z</time>
   </trkpt>
   <trkpt lat="22.7301820" lon="120.3318470">
    <ele>20.8</ele>
    <time>2026-08-11T13:22:54Z</time>
   </trkpt>
   <trkpt lat="22.7301780" lon="120.3318330">
    <ele>20.8</ele>
    <time>2026-08-11T13:22:55Z</time>
   </trkpt>
   <trkpt lat="22.7301660" lon="120.3318220">
    <ele>20.8</ele>
    <time>2026-08-11T13:22:56Z</time>
   </trkpt>
   <trkpt lat="22.7301560" lon="120.3318130">
    <ele>20.9</ele>
    <time>2026-08-11T13:22:57Z</time>
   </trkpt>
   <trkpt lat="22.7301490" lon="120.3317990">
    <ele>20.9</ele>
    <time>2026-08-11T13:22:58Z</time>
   </trkpt>
   <trkpt lat="22.7301410" lon="120.3317890">
    <ele>20.9</ele>
    <time>2026-08-11T13:22:59Z</time>
   </trkpt>
   <trkpt lat="22.7301310" lon="120.3317770">
    <ele>20.9</ele>
    <time>2026-08-11T13:23:00Z</time>
   </trkpt>
   <trkpt lat="22.7301270" lon="120.3317680">
    <ele>20.9</ele>
    <time>2026-08-11T13:23:01Z</time>
   </trkpt>
   <trkpt lat="22.7301230" lon="120.3317600">
    <ele>20.9</ele>
    <time>2026-08-11T13:23:02Z</time>
   </trkpt>
   <trkpt lat="22.7301220" lon="120.3317460">
    <ele>21.0</ele>
    <time>2026-08-11T13:23:03Z</time>
   </trkpt>
   <trkpt lat="22.7301100" lon="120.3317290">
    <ele>21.0</ele>
    <time>2026-08-11T13:23:04Z</time>
   </trkpt>
   <trkpt lat="22.7301060" lon="120.3317160">
    <ele>21.0</ele>
    <time>2026-08-11T13:23:05Z</time>
   </trkpt>
   <trkpt lat="22.7300990" lon="120.3317030">
    <ele>21.0</ele>
    <time>2026-08-11T13:23:06Z</time>
   </trkpt>
   <trkpt lat="22.7300920" lon="120.3316920">
    <ele>21.0</ele>
    <time>2026-08-11T13:23:07Z</time>
   </trkpt>
   <trkpt lat="22.7300830" lon="120.3316830">
    <ele>21.1</ele>
    <time>2026-08-11T13:23:08Z</time>
   </trkpt>
   <trkpt lat="22.7300760" lon="120.3316750">
    <ele>21.1</ele>
    <time>2026-08-11T13:23:09Z</time>
   </trkpt>
   <trkpt lat="22.7300730" lon="120.3316680">
    <ele>21.1</ele>
    <time>2026-08-11T13:23:10Z</time>
   </trkpt>
   <trkpt lat="22.7300640" lon="120.3316550">
    <ele>21.1</ele>
    <time>2026-08-11T13:23:11Z</time>
   </trkpt>
   <trkpt lat="22.7300630" lon="120.3316470">
    <ele>21.1</ele>
    <time>2026-08-11T13:23:12Z</time>
   </trkpt>
   <trkpt lat="22.7300600" lon="120.3316400">
    <ele>21.1</ele>
    <time>2026-08-11T13:23:13Z</time>
   </trkpt>
   <trkpt lat="22.7300590" lon="120.3316320">
    <ele>21.1</ele>
    <time>2026-08-11T13:23:14Z</time>
   </trkpt>
   <trkpt lat="22.7300490" lon="120.3316200">
    <ele>21.1</ele>
    <time>2026-08-11T13:23:15Z</time>
   </trkpt>
   <trkpt lat="22.7300440" lon="120.3316100">
    <ele>21.2</ele>
    <time>2026-08-11T13:23:16Z</time>
   </trkpt>
   <trkpt lat="22.7300390" lon="120.3316020">
    <ele>21.2</ele>
    <time>2026-08-11T13:23:17Z</time>
   </trkpt>
   <trkpt lat="22.7300320" lon="120.3315900">
    <ele>21.2</ele>
    <time>2026-08-11T13:23:18Z</time>
   </trkpt>
   <trkpt lat="22.7300270" lon="120.3315800">
    <ele>21.2</ele>
    <time>2026-08-11T13:23:19Z</time>
   </trkpt>
   <trkpt lat="22.7300240" lon="120.3315750">
    <ele>21.2</ele>
    <time>2026-08-11T13:23:20Z</time>
   </trkpt>
   <trkpt lat="22.7300170" lon="120.3315660">
    <ele>21.2</ele>
    <time>2026-08-11T13:23:21Z</time>
   </trkpt>
   <trkpt lat="22.7300080" lon="120.3315600">
    <ele>21.2</ele>
    <time>2026-08-11T13:23:22Z</time>
   </trkpt>
   <trkpt lat="22.7300020" lon="120.3315620">
    <ele>21.2</ele>
    <time>2026-08-11T13:23:23Z</time>
   </trkpt>
   <trkpt lat="22.7300030" lon="120.3315630">
    <ele>21.2</ele>
    <time>2026-08-11T13:23:24Z</time>
   </trkpt>
   <trkpt lat="22.7300020" lon="120.3315620">
    <ele>21.2</ele>
    <time>2026-08-11T13:23:25Z</time>
   </trkpt>
   <trkpt lat="22.7300010" lon="120.3315600">
    <ele>21.2</ele>
    <time>2026-08-11T13:23:26Z</time>
   </trkpt>
   <trkpt lat="22.7300010" lon="120.3315600">
    <ele>21.2</ele>
    <time>2026-08-11T13:23:27Z</time>
   </trkpt>
   <trkpt lat="22.7300010" lon="120.3315600">
    <ele>21.2</ele>
    <time>2026-08-11T13:23:28Z</time>
   </trkpt>
   <trkpt lat="22.7300030" lon="120.3315610">
    <ele>21.2</ele>
    <time>2026-08-11T13:23:29Z</time>
   </trkpt>
   <trkpt lat="22.7300030" lon="120.3315610">
    <ele>21.2</ele>
    <time>2026-08-11T13:23:30Z</time>
   </trkpt>
   <trkpt lat="22.7300030" lon="120.3315600">
    <ele>21.2</ele>
    <time>2026-08-11T13:23:31Z</time>
   </trkpt>
   <trkpt lat="22.7300040" lon="120.3315600">
    <ele>21.2</ele>
    <time>2026-08-11T13:23:32Z</time>
   </trkpt>
   <trkpt lat="22.7299670" lon="120.3315580">
    <ele>21.3</ele>
    <time>2026-08-11T13:23:56Z</time>
   </trkpt>
   <trkpt lat="22.7299710" lon="120.3315570">
    <ele>21.3</ele>
    <time>2026-08-11T13:23:57Z</time>
   </trkpt>
   <trkpt lat="22.7299740" lon="120.3315560">
    <ele>21.3</ele>
    <time>2026-08-11T13:23:58Z</time>
   </trkpt>
   <trkpt lat="22.7299710" lon="120.3315610">
    <ele>21.3</ele>
    <time>2026-08-11T13:23:59Z</time>
   </trkpt>
   <trkpt lat="22.7299720" lon="120.3315610">
    <ele>21.3</ele>
    <time>2026-08-11T13:24:00Z</time>
   </trkpt>
   <trkpt lat="22.7299760" lon="120.3315620">
    <ele>21.3</ele>
    <time>2026-08-11T13:24:01Z</time>
   </trkpt>
   <trkpt lat="22.7299780" lon="120.3315630">
    <ele>21.3</ele>
    <time>2026-08-11T13:24:02Z</time>
   </trkpt>
   <trkpt lat="22.7299800" lon="120.3315640">
    <ele>21.2</ele>
    <time>2026-08-11T13:24:03Z</time>
   </trkpt>
   <trkpt lat="22.7299810" lon="120.3315650">
    <ele>21.2</ele>
    <time>2026-08-11T13:24:04Z</time>
   </trkpt>
   <trkpt lat="22.7299810" lon="120.3315640">
    <ele>21.2</ele>
    <time>2026-08-11T13:24:05Z</time>
   </trkpt>
   <trkpt lat="22.7300310" lon="120.3315780">
    <ele>21.2</ele>
    <time>2026-08-11T13:24:16Z</time>
   </trkpt>
   <trkpt lat="22.7300330" lon="120.3315870">
    <ele>21.2</ele>
    <time>2026-08-11T13:24:17Z</time>
   </trkpt>
   <trkpt lat="22.7300350" lon="120.3316010">
    <ele>21.2</ele>
    <time>2026-08-11T13:24:18Z</time>
   </trkpt>
   <trkpt lat="22.7300380" lon="120.3316080">
    <ele>21.2</ele>
    <time>2026-08-11T13:24:19Z</time>
   </trkpt>
   <trkpt lat="22.7300420" lon="120.3316160">
    <ele>21.1</ele>
    <time>2026-08-11T13:24:20Z</time>
   </trkpt>
   <trkpt lat="22.7300500" lon="120.3316250">
    <ele>21.1</ele>
    <time>2026-08-11T13:24:21Z</time>
   </trkpt>
   <trkpt lat="22.7300540" lon="120.3316340">
    <ele>21.1</ele>
    <time>2026-08-11T13:24:22Z</time>
   </trkpt>
   <trkpt lat="22.7300590" lon="120.3316430">
    <ele>21.1</ele>
    <time>2026-08-11T13:24:23Z</time>
   </trkpt>
   <trkpt lat="22.7300670" lon="120.3316500">
    <ele>21.1</ele>
    <time>2026-08-11T13:24:24Z</time>
   </trkpt>
   <trkpt lat="22.7300720" lon="120.3316570">
    <ele>21.1</ele>
    <time>2026-08-11T13:24:25Z</time>
   </trkpt>
   <trkpt lat="22.7300780" lon="120.3316620">
    <ele>21.1</ele>
    <time>2026-08-11T13:24:26Z</time>
   </trkpt>
   <trkpt lat="22.7300870" lon="120.3316690">
    <ele>21.1</ele>
    <time>2026-08-11T13:24:27Z</time>
   </trkpt>
   <trkpt lat="22.7300930" lon="120.3316780">
    <ele>21.0</ele>
    <time>2026-08-11T13:24:28Z</time>
   </trkpt>
   <trkpt lat="22.7300970" lon="120.3316850">
    <ele>21.0</ele>
    <time>2026-08-11T13:24:29Z</time>
   </trkpt>
   <trkpt lat="22.7301030" lon="120.3316950">
    <ele>21.0</ele>
    <time>2026-08-11T13:24:30Z</time>
   </trkpt>
   <trkpt lat="22.7301110" lon="120.3317040">
    <ele>21.0</ele>
    <time>2026-08-11T13:24:31Z</time>
   </trkpt>
   <trkpt lat="22.7301170" lon="120.3317140">
    <ele>21.0</ele>
    <time>2026-08-11T13:24:32Z</time>
   </trkpt>
   <trkpt lat="22.7301240" lon="120.3317240">
    <ele>21.0</ele>
    <time>2026-08-11T13:24:33Z</time>
   </trkpt>
   <trkpt lat="22.7301340" lon="120.3317310">
    <ele>21.0</ele>
    <time>2026-08-11T13:24:34Z</time>
   </trkpt>
   <trkpt lat="22.7301390" lon="120.3317390">
    <ele>20.9</ele>
    <time>2026-08-11T13:24:35Z</time>
   </trkpt>
   <trkpt lat="22.7301440" lon="120.3317470">
    <ele>20.9</ele>
    <time>2026-08-11T13:24:36Z</time>
   </trkpt>
   <trkpt lat="22.7301470" lon="120.3317550">
    <ele>20.9</ele>
    <time>2026-08-11T13:24:37Z</time>
   </trkpt>
   <trkpt lat="22.7301500" lon="120.3317640">
    <ele>20.9</ele>
    <time>2026-08-11T13:24:38Z</time>
   </trkpt>
   <trkpt lat="22.7301580" lon="120.3317740">
    <ele>20.9</ele>
    <time>2026-08-11T13:24:39Z</time>
   </trkpt>
   <trkpt lat="22.7301630" lon="120.3317810">
    <ele>20.9</ele>
    <time>2026-08-11T13:24:40Z</time>
   </trkpt>
   <trkpt lat="22.7301690" lon="120.3317870">
    <ele>20.9</ele>
    <time>2026-08-11T13:24:41Z</time>
   </trkpt>
   <trkpt lat="22.7301780" lon="120.3317940">
    <ele>20.9</ele>
    <time>2026-08-11T13:24:42Z</time>
   </trkpt>
   <trkpt lat="22.7301840" lon="120.3318010">
    <ele>20.8</ele>
    <time>2026-08-11T13:24:43Z</time>
   </trkpt>
   <trkpt lat="22.7301880" lon="120.3318120">
    <ele>20.8</ele>
    <time>2026-08-11T13:24:44Z</time>
   </trkpt>
   <trkpt lat="22.7301940" lon="120.3318200">
    <ele>20.8</ele>
    <time>2026-08-11T13:24:45Z</time>
   </trkpt>
   <trkpt lat="22.7301960" lon="120.3318260">
    <ele>20.8</ele>
    <time>2026-08-11T13:24:46Z</time>
   </trkpt>
   <trkpt lat="22.7301980" lon="120.3318360">
    <ele>20.8</ele>
    <time>2026-08-11T13:24:47Z</time>
   </trkpt>
   <trkpt lat="22.7301970" lon="120.3318370">
    <ele>20.8</ele>
    <time>2026-08-11T13:24:48Z</time>
   </trkpt>
   <trkpt lat="22.7302000" lon="120.3318500">
    <ele>20.8</ele>
    <time>2026-08-11T13:24:49Z</time>
   </trkpt>
   <trkpt lat="22.7302010" lon="120.3318460">
    <ele>20.8</ele>
    <time>2026-08-11T13:24:50Z</time>
   </trkpt>
   <trkpt lat="22.7302080" lon="120.3318590">
    <ele>20.8</ele>
    <time>2026-08-11T13:24:51Z</time>
   </trkpt>
   <trkpt lat="22.7302180" lon="120.3318820">
    <ele>20.7</ele>
    <time>2026-08-11T13:24:52Z</time>
   </trkpt>
   <trkpt lat="22.7302220" lon="120.3318870">
    <ele>20.7</ele>
    <time>2026-08-11T13:24:53Z</time>
   </trkpt>
   <trkpt lat="22.7302230" lon="120.3318930">
    <ele>20.7</ele>
    <time>2026-08-11T13:24:54Z</time>
   </trkpt>
   <trkpt lat="22.7302230" lon="120.3319020">
    <ele>20.7</ele>
    <time>2026-08-11T13:24:55Z</time>
   </trkpt>
   <trkpt lat="22.7302250" lon="120.3319130">
    <ele>20.7</ele>
    <time>2026-08-11T13:24:56Z</time>
   </trkpt>
   <trkpt lat="22.7302340" lon="120.3319170">
    <ele>20.7</ele>
    <time>2026-08-11T13:24:57Z</time>
   </trkpt>
   <trkpt lat="22.7302410" lon="120.3319260">
    <ele>20.7</ele>
    <time>2026-08-11T13:24:58Z</time>
   </trkpt>
   <trkpt lat="22.7302450" lon="120.3319350">
    <ele>20.7</ele>
    <time>2026-08-11T13:24:59Z</time>
   </trkpt>
   <trkpt lat="22.7302370" lon="120.3319530">
    <ele>20.7</ele>
    <time>2026-08-11T13:25:00Z</time>
   </trkpt>
   <trkpt lat="22.7302420" lon="120.3319590">
    <ele>20.7</ele>
    <time>2026-08-11T13:25:01Z</time>
   </trkpt>
   <trkpt lat="22.7302480" lon="120.3319660">
    <ele>20.7</ele>
    <time>2026-08-11T13:25:02Z</time>
   </trkpt>
   <trkpt lat="22.7302540" lon="120.3319700">
    <ele>20.7</ele>
    <time>2026-08-11T13:25:03Z</time>
   </trkpt>
   <trkpt lat="22.7302620" lon="120.3319720">
    <ele>20.7</ele>
    <time>2026-08-11T13:25:04Z</time>
   </trkpt>
   <trkpt lat="22.7302710" lon="120.3319710">
    <ele>20.7</ele>
    <time>2026-08-11T13:25:05Z</time>
   </trkpt>
   <trkpt lat="22.7302840" lon="120.3319700">
    <ele>20.7</ele>
    <time>2026-08-11T13:25:06Z</time>
   </trkpt>
   <trkpt lat="22.7302960" lon="120.3319680">
    <ele>20.7</ele>
    <time>2026-08-11T13:25:07Z</time>
   </trkpt>
   <trkpt lat="22.7303040" lon="120.3319700">
    <ele>20.7</ele>
    <time>2026-08-11T13:25:08Z</time>
   </trkpt>
   <trkpt lat="22.7303090" lon="120.3319760">
    <ele>20.7</ele>
    <time>2026-08-11T13:25:09Z</time>
   </trkpt>
   <trkpt lat="22.7303130" lon="120.3319820">
    <ele>20.7</ele>
    <time>2026-08-11T13:25:10Z</time>
   </trkpt>
   <trkpt lat="22.7303210" lon="120.3319860">
    <ele>20.7</ele>
    <time>2026-08-11T13:25:11Z</time>
   </trkpt>
   <trkpt lat="22.7303280" lon="120.3319960">
    <ele>20.7</ele>
    <time>2026-08-11T13:25:12Z</time>
   </trkpt>
   <trkpt lat="22.7303330" lon="120.3320070">
    <ele>20.7</ele>
    <time>2026-08-11T13:25:13Z</time>
   </trkpt>
   <trkpt lat="22.7303390" lon="120.3320190">
    <ele>20.8</ele>
    <time>2026-08-11T13:25:14Z</time>
   </trkpt>
   <trkpt lat="22.7303420" lon="120.3320300">
    <ele>20.8</ele>
    <time>2026-08-11T13:25:15Z</time>
   </trkpt>
   <trkpt lat="22.7303480" lon="120.3320380">
    <ele>20.8</ele>
    <time>2026-08-11T13:25:16Z</time>
   </trkpt>
   <trkpt lat="22.7303510" lon="120.3320510">
    <ele>20.8</ele>
    <time>2026-08-11T13:25:17Z</time>
   </trkpt>
   <trkpt lat="22.7303540" lon="120.3320630">
    <ele>20.8</ele>
    <time>2026-08-11T13:25:18Z</time>
   </trkpt>
   <trkpt lat="22.7303620" lon="120.3320770">
    <ele>20.8</ele>
    <time>2026-08-11T13:25:19Z</time>
   </trkpt>
   <trkpt lat="22.7303640" lon="120.3320870">
    <ele>20.8</ele>
    <time>2026-08-11T13:25:20Z</time>
   </trkpt>
   <trkpt lat="22.7303670" lon="120.3320970">
    <ele>20.8</ele>
    <time>2026-08-11T13:25:21Z</time>
   </trkpt>
   <trkpt lat="22.7303710" lon="120.3321060">
    <ele>20.8</ele>
    <time>2026-08-11T13:25:22Z</time>
   </trkpt>
   <trkpt lat="22.7303720" lon="120.3321190">
    <ele>20.8</ele>
    <time>2026-08-11T13:25:23Z</time>
   </trkpt>
   <trkpt lat="22.7303750" lon="120.3321320">
    <ele>20.8</ele>
    <time>2026-08-11T13:25:24Z</time>
   </trkpt>
   <trkpt lat="22.7303780" lon="120.3321420">
    <ele>20.8</ele>
    <time>2026-08-11T13:25:25Z</time>
   </trkpt>
   <trkpt lat="22.7303810" lon="120.3321520">
    <ele>20.8</ele>
    <time>2026-08-11T13:25:26Z</time>
   </trkpt>
   <trkpt lat="22.7303930" lon="120.3321510">
    <ele>20.8</ele>
    <time>2026-08-11T13:25:27Z</time>
   </trkpt>
   <trkpt lat="22.7304020" lon="120.3321500">
    <ele>20.8</ele>
    <time>2026-08-11T13:25:28Z</time>
   </trkpt>
   <trkpt lat="22.7304140" lon="120.3321500">
    <ele>20.8</ele>
    <time>2026-08-11T13:25:29Z</time>
   </trkpt>
   <trkpt lat="22.7304210" lon="120.3321490">
    <ele>20.8</ele>
    <time>2026-08-11T13:25:30Z</time>
   </trkpt>
   <trkpt lat="22.7304260" lon="120.3321410">
    <ele>20.8</ele>
    <time>2026-08-11T13:25:31Z</time>
   </trkpt>
   <trkpt lat="22.7304270" lon="120.3321350">
    <ele>20.8</ele>
    <time>2026-08-11T13:25:32Z</time>
   </trkpt>
   <trkpt lat="22.7304290" lon="120.3321280">
    <ele>20.8</ele>
    <time>2026-08-11T13:25:33Z</time>
   </trkpt>
   <trkpt lat="22.7304290" lon="120.3321260">
    <ele>20.8</ele>
    <time>2026-08-11T13:25:34Z</time>
   </trkpt>
   <trkpt lat="22.7304320" lon="120.3321240">
    <ele>20.8</ele>
    <time>2026-08-11T13:25:35Z</time>
   </trkpt>
   <trkpt lat="22.7304340" lon="120.3321200">
    <ele>20.8</ele>
    <time>2026-08-11T13:25:36Z</time>
   </trkpt>
   <trkpt lat="22.7304370" lon="120.3321160">
    <ele>20.8</ele>
    <time>2026-08-11T13:25:37Z</time>
   </trkpt>
   <trkpt lat="22.7304290" lon="120.3321260">
    <ele>20.8</ele>
    <time>2026-08-11T13:25:38Z</time>
   </trkpt>
   <trkpt lat="22.7304330" lon="120.3321190">
    <ele>20.8</ele>
    <time>2026-08-11T13:25:39Z</time>
   </trkpt>
   <trkpt lat="22.7304060" lon="120.3320970">
    <ele>20.8</ele>
    <time>2026-08-11T13:28:31Z</time>
   </trkpt>
   <trkpt lat="22.7303830" lon="120.3320810">
    <ele>20.8</ele>
    <time>2026-08-11T13:28:32Z</time>
   </trkpt>
   <trkpt lat="22.7303650" lon="120.3320440">
    <ele>20.8</ele>
    <time>2026-08-11T13:28:33Z</time>
   </trkpt>
   <trkpt lat="22.7303430" lon="120.3320000">
    <ele>20.8</ele>
    <time>2026-08-11T13:28:34Z</time>
   </trkpt>
   <trkpt lat="22.7303350" lon="120.3319610">
    <ele>20.8</ele>
    <time>2026-08-11T13:28:35Z</time>
   </trkpt>
   <trkpt lat="22.7303170" lon="120.3319470">
    <ele>20.8</ele>
    <time>2026-08-11T13:28:36Z</time>
   </trkpt>
   <trkpt lat="22.7303070" lon="120.3319320">
    <ele>20.7</ele>
    <time>2026-08-11T13:28:37Z</time>
   </trkpt>
   <trkpt lat="22.7303010" lon="120.3319270">
    <ele>20.7</ele>
    <time>2026-08-11T13:28:38Z</time>
   </trkpt>
   <trkpt lat="22.7302950" lon="120.3319330">
    <ele>20.7</ele>
    <time>2026-08-11T13:28:39Z</time>
   </trkpt>
   <trkpt lat="22.7302960" lon="120.3319390">
    <ele>20.7</ele>
    <time>2026-08-11T13:28:40Z</time>
   </trkpt>
   <trkpt lat="22.7302950" lon="120.3319380">
    <ele>20.7</ele>
    <time>2026-08-11T13:28:41Z</time>
   </trkpt>
   <trkpt lat="22.7302960" lon="120.3319380">
    <ele>20.7</ele>
    <time>2026-08-11T13:28:42Z</time>
   </trkpt>
   <trkpt lat="22.7302960" lon="120.3319380">
    <ele>20.7</ele>
    <time>2026-08-11T13:28:43Z</time>
   </trkpt>
   <trkpt lat="22.7302950" lon="120.3319400">
    <ele>20.7</ele>
    <time>2026-08-11T13:28:44Z</time>
   </trkpt>
   <trkpt lat="22.7302950" lon="120.3319400">
    <ele>20.7</ele>
    <time>2026-08-11T13:28:45Z</time>
   </trkpt>
   <trkpt lat="22.7302950" lon="120.3319400">
    <ele>20.7</ele>
    <time>2026-08-11T13:28:46Z</time>
   </trkpt>
   <trkpt lat="22.7302950" lon="120.3319400">
    <ele>20.7</ele>
    <time>2026-08-11T13:28:47Z</time>
   </trkpt>
   <trkpt lat="22.7302950" lon="120.3319400">
    <ele>20.7</ele>
    <time>2026-08-11T13:28:48Z</time>
   </trkpt>
   <trkpt lat="22.7302820" lon="120.3318990">
    <ele>20.7</ele>
    <time>2026-08-11T13:29:00Z</time>
   </trkpt>
   <trkpt lat="22.7302760" lon="120.3318910">
    <ele>20.7</ele>
    <time>2026-08-11T13:29:01Z</time>
   </trkpt>
   <trkpt lat="22.7302690" lon="120.3318840">
    <ele>20.7</ele>
    <time>2026-08-11T13:29:02Z</time>
   </trkpt>
   <trkpt lat="22.7302590" lon="120.3318730">
    <ele>20.7</ele>
    <time>2026-08-11T13:29:03Z</time>
   </trkpt>
   <trkpt lat="22.7302430" lon="120.3318510">
    <ele>20.7</ele>
    <time>2026-08-11T13:29:04Z</time>
   </trkpt>
   <trkpt lat="22.7302210" lon="120.3318310">
    <ele>20.8</ele>
    <time>2026-08-11T13:29:05Z</time>
   </trkpt>
   <trkpt lat="22.7301940" lon="120.3318040">
    <ele>20.8</ele>
    <time>2026-08-11T13:29:06Z</time>
   </trkpt>
   <trkpt lat="22.7301710" lon="120.3317510">
    <ele>20.9</ele>
    <time>2026-08-11T13:29:07Z</time>
   </trkpt>
   <trkpt lat="22.7301490" lon="120.3317130">
    <ele>21.0</ele>
    <time>2026-08-11T13:29:08Z</time>
   </trkpt>
   <trkpt lat="22.7301400" lon="120.3316860">
    <ele>21.0</ele>
    <time>2026-08-11T13:29:09Z</time>
   </trkpt>
   <trkpt lat="22.7301230" lon="120.3316710">
    <ele>21.0</ele>
    <time>2026-08-11T13:29:10Z</time>
   </trkpt>
   <trkpt lat="22.7301120" lon="120.3316500">
    <ele>21.1</ele>
    <time>2026-08-11T13:29:11Z</time>
   </trkpt>
   <trkpt lat="22.7301050" lon="120.3316380">
    <ele>21.1</ele>
    <time>2026-08-11T13:29:12Z</time>
   </trkpt>
   <trkpt lat="22.7300890" lon="120.3316390">
    <ele>21.1</ele>
    <time>2026-08-11T13:29:13Z</time>
   </trkpt>
   <trkpt lat="22.7300900" lon="120.3316360">
    <ele>21.1</ele>
    <time>2026-08-11T13:29:14Z</time>
   </trkpt>
   <trkpt lat="22.7300880" lon="120.3316380">
    <ele>21.1</ele>
    <time>2026-08-11T13:29:15Z</time>
   </trkpt>
   <trkpt lat="22.7300870" lon="120.3316320">
    <ele>21.1</ele>
    <time>2026-08-11T13:29:16Z</time>
   </trkpt>
   <trkpt lat="22.7300820" lon="120.3316290">
    <ele>21.1</ele>
    <time>2026-08-11T13:29:17Z</time>
   </trkpt>
   <trkpt lat="22.7300820" lon="120.3316290">
    <ele>21.1</ele>
    <time>2026-08-11T13:29:18Z</time>
   </trkpt>
   <trkpt lat="22.7300820" lon="120.3316290">
    <ele>21.1</ele>
    <time>2026-08-11T13:29:19Z</time>
   </trkpt>
   <trkpt lat="22.7300740" lon="120.3316210">
    <ele>21.1</ele>
    <time>2026-08-11T13:29:20Z</time>
   </trkpt>
   <trkpt lat="22.7300740" lon="120.3316180">
    <ele>21.1</ele>
    <time>2026-08-11T13:29:21Z</time>
   </trkpt>
   <trkpt lat="22.7300720" lon="120.3316170">
    <ele>21.1</ele>
    <time>2026-08-11T13:29:22Z</time>
   </trkpt>
   <trkpt lat="22.7300730" lon="120.3316110">
    <ele>21.1</ele>
    <time>2026-08-11T13:29:23Z</time>
   </trkpt>
  </trkseg>
 </trk>
</gpx>
