<?xml version="1.0" encoding="UTF-8"?>
<gpx creator="StravaGPX" version="1.1" xmlns="http://www.topografix.com/GPX/1/1" xmlns:xsi="http://www.w3.org/2001/XMLSchema-instance" xsi:schemaLocation="http://www.topografix.com/GPX/1/1 http://www.topografix.com/GPX/1/1/gpx.xsd">
 <trk>
  <name>晚間跑步</name>
  <type>running</type>
  <trkseg>
   <trkpt lat="22.7292010" lon="120.3257800">
    <ele>32.0</ele>
   </trkpt>
   <trkpt lat="22.7292010" lon="120.3257800">
    <ele>32.0</ele>
   </trkpt>
   <trkpt lat="22.7292160" lon="120.3257810">
    <ele>29.5</ele>
   </trkpt>
   <trkpt lat="22.7292660" lon="120.3257860">
    <ele>26.2</ele>
   </trkpt>
   <trkpt lat="22.7292660" lon="120.3257860">
    <ele>26.2</ele>
   </trkpt>
   <trkpt lat="22.7291990" lon="120.3258330">
    <ele>29.3</ele>
   </trkpt>
   <trkpt lat="22.7291990" lon="120.3258330">
    <ele>29.3</ele>
   </trkpt>
   <trkpt lat="22.7291990" lon="120.3258330">
    <ele>29.3</ele>
   </trkpt>
   <trkpt lat="22.7291990" lon="120.3258330">
    <ele>29.3</ele>
   </trkpt>
   <trkpt lat="22.7292640" lon="120.3258330">
    <ele>25.5</ele>
   </trkpt>
   <trkpt lat="22.7291990" lon="120.3258330">
    <ele>29.3</ele>
   </trkpt>
   <trkpt lat="22.7291990" lon="120.3258330">
    <ele>29.3</ele>
   </trkpt>
   <trkpt lat="22.7291990" lon="120.3258330">
    <ele>29.3</ele>
   </trkpt>
   <trkpt lat="22.7291690" lon="120.3257580">
    <ele>32.0</ele>
   </trkpt>
   <trkpt lat="22.7291800" lon="120.3258350">
    <ele>29.3</ele>
   </trkpt>
   <trkpt lat="22.7292680" lon="120.3259540">
    <ele>24.6</ele>
   </trkpt>
   <trkpt lat="22.7293040" lon="120.3259330">
    <ele>24.0</ele>
   </trkpt>
   <trkpt lat="22.7293060" lon="120.3259320">
    <ele>24.0</ele>
   </trkpt>
   <trkpt lat="22.7293500" lon="120.3259060">
    <ele>23.2</ele>
   </trkpt>
   <trkpt lat="22.7294120" lon="120.3258690">
    <ele>20.5</ele>
   </trkpt>
   <trkpt lat="22.7294130" lon="120.3258690">
    <ele>20.5</ele>
   </trkpt>
   <trkpt lat="22.7294140" lon="120.3258680">
    <ele>20.5</ele>
   </trkpt>
   <trkpt lat="22.7294150" lon="120.3258680">
    <ele>20.5</ele>
   </trkpt>
   <trkpt lat="22.7294160" lon="120.3258670">
    <ele>20.5</ele>
   </trkpt>
   <trkpt lat="22.7293950" lon="120.3258290">
    <ele>21.7</ele>
   </trkpt>
   <trkpt lat="22.7293550" lon="120.3257980">
    <ele>22.7</ele>
   </trkpt>
   <trkpt lat="22.7293210" lon="120.3257860">
    <ele>24.3</ele>
   </trkpt>
   <trkpt lat="22.7292860" lon="120.3257750">
    <ele>24.7</ele>
   </trkpt>
   <trkpt lat="22.7292340" lon="120.3257310">
    <ele>30.6</ele>
   </trkpt>
   <trkpt lat="22.7292190" lon="120.3257320">
    <ele>30.6</ele>
   </trkpt>
   <trkpt lat="22.7292370" lon="120.3257300">
    <ele>30.6</ele>
   </trkpt>
   <trkpt lat="22.7292370" lon="120.3257300">
    <ele>30.6</ele>
   </trkpt>
   <trkpt lat="22.7292140" lon="120.3257070">
    <ele>30.6</ele>
   </trkpt>
   <trkpt lat="22.7292280" lon="120.3257100">
    <ele>30.6</ele>
   </trkpt>
   <trkpt lat="22.7291990" lon="120.3257050">
    <ele>33.2</ele>
   </trkpt>
   <trkpt lat="22.7291870" lon="120.3257100">
    <ele>33.2</ele>
   </trkpt>
   <trkpt lat="22.7291870" lon="120.3257100">
    <ele>33.2</ele>
   </trkpt>
   <trkpt lat="22.7291710" lon="120.3257110">
    <ele>33.2</ele>
   </trkpt>
   <trkpt lat="22.7291690" lon="120.3257140">
    <ele>33.2</ele>
   </trkpt>
   <trkpt lat="22.7291850" lon="120.3257500">
    <ele>32.0</ele>
   </trkpt>
   <trkpt lat="22.7291850" lon="120.3257500">
    <ele>32.0</ele>
   </trkpt>
   <trkpt lat="22.7292020" lon="120.3257610">
    <ele>32.0</ele>
   </trkpt>
   <trkpt lat="22.7292240" lon="120.3257810">
    <ele>29.5</ele>
   </trkpt>
   <trkpt lat="22.7292270" lon="120.3257780">
    <ele>29.5</ele>
   </trkpt>
   <trkpt lat="22.7292230" lon="120.3257680">
    <ele>29.5</ele>
   </trkpt>
   <trkpt lat="22.7292160" lon="120.3257620">
    <ele>29.5</ele>
   </trkpt>
   <trkpt lat="22.7292060" lon="120.3257590">
    <ele>29.5</ele>
   </trkpt>
   <trkpt lat="22.7292060" lon="120.3257590">
    <ele>29.5</ele>
   </trkpt>
   <trkpt lat="22.7291960" lon="120.3257650">
    <ele>32.0</ele>
   </trkpt>
   <trkpt lat="22.7291680" lon="120.3257400">
    <ele>33.2</ele>
   </trkpt>
   <trkpt lat="22.7291680" lon="120.3257400">
    <ele>33.2</ele>
   </trkpt>
   <trkpt lat="22.7291570" lon="120.3257160">
    <ele>35.5</ele>
   </trkpt>
   <trkpt lat="22.7291350" lon="120.3256860">
    <ele>36.3</ele>
   </trkpt>
   <trkpt lat="22.7290990" lon="120.3256470">
    <ele>38.0</ele>
   </trkpt>
   <trkpt lat="22.7291290" lon="120.3256600">
    <ele>36.3</ele>
   </trkpt>
   <trkpt lat="22.7291290" lon="120.3256470">
    <ele>36.7</ele>
   </trkpt>
   <trkpt lat="22.7291300" lon="120.3256330">
    <ele>36.7</ele>
   </trkpt>
   <trkpt lat="22.7291300" lon="120.3256200">
    <ele>36.7</ele>
   </trkpt>
   <trkpt lat="22.7291300" lon="120.3256060">
    <ele>36.3</ele>
   </trkpt>
   <trkpt lat="22.7291310" lon="120.3255930">
    <ele>36.3</ele>
   </trkpt>
   <trkpt lat="22.7291310" lon="120.3255790">
    <ele>36.3</ele>
   </trkpt>
   <trkpt lat="22.7291060" lon="120.3255570">
    <ele>36.1</ele>
   </trkpt>
   <trkpt lat="22.7290800" lon="120.3255340">
    <ele>36.3</ele>
   </trkpt>
   <trkpt lat="22.7290610" lon="120.3255140">
    <ele>34.5</ele>
   </trkpt>
   <trkpt lat="22.7290420" lon="120.3254930">
    <ele>34.0</ele>
   </trkpt>
   <trkpt lat="22.7290230" lon="120.3254730">
    <ele>32.0</ele>
   </trkpt>
   <trkpt lat="22.7290040" lon="120.3254520">
    <ele>31.4</ele>
   </trkpt>
   <trkpt lat="22.7291290" lon="120.3255840">
    <ele>36.3</ele>
   </trkpt>
   <trkpt lat="22.7291610" lon="120.3256170">
    <ele>36.7</ele>
   </trkpt>
   <trkpt lat="22.7291920" lon="120.3256490">
    <ele>34.7</ele>
   </trkpt>
   <trkpt lat="22.7292230" lon="120.3256820">
    <ele>31.6</ele>
   </trkpt>
   <trkpt lat="22.7292540" lon="120.3257150">
    <ele>27.9</ele>
   </trkpt>
   <trkpt lat="22.7292860" lon="120.3257480">
    <ele>24.7</ele>
   </trkpt>
   <trkpt lat="22.7293170" lon="120.3257810">
    <ele>24.7</ele>
   </trkpt>
   <trkpt lat="22.7292980" lon="120.3257820">
    <ele>24.7</ele>
   </trkpt>
   <trkpt lat="22.7292780" lon="120.3257820">
    <ele>27.0</ele>
   </trkpt>
   <trkpt lat="22.7293170" lon="120.3257810">
    <ele>24.7</ele>
   </trkpt>
   <trkpt lat="22.7292720" lon="120.3257520">
    <ele>27.0</ele>
   </trkpt>
   <trkpt lat="22.7292260" lon="120.3257230">
    <ele>30.6</ele>
   </trkpt>
   <trkpt lat="22.7291810" lon="120.3256940">
    <ele>34.2</ele>
   </trkpt>
   <trkpt lat="22.7291900" lon="120.3256940">
    <ele>34.2</ele>
   </trkpt>
   <trkpt lat="22.7291820" lon="120.3256900">
    <ele>34.2</ele>
   </trkpt>
   <trkpt lat="22.7291730" lon="120.3256780">
    <ele>34.2</ele>
   </trkpt>
   <trkpt lat="22.7291930" lon="120.3256840">
    <ele>34.2</ele>
   </trkpt>
   <trkpt lat="22.7292280" lon="120.3257130">
    <ele>30.6</ele>
   </trkpt>
   <trkpt lat="22.7292430" lon="120.3257290">
    <ele>30.6</ele>
   </trkpt>
   <trkpt lat="22.7292580" lon="120.3257460">
    <ele>27.0</ele>
   </trkpt>
   <trkpt lat="22.7292730" lon="120.3257620">
    <ele>27.0</ele>
   </trkpt>
   <trkpt lat="22.7292880" lon="120.3257780">
    <ele>24.7</ele>
   </trkpt>
   <trkpt lat="22.7293000" lon="120.3257110">
    <ele>25.1</ele>
   </trkpt>
   <trkpt lat="22.7293110" lon="120.3256440">
    <ele>25.8</ele>
   </trkpt>
   <trkpt lat="22.7293230" lon="120.3255770">
    <ele>25.7</ele>
   </trkpt>
   <trkpt lat="22.7285630" lon="120.3251410">
    <ele>19.2</ele>
   </trkpt>
   <trkpt lat="22.7285490" lon="120.3252130">
    <ele>19.6</ele>
   </trkpt>
   <trkpt lat="22.7285340" lon="120.3252850">
    <ele>20.6</ele>
   </trkpt>
   <trkpt lat="22.7286980" lon="120.3254270">
    <ele>25.0</ele>
   </trkpt>
   <trkpt lat="22.7289320" lon="120.3257330">
    <ele>38.8</ele>
   </trkpt>
   <trkpt lat="22.7290690" lon="120.3258220">
    <ele>37.1</ele>
   </trkpt>
   <trkpt lat="22.7291750" lon="120.3258900">
    <ele>28.2</ele>
   </trkpt>
   <trkpt lat="22.7291780" lon="120.3258990">
    <ele>28.2</ele>
   </trkpt>
   <trkpt lat="22.7291870" lon="120.3259020">
    <ele>28.2</ele>
   </trkpt>
   <trkpt lat="22.7292110" lon="120.3258780">
    <ele>26.4</ele>
   </trkpt>
   <trkpt lat="22.7292020" lon="120.3258490">
    <ele>29.3</ele>
   </trkpt>
   <trkpt lat="22.7292160" lon="120.3258430">
    <ele>27.3</ele>
   </trkpt>
   <trkpt lat="22.7292270" lon="120.3258500">
    <ele>27.3</ele>
   </trkpt>
   <trkpt lat="22.7292510" lon="120.3258370">
    <ele>25.5</ele>
   </trkpt>
   <trkpt lat="22.7292480" lon="120.3258310">
    <ele>25.5</ele>
   </trkpt>
   <trkpt lat="22.7292510" lon="120.3258150">
    <ele>26.2</ele>
   </trkpt>
   <trkpt lat="22.7292610" lon="120.3258080">
    <ele>26.2</ele>
   </trkpt>
   <trkpt lat="22.7292580" lon="120.3258100">
    <ele>26.2</ele>
   </trkpt>
   <trkpt lat="22.7292580" lon="120.3258100">
    <ele>26.2</ele>
   </trkpt>
   <trkpt lat="22.7292640" lon="120.3258250">
    <ele>26.2</ele>
   </trkpt>
   <trkpt lat="22.7292680" lon="120.3258270">
    <ele>26.2</ele>
   </trkpt>
   <trkpt lat="22.7292890" lon="120.3258300">
    <ele>24.1</ele>
   </trkpt>
   <trkpt lat="22.7292890" lon="120.3258260">
    <ele>24.3</ele>
   </trkpt>
   <trkpt lat="22.7293160" lon="120.3258180">
    <ele>24.3</ele>
   </trkpt>
   <trkpt lat="22.7293280" lon="120.3258280">
    <ele>22.9</ele>
   </trkpt>
   <trkpt lat="22.7293260" lon="120.3258270">
    <ele>22.7</ele>
   </trkpt>
   <trkpt lat="22.7293140" lon="120.3258430">
    <ele>24.1</ele>
   </trkpt>
   <trkpt lat="22.7293160" lon="120.3258480">
    <ele>24.1</ele>
   </trkpt>
   <trkpt lat="22.7293150" lon="120.3258470">
    <ele>24.1</ele>
   </trkpt>
   <trkpt lat="22.7293360" lon="120.3258270">
    <ele>22.7</ele>
   </trkpt>
   <trkpt lat="22.7293370" lon="120.3258230">
    <ele>22.7</ele>
   </trkpt>
   <trkpt lat="22.7293390" lon="120.3258220">
    <ele>22.7</ele>
   </trkpt>
   <trkpt lat="22.7293410" lon="120.3258210">
    <ele>22.7</ele>
   </trkpt>
   <trkpt lat="22.7291990" lon="120.3258330">
    <ele>29.3</ele>
   </trkpt>
   <trkpt lat="22.7292710" lon="120.3258040">
    <ele>26.2</ele>
   </trkpt>
   <trkpt lat="22.7293200" lon="120.3258080">
    <ele>24.3</ele>
   </trkpt>
   <trkpt lat="22.7293050" lon="120.3258310">
    <ele>24.1</ele>
   </trkpt>
   <trkpt lat="22.7293180" lon="120.3257980">
    <ele>24.3</ele>
   </trkpt>
   <trkpt lat="22.7293220" lon="120.3257610">
    <ele>24.7</ele>
   </trkpt>
   <trkpt lat="22.7293410" lon="120.3257340">
    <ele>22.5</ele>
   </trkpt>
   <trkpt lat="22.7293840" lon="120.3257210">
    <ele>20.1</ele>
   </trkpt>
   <trkpt lat="22.7293880" lon="120.3257280">
    <ele>20.1</ele>
   </trkpt>
   <trkpt lat="22.7293830" lon="120.3257000">
    <ele>20.1</ele>
   </trkpt>
   <trkpt lat="22.7293690" lon="120.3257080">
    <ele>20.1</ele>
   </trkpt>
   <trkpt lat="22.7293540" lon="120.3257170">
    <ele>22.5</ele>
   </trkpt>
   <trkpt lat="22.7293400" lon="120.3257260">
    <ele>22.5</ele>
   </trkpt>
   <trkpt lat="22.7293250" lon="120.3257340">
    <ele>22.5</ele>
   </trkpt>
   <trkpt lat="22.7293000" lon="120.3257160">
    <ele>25.1</ele>
   </trkpt>
   <trkpt lat="22.7292740" lon="120.3256970">
    <ele>28.6</ele>
   </trkpt>
   <trkpt lat="22.7292730" lon="120.3256970">
    <ele>28.6</ele>
   </trkpt>
   <trkpt lat="22.7292620" lon="120.3256940">
    <ele>28.6</ele>
   </trkpt>
   <trkpt lat="22.7292470" lon="120.3256840">
    <ele>28.6</ele>
   </trkpt>
   <trkpt lat="22.7292720" lon="120.3256960">
    <ele>28.6</ele>
   </trkpt>
   <trkpt lat="22.7292600" lon="120.3256870">
    <ele>28.6</ele>
   </trkpt>
   <trkpt lat="22.7292710" lon="120.3256880">
    <ele>28.6</ele>
   </trkpt>
   <trkpt lat="22.7292840" lon="120.3256870">
    <ele>28.6</ele>
   </trkpt>
   <trkpt lat="22.7292870" lon="120.3256920">
    <ele>25.5</ele>
   </trkpt>
   <trkpt lat="22.7293170" lon="120.3257040">
    <ele>25.1</ele>
   </trkpt>
   <trkpt lat="22.7293360" lon="120.3257040">
    <ele>22.5</ele>
   </trkpt>
   <trkpt lat="22.7293530" lon="120.3257060">
    <ele>22.5</ele>
   </trkpt>
   <trkpt lat="22.7293750" lon="120.3257110">
    <ele>20.1</ele>
   </trkpt>
   <trkpt lat="22.7293450" lon="120.3257100">
    <ele>22.5</ele>
   </trkpt>
   <trkpt lat="22.7293360" lon="120.3257080">
    <ele>22.5</ele>
   </trkpt>
   <trkpt lat="22.7293100" lon="120.3256970">
    <ele>25.5</ele>
   </trkpt>
   <trkpt lat="22.7293080" lon="120.3256990">
    <ele>25.1</ele>
   </trkpt>
   <trkpt lat="22.7293020" lon="120.3256990">
    <ele>25.1</ele>
   </trkpt>
   <trkpt lat="22.7293070" lon="120.3257150">
    <ele>25.1</ele>
   </trkpt>
   <trkpt lat="22.7293030" lon="120.3257280">
    <ele>25.1</ele>
   </trkpt>
   <trkpt lat="22.7293010" lon="120.3257360">
    <ele>25.1</ele>
   </trkpt>
   <trkpt lat="22.7292970" lon="120.3257470">
    <ele>24.7</ele>
   </trkpt>
   <trkpt lat="22.7292870" lon="120.3257460">
    <ele>24.7</ele>
   </trkpt>
   <trkpt lat="22.7292680" lon="120.3257390">
    <ele>27.9</ele>
   </trkpt>
   <trkpt lat="22.7292550" lon="120.3257330">
    <ele>27.9</ele>
   </trkpt>
   <trkpt lat="22.7292450" lon="120.3257230">
    <ele>27.9</ele>
   </trkpt>
   <trkpt lat="22.7292370" lon="120.3257200">
    <ele>30.6</ele>
   </trkpt>
   <trkpt lat="22.7292370" lon="120.3257180">
    <ele>30.6</ele>
   </trkpt>
   <trkpt lat="22.7292260" lon="120.3257130">
    <ele>30.6</ele>
   </trkpt>
   <trkpt lat="22.7292160" lon="120.3256930">
    <ele>31.6</ele>
   </trkpt>
   <trkpt lat="22.7292160" lon="120.3256970">
    <ele>31.6</ele>
   </trkpt>
   <trkpt lat="22.7292090" lon="120.3257050">
    <ele>30.6</ele>
   </trkpt>
   <trkpt lat="22.7292070" lon="120.3257220">
    <ele>30.6</ele>
   </trkpt>
   <trkpt lat="22.7292140" lon="120.3257190">
    <ele>30.6</ele>
   </trkpt>
   <trkpt lat="22.7292360" lon="120.3257390">
    <ele>30.6</ele>
   </trkpt>
   <trkpt lat="22.7292430" lon="120.3257430">
    <ele>29.5</ele>
   </trkpt>
   <trkpt lat="22.7292350" lon="120.3257370">
    <ele>30.6</ele>
   </trkpt>
   <trkpt lat="22.7292270" lon="120.3257490">
    <ele>29.5</ele>
   </trkpt>
   <trkpt lat="22.7292130" lon="120.3257560">
    <ele>29.5</ele>
   </trkpt>
   <trkpt lat="22.7292120" lon="120.3257570">
    <ele>29.5</ele>
   </trkpt>
   <trkpt lat="22.7292290" lon="120.3257640">
    <ele>29.5</ele>
   </trkpt>
   <trkpt lat="22.7292230" lon="120.3257550">
    <ele>29.5</ele>
   </trkpt>
   <trkpt lat="22.7292060" lon="120.3257490">
    <ele>29.5</ele>
   </trkpt>
   <trkpt lat="22.7292070" lon="120.3257500">
    <ele>29.5</ele>
   </trkpt>
   <trkpt lat="22.7292070" lon="120.3257500">
    <ele>29.5</ele>
   </trkpt>
   <trkpt lat="22.7292100" lon="120.3257540">
    <ele>29.5</ele>
   </trkpt>
   <trkpt lat="22.7292090" lon="120.3257560">
    <ele>29.5</ele>
   </trkpt>
   <trkpt lat="22.7292080" lon="120.3257550">
    <ele>29.5</ele>
   </trkpt>
   <trkpt lat="22.7292080" lon="120.3257550">
    <ele>29.5</ele>
   </trkpt>
   <trkpt lat="22.7292070" lon="120.3257540">
    <ele>29.5</ele>
   </trkpt>
   <trkpt lat="22.7292070" lon="120.3257540">
    <ele>29.5</ele>
   </trkpt>
   <trkpt lat="22.7292080" lon="120.3257570">
    <ele>29.5</ele>
   </trkpt>
   <trkpt lat="22.7292090" lon="120.3257580">
    <ele>29.5</ele>
   </trkpt>
  </trkseg>
 </trk>
</gpx>
