<?xml version="1.0" encoding="UTF-8"?>
<gpx creator="StravaGPX" version="1.1" xmlns="http://www.topografix.com/GPX/1/1" xmlns:xsi="http://www.w3.org/2001/XMLSchema-instance" xsi:schemaLocation="http://www.topografix.com/GPX/1/1 http://www.topografix.com/GPX/1/1/gpx.xsd">
 <metadata>
  <time>2026-08-20T08:45:04Z</time>
 </metadata>
 <trk>
  <name>午後電動自行車騎乘</name>
  <type>ebikeride</type>
  <trkseg>
   <trkpt lat="22.7362820" lon="120.3369120">
    <ele>20.8</ele>
    <time>2026-08-20T08:45:04Z</time>
   </trkpt>
   <trkpt lat="22.7362820" lon="120.3369120">
    <ele>20.8</ele>
    <time>2026-08-20T08:45:05Z</time>
   </trkpt>
   <trkpt lat="22.7362820" lon="120.3369100">
    <ele>20.8</ele>
    <time>2026-08-20T08:45:06Z</time>
   </trkpt>
   <trkpt lat="22.7362770" lon="120.3369170">
    <ele>20.8</ele>
    <time>2026-08-20T08:45:07Z</time>
   </trkpt>
   <trkpt lat="22.7362750" lon="120.3369260">
    <ele>20.7</ele>
    <time>2026-08-20T08:45:08Z</time>
   </trkpt>
   <trkpt lat="22.7362760" lon="120.3369290">
    <ele>20.7</ele>
    <time>2026-08-20T08:45:09Z</time>
   </trkpt>
   <trkpt lat="22.7362750" lon="120.3369290">
    <ele>20.7</ele>
    <time>2026-08-20T08:45:10Z</time>
   </trkpt>
   <trkpt lat="22.7362850" lon="120.3369440">
    <ele>20.7</ele>
    <time>2026-08-20T08:45:11Z</time>
   </trkpt>
   <trkpt lat="22.7363250" lon="120.3369560">
    <ele>20.7</ele>
    <time>2026-08-20T08:45:12Z</time>
   </trkpt>
   <trkpt lat="22.7363670" lon="120.3369610">
    <ele>20.7</ele>
    <time>2026-08-20T08:45:13Z</time>
   </trkpt>
   <trkpt lat="22.7364020" lon="120.3369670">
    <ele>20.7</ele>
    <time>2026-08-20T08:45:14Z</time>
   </trkpt>
   <trkpt lat="22.7364430" lon="120.3369800">
    <ele>20.7</ele>
    <time>2026-08-20T08:45:15Z</time>
   </trkpt>
   <trkpt lat="22.7364780" lon="120.3369900">
    <ele>20.7</ele>
    <time>2026-08-20T08:45:16Z</time>
   </trkpt>
   <trkpt lat="22.7365130" lon="120.3369990">
    <ele>20.7</ele>
    <time>2026-08-20T08:45:17Z</time>
   </trkpt>
   <trkpt lat="22.7365500" lon="120.3370090">
    <ele>20.7</ele>
    <time>2026-08-20T08:45:18Z</time>
   </trkpt>
   <trkpt lat="22.7365870" lon="120.3370170">
    <ele>20.7</ele>
    <time>2026-08-20T08:45:19Z</time>
   </trkpt>
   <trkpt lat="22.7366260" lon="120.3370250">
    <ele>20.6</ele>
    <time>2026-08-20T08:45:20Z</time>
   </trkpt>
   <trkpt lat="22.7366700" lon="120.3370330">
    <ele>20.6</ele>
    <time>2026-08-20T08:45:21Z</time>
   </trkpt>
   <trkpt lat="22.7367150" lon="120.3370600">
    <ele>20.6</ele>
    <time>2026-08-20T08:45:22Z</time>
   </trkpt>
   <trkpt lat="22.7367680" lon="120.3370730">
    <ele>20.5</ele>
    <time>2026-08-20T08:45:23Z</time>
   </trkpt>
   <trkpt lat="22.7368160" lon="120.3370850">
    <ele>20.5</ele>
    <time>2026-08-20T08:45:24Z</time>
   </trkpt>
   <trkpt lat="22.7368530" lon="120.3371120">
    <ele>20.5</ele>
    <time>2026-08-20T08:45:25Z</time>
   </trkpt>
   <trkpt lat="22.7368850" lon="120.3371290">
    <ele>20.5</ele>
    <time>2026-08-20T08:45:26Z</time>
   </trkpt>
   <trkpt lat="22.7368980" lon="120.3371380">
    <ele>20.5</ele>
    <time>2026-08-20T08:45:27Z</time>
   </trkpt>
   <trkpt lat="22.7369390" lon="120.3371280">
    <ele>20.5</ele>
    <time>2026-08-20T08:45:28Z</time>
   </trkpt>
   <trkpt lat="22.7369590" lon="120.3371320">
    <ele>20.5</ele>
    <time>2026-08-20T08:45:29Z</time>
   </trkpt>
   <trkpt lat="22.7369790" lon="120.3371360">
    <ele>20.5</ele>
    <time>2026-08-20T08:45:30Z</time>
   </trkpt>
   <trkpt lat="22.7370370" lon="120.3371510">
    <ele>20.5</ele>
    <time>2026-08-20T08:45:31Z</time>
   </trkpt>
   <trkpt lat="22.7370860" lon="120.3371650">
    <ele>20.6</ele>
    <time>2026-08-20T08:45:32Z</time>
   </trkpt>
   <trkpt lat="22.7371170" lon="120.3372010">
    <ele>20.6</ele>
    <time>2026-08-20T08:45:33Z</time>
   </trkpt>
   <trkpt lat="22.7371620" lon="120.3372070">
    <ele>20.6</ele>
    <time>2026-08-20T08:45:34Z</time>
   </trkpt>
   <trkpt lat="22.7371570" lon="120.3372600">
    <ele>21.4</ele>
    <time>2026-08-20T08:45:35Z</time>
   </trkpt>
   <trkpt lat="22.7371410" lon="120.3373090">
    <ele>22.2</ele>
    <time>2026-08-20T08:45:36Z</time>
   </trkpt>
   <trkpt lat="22.7371080" lon="120.3373830">
    <ele>23.4</ele>
    <time>2026-08-20T08:45:37Z</time>
   </trkpt>
   <trkpt lat="22.7370990" lon="120.3374600">
    <ele>24.5</ele>
    <time>2026-08-20T08:45:38Z</time>
   </trkpt>
   <trkpt lat="22.7370780" lon="120.3375360">
    <ele>25.6</ele>
    <time>2026-08-20T08:45:39Z</time>
   </trkpt>
   <trkpt lat="22.7370590" lon="120.3376060">
    <ele>26.7</ele>
    <time>2026-08-20T08:45:40Z</time>
   </trkpt>
   <trkpt lat="22.7370410" lon="120.3376770">
    <ele>28.1</ele>
    <time>2026-08-20T08:45:41Z</time>
   </trkpt>
   <trkpt lat="22.7370230" lon="120.3377300">
    <ele>29.3</ele>
    <time>2026-08-20T08:45:42Z</time>
   </trkpt>
   <trkpt lat="22.7370150" lon="120.3377830">
    <ele>30.5</ele>
    <time>2026-08-20T08:45:43Z</time>
   </trkpt>
   <trkpt lat="22.7369950" lon="120.3378420">
    <ele>31.9</ele>
    <time>2026-08-20T08:45:44Z</time>
   </trkpt>
   <trkpt lat="22.7369700" lon="120.3378970">
    <ele>33.2</ele>
    <time>2026-08-20T08:45:45Z</time>
   </trkpt>
   <trkpt lat="22.7369430" lon="120.3379470">
    <ele>34.4</ele>
    <time>2026-08-20T08:45:46Z</time>
   </trkpt>
   <trkpt lat="22.7369230" lon="120.3380120">
    <ele>35.9</ele>
    <time>2026-08-20T08:45:47Z</time>
   </trkpt>
   <trkpt lat="22.7369090" lon="120.3380700">
    <ele>36.8</ele>
    <time>2026-08-20T08:45:48Z</time>
   </trkpt>
   <trkpt lat="22.7369030" lon="120.3381520">
    <ele>35.5</ele>
    <time>2026-08-20T08:45:49Z</time>
   </trkpt>
   <trkpt lat="22.7368790" lon="120.3382020">
    <ele>34.6</ele>
    <time>2026-08-20T08:45:50Z</time>
   </trkpt>
   <trkpt lat="22.7368570" lon="120.3382600">
    <ele>33.6</ele>
    <time>2026-08-20T08:45:51Z</time>
   </trkpt>
   <trkpt lat="22.7368400" lon="120.3383490">
    <ele>32.1</ele>
    <time>2026-08-20T08:45:52Z</time>
   </trkpt>
   <trkpt lat="22.7368220" lon="120.3384280">
    <ele>30.7</ele>
    <time>2026-08-20T08:45:53Z</time>
   </trkpt>
   <trkpt lat="22.7368040" lon="120.3385090">
    <ele>29.3</ele>
    <time>2026-08-20T08:45:54Z</time>
   </trkpt>
   <trkpt lat="22.7367800" lon="120.3386010">
    <ele>27.8</ele>
    <time>2026-08-20T08:45:55Z</time>
   </trkpt>
   <trkpt lat="22.7367590" lon="120.3386840">
    <ele>26.4</ele>
    <time>2026-08-20T08:45:56Z</time>
   </trkpt>
   <trkpt lat="22.7367390" lon="120.3387570">
    <ele>25.2</ele>
    <time>2026-08-20T08:45:57Z</time>
   </trkpt>
   <trkpt lat="22.7367200" lon="120.3388320">
    <ele>24.0</ele>
    <time>2026-08-20T08:45:58Z</time>
   </trkpt>
   <trkpt lat="22.7367070" lon="120.3388850">
    <ele>23.1</ele>
    <time>2026-08-20T08:45:59Z</time>
   </trkpt>
   <trkpt lat="22.7366990" lon="120.3389320">
    <ele>22.4</ele>
    <time>2026-08-20T08:46:00Z</time>
   </trkpt>
   <trkpt lat="22.7366940" lon="120.3389680">
    <ele>21.8</ele>
    <time>2026-08-20T08:46:01Z</time>
   </trkpt>
   <trkpt lat="22.7367000" lon="120.3389810">
    <ele>21.6</ele>
    <time>2026-08-20T08:46:02Z</time>
   </trkpt>
   <trkpt lat="22.7367160" lon="120.3389700">
    <ele>21.4</ele>
    <time>2026-08-20T08:46:03Z</time>
   </trkpt>
   <trkpt lat="22.7367170" lon="120.3389870">
    <ele>21.4</ele>
    <time>2026-08-20T08:46:04Z</time>
   </trkpt>
   <trkpt lat="22.7367350" lon="120.3390210">
    <ele>21.3</ele>
    <time>2026-08-20T08:46:05Z</time>
   </trkpt>
   <trkpt lat="22.7367720" lon="120.3390460">
    <ele>21.3</ele>
    <time>2026-08-20T08:46:06Z</time>
   </trkpt>
   <trkpt lat="22.7368280" lon="120.3390710">
    <ele>21.3</ele>
    <time>2026-08-20T08:46:07Z</time>
   </trkpt>
   <trkpt lat="22.7369020" lon="120.3390940">
    <ele>21.2</ele>
    <time>2026-08-20T08:46:08Z</time>
   </trkpt>
   <trkpt lat="22.7369920" lon="120.3391100">
    <ele>21.2</ele>
    <time>2026-08-20T08:46:09Z</time>
   </trkpt>
   <trkpt lat="22.7370580" lon="120.3391450">
    <ele>21.2</ele>
    <time>2026-08-20T08:46:10Z</time>
   </trkpt>
   <trkpt lat="22.7371280" lon="120.3391760">
    <ele>21.2</ele>
    <time>2026-08-20T08:46:11Z</time>
   </trkpt>
   <trkpt lat="22.7371910" lon="120.3392050">
    <ele>21.2</ele>
    <time>2026-08-20T08:46:12Z</time>
   </trkpt>
   <trkpt lat="22.7372440" lon="120.3392170">
    <ele>21.2</ele>
    <time>2026-08-20T08:46:13Z</time>
   </trkpt>
   <trkpt lat="22.7372960" lon="120.3392260">
    <ele>21.2</ele>
    <time>2026-08-20T08:46:14Z</time>
   </trkpt>
   <trkpt lat="22.7373630" lon="120.3392360">
    <ele>21.1</ele>
    <time>2026-08-20T08:46:15Z</time>
   </trkpt>
   <trkpt lat="22.7373970" lon="120.3392460">
    <ele>21.1</ele>
    <time>2026-08-20T08:46:16Z</time>
   </trkpt>
   <trkpt lat="22.7374370" lon="120.3392230">
    <ele>21.0</ele>
    <time>2026-08-20T08:46:17Z</time>
   </trkpt>
   <trkpt lat="22.7374700" lon="120.3391690">
    <ele>21.0</ele>
    <time>2026-08-20T08:46:18Z</time>
   </trkpt>
   <trkpt lat="22.7374910" lon="120.3391040">
    <ele>21.0</ele>
    <time>2026-08-20T08:46:19Z</time>
   </trkpt>
   <trkpt lat="22.7375160" lon="120.3390290">
    <ele>21.0</ele>
    <time>2026-08-20T08:46:20Z</time>
   </trkpt>
   <trkpt lat="22.7375360" lon="120.3389560">
    <ele>21.0</ele>
    <time>2026-08-20T08:46:21Z</time>
   </trkpt>
   <trkpt lat="22.7375610" lon="120.3388860">
    <ele>21.0</ele>
    <time>2026-08-20T08:46:22Z</time>
   </trkpt>
   <trkpt lat="22.7375770" lon="120.3388110">
    <ele>20.9</ele>
    <time>2026-08-20T08:46:23Z</time>
   </trkpt>
   <trkpt lat="22.7375960" lon="120.3387390">
    <ele>20.9</ele>
    <time>2026-08-20T08:46:24Z</time>
   </trkpt>
   <trkpt lat="22.7376160" lon="120.3386760">
    <ele>20.9</ele>
    <time>2026-08-20T08:46:25Z</time>
   </trkpt>
   <trkpt lat="22.7376380" lon="120.3386190">
    <ele>20.8</ele>
    <time>2026-08-20T08:46:26Z</time>
   </trkpt>
   <trkpt lat="22.7376600" lon="120.3385530">
    <ele>20.8</ele>
    <time>2026-08-20T08:46:27Z</time>
   </trkpt>
   <trkpt lat="22.7376700" lon="120.3384870">
    <ele>20.7</ele>
    <time>2026-08-20T08:46:28Z</time>
   </trkpt>
   <trkpt lat="22.7376860" lon="120.3384330">
    <ele>20.7</ele>
    <time>2026-08-20T08:46:29Z</time>
   </trkpt>
   <trkpt lat="22.7377020" lon="120.3383830">
    <ele>20.7</ele>
    <time>2026-08-20T08:46:30Z</time>
   </trkpt>
   <trkpt lat="22.7377160" lon="120.3383330">
    <ele>20.7</ele>
    <time>2026-08-20T08:46:31Z</time>
   </trkpt>
   <trkpt lat="22.7377300" lon="120.3382760">
    <ele>20.6</ele>
    <time>2026-08-20T08:46:32Z</time>
   </trkpt>
   <trkpt lat="22.7377410" lon="120.3382210">
    <ele>20.6</ele>
    <time>2026-08-20T08:46:33Z</time>
   </trkpt>
   <trkpt lat="22.7377550" lon="120.3381660">
    <ele>20.6</ele>
    <time>2026-08-20T08:46:34Z</time>
   </trkpt>
   <trkpt lat="22.7377690" lon="120.3381020">
    <ele>20.6</ele>
    <time>2026-08-20T08:46:35Z</time>
   </trkpt>
   <trkpt lat="22.7377870" lon="120.3380350">
    <ele>20.5</ele>
    <time>2026-08-20T08:46:36Z</time>
   </trkpt>
   <trkpt lat="22.7378110" lon="120.3379680">
    <ele>20.5</ele>
    <time>2026-08-20T08:46:37Z</time>
   </trkpt>
   <trkpt lat="22.7378300" lon="120.3379130">
    <ele>20.5</ele>
    <time>2026-08-20T08:46:38Z</time>
   </trkpt>
   <trkpt lat="22.7378450" lon="120.3378700">
    <ele>20.5</ele>
    <time>2026-08-20T08:46:39Z</time>
   </trkpt>
   <trkpt lat="22.7378540" lon="120.3378320">
    <ele>20.5</ele>
    <time>2026-08-20T08:46:40Z</time>
   </trkpt>
   <trkpt lat="22.7378630" lon="120.3378100">
    <ele>20.5</ele>
    <time>2026-08-20T08:46:41Z</time>
   </trkpt>
   <trkpt lat="22.7378740" lon="120.3377780">
    <ele>20.5</ele>
    <time>2026-08-20T08:46:42Z</time>
   </trkpt>
   <trkpt lat="22.7378820" lon="120.3377500">
    <ele>20.5</ele>
    <time>2026-08-20T08:46:43Z</time>
   </trkpt>
   <trkpt lat="22.7378880" lon="120.3377190">
    <ele>20.5</ele>
    <time>2026-08-20T08:46:45Z</time>
   </trkpt>
   <trkpt lat="22.7378990" lon="120.3376970">
    <ele>20.5</ele>
    <time>2026-08-20T08:46:46Z</time>
   </trkpt>
   <trkpt lat="22.7379070" lon="120.3376720">
    <ele>20.5</ele>
    <time>2026-08-20T08:46:47Z</time>
   </trkpt>
   <trkpt lat="22.7379210" lon="120.3376390">
    <ele>20.5</ele>
    <time>2026-08-20T08:46:48Z</time>
   </trkpt>
   <trkpt lat="22.7379330" lon="120.3376030">
    <ele>20.5</ele>
    <time>2026-08-20T08:46:49Z</time>
   </trkpt>
   <trkpt lat="22.7379490" lon="120.3375550">
    <ele>20.5</ele>
    <time>2026-08-20T08:46:50Z</time>
   </trkpt>
   <trkpt lat="22.7379690" lon="120.3375180">
    <ele>20.5</ele>
    <time>2026-08-20T08:46:51Z</time>
   </trkpt>
   <trkpt lat="22.7379980" lon="120.3375020">
    <ele>20.5</ele>
    <time>2026-08-20T08:46:52Z</time>
   </trkpt>
   <trkpt lat="22.7380310" lon="120.3375070">
    <ele>20.5</ele>
    <time>2026-08-20T08:46:53Z</time>
   </trkpt>
   <trkpt lat="22.7380690" lon="120.3375190">
    <ele>20.5</ele>
    <time>2026-08-20T08:46:54Z</time>
   </trkpt>
   <trkpt lat="22.7381040" lon="120.3375340">
    <ele>20.5</ele>
    <time>2026-08-20T08:46:55Z</time>
   </trkpt>
   <trkpt lat="22.7381380" lon="120.3375490">
    <ele>20.5</ele>
    <time>2026-08-20T08:46:56Z</time>
   </trkpt>
   <trkpt lat="22.7381790" lon="120.3375620">
    <ele>20.5</ele>
    <time>2026-08-20T08:46:57Z</time>
   </trkpt>
   <trkpt lat="22.7382210" lon="120.3375780">
    <ele>20.5</ele>
    <time>2026-08-20T08:46:58Z</time>
   </trkpt>
   <trkpt lat="22.7382700" lon="120.3375970">
    <ele>20.5</ele>
    <time>2026-08-20T08:46:59Z</time>
   </trkpt>
   <trkpt lat="22.7383080" lon="120.3376120">
    <ele>20.4</ele>
    <time>2026-08-20T08:47:00Z</time>
   </trkpt>
   <trkpt lat="22.7383390" lon="120.3376150">
    <ele>20.4</ele>
    <time>2026-08-20T08:47:01Z</time>
   </trkpt>
   <trkpt lat="22.7383670" lon="120.3376140">
    <ele>20.4</ele>
    <time>2026-08-20T08:47:02Z</time>
   </trkpt>
   <trkpt lat="22.7383940" lon="120.3376190">
    <ele>20.3</ele>
    <time>2026-08-20T08:47:03Z</time>
   </trkpt>
   <trkpt lat="22.7384230" lon="120.3376280">
    <ele>20.3</ele>
    <time>2026-08-20T08:47:04Z</time>
   </trkpt>
   <trkpt lat="22.7384480" lon="120.3376350">
    <ele>20.3</ele>
    <time>2026-08-20T08:47:05Z</time>
   </trkpt>
   <trkpt lat="22.7384720" lon="120.3376230">
    <ele>20.3</ele>
    <time>2026-08-20T08:47:06Z</time>
   </trkpt>
   <trkpt lat="22.7384760" lon="120.3375990">
    <ele>20.2</ele>
    <time>2026-08-20T08:47:07Z</time>
   </trkpt>
   <trkpt lat="22.7384390" lon="120.3375780">
    <ele>20.2</ele>
    <time>2026-08-20T08:47:08Z</time>
   </trkpt>
   <trkpt lat="22.7384030" lon="120.3375630">
    <ele>20.2</ele>
    <time>2026-08-20T08:47:09Z</time>
   </trkpt>
   <trkpt lat="22.7383570" lon="120.3375520">
    <ele>20.3</ele>
    <time>2026-08-20T08:47:10Z</time>
   </trkpt>
   <trkpt lat="22.7383020" lon="120.3375450">
    <ele>20.4</ele>
    <time>2026-08-20T08:47:11Z</time>
   </trkpt>
   <trkpt lat="22.7382460" lon="120.3375220">
    <ele>20.4</ele>
    <time>2026-08-20T08:47:12Z</time>
   </trkpt>
   <trkpt lat="22.7381860" lon="120.3374970">
    <ele>20.5</ele>
    <time>2026-08-20T08:47:13Z</time>
   </trkpt>
   <trkpt lat="22.7381160" lon="120.3374750">
    <ele>20.5</ele>
    <time>2026-08-20T08:47:14Z</time>
   </trkpt>
   <trkpt lat="22.7380540" lon="120.3374500">
    <ele>20.5</ele>
    <time>2026-08-20T08:47:15Z</time>
   </trkpt>
   <trkpt lat="22.7379880" lon="120.3374220">
    <ele>20.5</ele>
    <time>2026-08-20T08:47:16Z</time>
   </trkpt>
   <trkpt lat="22.7379150" lon="120.3374080">
    <ele>20.5</ele>
    <time>2026-08-20T08:47:17Z</time>
   </trkpt>
   <trkpt lat="22.7378460" lon="120.3373900">
    <ele>20.5</ele>
    <time>2026-08-20T08:47:18Z</time>
   </trkpt>
   <trkpt lat="22.7377780" lon="120.3373690">
    <ele>20.6</ele>
    <time>2026-08-20T08:47:19Z</time>
   </trkpt>
   <trkpt lat="22.7377050" lon="120.3373340">
    <ele>20.6</ele>
    <time>2026-08-20T08:47:20Z</time>
   </trkpt>
   <trkpt lat="22.7376430" lon="120.3373170">
    <ele>20.6</ele>
    <time>2026-08-20T08:47:21Z</time>
   </trkpt>
   <trkpt lat="22.7375830" lon="120.3372930">
    <ele>20.5</ele>
    <time>2026-08-20T08:47:22Z</time>
   </trkpt>
   <trkpt lat="22.7375320" lon="120.3372750">
    <ele>20.5</ele>
    <time>2026-08-20T08:47:23Z</time>
   </trkpt>
   <trkpt lat="22.7374780" lon="120.3372620">
    <ele>20.5</ele>
    <time>2026-08-20T08:47:24Z</time>
   </trkpt>
   <trkpt lat="22.7374200" lon="120.3372390">
    <ele>20.5</ele>
    <time>2026-08-20T08:47:25Z</time>
   </trkpt>
   <trkpt lat="22.7373600" lon="120.3372190">
    <ele>20.5</ele>
    <time>2026-08-20T08:47:26Z</time>
   </trkpt>
   <trkpt lat="22.7372990" lon="120.3372070">
    <ele>20.5</ele>
    <time>2026-08-20T08:47:27Z</time>
   </trkpt>
   <trkpt lat="22.7372660" lon="120.3371790">
    <ele>20.6</ele>
    <time>2026-08-20T08:47:28Z</time>
   </trkpt>
   <trkpt lat="22.7372320" lon="120.3371630">
    <ele>20.6</ele>
    <time>2026-08-20T08:47:29Z</time>
   </trkpt>
   <trkpt lat="22.7372210" lon="120.3371270">
    <ele>20.6</ele>
    <time>2026-08-20T08:47:30Z</time>
   </trkpt>
   <trkpt lat="22.7372250" lon="120.3370830">
    <ele>20.6</ele>
    <time>2026-08-20T08:47:31Z</time>
   </trkpt>
   <trkpt lat="22.7372320" lon="120.3370410">
    <ele>20.7</ele>
    <time>2026-08-20T08:47:32Z</time>
   </trkpt>
   <trkpt lat="22.7372460" lon="120.3369900">
    <ele>20.8</ele>
    <time>2026-08-20T08:47:33Z</time>
   </trkpt>
   <trkpt lat="22.7372530" lon="120.3369400">
    <ele>20.8</ele>
    <time>2026-08-20T08:47:34Z</time>
   </trkpt>
   <trkpt lat="22.7373240" lon="120.3368910">
    <ele>20.9</ele>
    <time>2026-08-20T08:47:35Z</time>
   </trkpt>
   <trkpt lat="22.7373300" lon="120.3368190">
    <ele>21.0</ele>
    <time>2026-08-20T08:47:36Z</time>
   </trkpt>
   <trkpt lat="22.7373450" lon="120.3367520">
    <ele>21.1</ele>
    <time>2026-08-20T08:47:37Z</time>
   </trkpt>
   <trkpt lat="22.7373610" lon="120.3366890">
    <ele>21.2</ele>
    <time>2026-08-20T08:47:38Z</time>
   </trkpt>
   <trkpt lat="22.7373810" lon="120.3366270">
    <ele>21.3</ele>
    <time>2026-08-20T08:47:39Z</time>
   </trkpt>
   <trkpt lat="22.7374000" lon="120.3365800">
    <ele>21.4</ele>
    <time>2026-08-20T08:47:40Z</time>
   </trkpt>
   <trkpt lat="22.7374230" lon="120.3365250">
    <ele>21.4</ele>
    <time>2026-08-20T08:47:41Z</time>
   </trkpt>
   <trkpt lat="22.7374500" lon="120.3364820">
    <ele>21.5</ele>
    <time>2026-08-20T08:47:42Z</time>
   </trkpt>
   <trkpt lat="22.7374800" lon="120.3364290">
    <ele>21.5</ele>
    <time>2026-08-20T08:47:43Z</time>
   </trkpt>
   <trkpt lat="22.7375100" lon="120.3363810">
    <ele>21.4</ele>
    <time>2026-08-20T08:47:44Z</time>
   </trkpt>
   <trkpt lat="22.7375420" lon="120.3363200">
    <ele>21.4</ele>
    <time>2026-08-20T08:47:45Z</time>
   </trkpt>
   <trkpt lat="22.7375710" lon="120.3362640">
    <ele>21.4</ele>
    <time>2026-08-20T08:47:46Z</time>
   </trkpt>
   <trkpt lat="22.7376000" lon="120.3362080">
    <ele>21.4</ele>
    <time>2026-08-20T08:47:47Z</time>
   </trkpt>
   <trkpt lat="22.7376300" lon="120.3361540">
    <ele>21.4</ele>
    <time>2026-08-20T08:47:48Z</time>
   </trkpt>
   <trkpt lat="22.7376590" lon="120.3361120">
    <ele>21.4</ele>
    <time>2026-08-20T08:47:49Z</time>
   </trkpt>
   <trkpt lat="22.7376780" lon="120.3360750">
    <ele>21.4</ele>
    <time>2026-08-20T08:47:50Z</time>
   </trkpt>
   <trkpt lat="22.7376940" lon="120.3360400">
    <ele>21.4</ele>
    <time>2026-08-20T08:47:51Z</time>
   </trkpt>
   <trkpt lat="22.7377040" lon="120.3360100">
    <ele>21.4</ele>
    <time>2026-08-20T08:47:52Z</time>
   </trkpt>
   <trkpt lat="22.7376990" lon="120.3359800">
    <ele>21.4</ele>
    <time>2026-08-20T08:47:53Z</time>
   </trkpt>
   <trkpt lat="22.7376730" lon="120.3359540">
    <ele>21.3</ele>
    <time>2026-08-20T08:47:54Z</time>
   </trkpt>
   <trkpt lat="22.7376370" lon="120.3359310">
    <ele>21.2</ele>
    <time>2026-08-20T08:47:55Z</time>
   </trkpt>
   <trkpt lat="22.7375820" lon="120.3358860">
    <ele>21.1</ele>
    <time>2026-08-20T08:47:56Z</time>
   </trkpt>
   <trkpt lat="22.7375440" lon="120.3358460">
    <ele>21.0</ele>
    <time>2026-08-20T08:47:57Z</time>
   </trkpt>
   <trkpt lat="22.7374950" lon="120.3358080">
    <ele>20.9</ele>
    <time>2026-08-20T08:47:58Z</time>
   </trkpt>
   <trkpt lat="22.7374450" lon="120.3357710">
    <ele>20.8</ele>
    <time>2026-08-20T08:47:59Z</time>
   </trkpt>
   <trkpt lat="22.7373920" lon="120.3357370">
    <ele>20.7</ele>
    <time>2026-08-20T08:48:00Z</time>
   </trkpt>
   <trkpt lat="22.7373440" lon="120.3356890">
    <ele>20.5</ele>
    <time>2026-08-20T08:48:01Z</time>
   </trkpt>
   <trkpt lat="22.7372910" lon="120.3356540">
    <ele>20.4</ele>
    <time>2026-08-20T08:48:02Z</time>
   </trkpt>
   <trkpt lat="22.7372310" lon="120.3356420">
    <ele>20.4</ele>
    <time>2026-08-20T08:48:03Z</time>
   </trkpt>
   <trkpt lat="22.7371610" lon="120.3356270">
    <ele>20.3</ele>
    <time>2026-08-20T08:48:04Z</time>
   </trkpt>
   <trkpt lat="22.7371030" lon="120.3356290">
    <ele>20.2</ele>
    <time>2026-08-20T08:48:05Z</time>
   </trkpt>
   <trkpt lat="22.7370510" lon="120.3356100">
    <ele>20.1</ele>
    <time>2026-08-20T08:48:06Z</time>
   </trkpt>
   <trkpt lat="22.7369820" lon="120.3356040">
    <ele>20.0</ele>
    <time>2026-08-20T08:48:07Z</time>
   </trkpt>
   <trkpt lat="22.7369090" lon="120.3356010">
    <ele>19.9</ele>
    <time>2026-08-20T08:48:08Z</time>
   </trkpt>
   <trkpt lat="22.7368310" lon="120.3355990">
    <ele>19.8</ele>
    <time>2026-08-20T08:48:09Z</time>
   </trkpt>
   <trkpt lat="22.7367370" lon="120.3356170">
    <ele>19.7</ele>
    <time>2026-08-20T08:48:10Z</time>
   </trkpt>
   <trkpt lat="22.7366520" lon="120.3355890">
    <ele>19.7</ele>
    <time>2026-08-20T08:48:11Z</time>
   </trkpt>
   <trkpt lat="22.7365650" lon="120.3355680">
    <ele>19.7</ele>
    <time>2026-08-20T08:48:12Z</time>
   </trkpt>
   <trkpt lat="22.7364810" lon="120.3355480">
    <ele>19.8</ele>
    <time>2026-08-20T08:48:13Z</time>
   </trkpt>
   <trkpt lat="22.7364080" lon="120.3355410">
    <ele>19.8</ele>
    <time>2026-08-20T08:48:14Z</time>
   </trkpt>
   <trkpt lat="22.7363470" lon="120.3355360">
    <ele>19.8</ele>
    <time>2026-08-20T08:48:15Z</time>
   </trkpt>
   <trkpt lat="22.7362950" lon="120.3355350">
    <ele>19.9</ele>
    <time>2026-08-20T08:48:16Z</time>
   </trkpt>
   <trkpt lat="22.7362560" lon="120.3355570">
    <ele>19.9</ele>
    <time>2026-08-20T08:48:17Z</time>
   </trkpt>
   <trkpt lat="22.7362310" lon="120.3355890">
    <ele>19.8</ele>
    <time>2026-08-20T08:48:18Z</time>
   </trkpt>
   <trkpt lat="22.7362180" lon="120.3356230">
    <ele>19.7</ele>
    <time>2026-08-20T08:48:19Z</time>
   </trkpt>
   <trkpt lat="22.7362290" lon="120.3356590">
    <ele>19.7</ele>
    <time>2026-08-20T08:48:20Z</time>
   </trkpt>
   <trkpt lat="22.7362230" lon="120.3357200">
    <ele>19.6</ele>
    <time>2026-08-20T08:48:21Z</time>
   </trkpt>
   <trkpt lat="22.7361960" lon="120.3357590">
    <ele>19.5</ele>
    <time>2026-08-20T08:48:22Z</time>
   </trkpt>
   <trkpt lat="22.7361790" lon="120.3358300">
    <ele>19.4</ele>
    <time>2026-08-20T08:48:23Z</time>
   </trkpt>
   <trkpt lat="22.7361640" lon="120.3358910">
    <ele>19.3</ele>
    <time>2026-08-20T08:48:24Z</time>
   </trkpt>
   <trkpt lat="22.7361460" lon="120.3359400">
    <ele>19.3</ele>
    <time>2026-08-20T08:48:25Z</time>
   </trkpt>
   <trkpt lat="22.7361330" lon="120.3359860">
    <ele>19.2</ele>
    <time>2026-08-20T08:48:26Z</time>
   </trkpt>
   <trkpt lat="22.7361220" lon="120.3360430">
    <ele>19.2</ele>
    <time>2026-08-20T08:48:27Z</time>
   </trkpt>
   <trkpt lat="22.7361090" lon="120.3360960">
    <ele>19.2</ele>
    <time>2026-08-20T08:48:28Z</time>
   </trkpt>
   <trkpt lat="22.7360920" lon="120.3361510">
    <ele>19.4</ele>
    <time>2026-08-20T08:48:29Z</time>
   </trkpt>
   <trkpt lat="22.7360730" lon="120.3362090">
    <ele>19.5</ele>
    <time>2026-08-20T08:48:30Z</time>
   </trkpt>
   <trkpt lat="22.7360570" lon="120.3362710">
    <ele>19.6</ele>
    <time>2026-08-20T08:48:31Z</time>
   </trkpt>
   <trkpt lat="22.7360440" lon="120.3363400">
    <ele>19.8</ele>
    <time>2026-08-20T08:48:32Z</time>
   </trkpt>
   <trkpt lat="22.7360270" lon="120.3364040">
    <ele>20.0</ele>
    <time>2026-08-20T08:48:33Z</time>
   </trkpt>
   <trkpt lat="22.7360100" lon="120.3364510">
    <ele>20.1</ele>
    <time>2026-08-20T08:48:34Z</time>
   </trkpt>
   <trkpt lat="22.7359970" lon="120.3364940">
    <ele>20.2</ele>
    <time>2026-08-20T08:48:35Z</time>
   </trkpt>
   <trkpt lat="22.7359920" lon="120.3365300">
    <ele>20.3</ele>
    <time>2026-08-20T08:48:36Z</time>
   </trkpt>
   <trkpt lat="22.7359870" lon="120.3365680">
    <ele>20.4</ele>
    <time>2026-08-20T08:48:37Z</time>
   </trkpt>
   <trkpt lat="22.7359800" lon="120.3366020">
    <ele>20.5</ele>
    <time>2026-08-20T08:48:38Z</time>
   </trkpt>
   <trkpt lat="22.7359860" lon="120.3366500">
    <ele>20.6</ele>
    <time>2026-08-20T08:48:39Z</time>
   </trkpt>
   <trkpt lat="22.7359860" lon="120.3366850">
    <ele>20.7</ele>
    <time>2026-08-20T08:48:40Z</time>
   </trkpt>
   <trkpt lat="22.7359800" lon="120.3367040">
    <ele>20.7</ele>
    <time>2026-08-20T08:48:41Z</time>
   </trkpt>
   <trkpt lat="22.7359590" lon="120.3367190">
    <ele>20.8</ele>
    <time>2026-08-20T08:48:42Z</time>
   </trkpt>
   <trkpt lat="22.7359390" lon="120.3367260">
    <ele>20.8</ele>
    <time>2026-08-20T08:48:43Z</time>
   </trkpt>
   <trkpt lat="22.7359110" lon="120.3367230">
    <ele>20.8</ele>
    <time>2026-08-20T08:48:44Z</time>
   </trkpt>
   <trkpt lat="22.7358810" lon="120.3367320">
    <ele>20.8</ele>
    <time>2026-08-20T08:48:45Z</time>
   </trkpt>
   <trkpt lat="22.7358520" lon="120.3367220">
    <ele>20.8</ele>
    <time>2026-08-20T08:48:46Z</time>
   </trkpt>
   <trkpt lat="22.7358170" lon="120.3367050">
    <ele>20.8</ele>
    <time>2026-08-20T08:48:47Z</time>
   </trkpt>
   <trkpt lat="22.7357810" lon="120.3366970">
    <ele>20.8</ele>
    <time>2026-08-20T08:48:48Z</time>
   </trkpt>
   <trkpt lat="22.7357480" lon="120.3366800">
    <ele>20.9</ele>
    <time>2026-08-20T08:48:49Z</time>
   </trkpt>
   <trkpt lat="22.7357020" lon="120.3366800">
    <ele>20.9</ele>
    <time>2026-08-20T08:48:50Z</time>
   </trkpt>
   <trkpt lat="22.7356520" lon="120.3366770">
    <ele>20.9</ele>
    <time>2026-08-20T08:48:51Z</time>
   </trkpt>
   <trkpt lat="22.7356140" lon="120.3366620">
    <ele>20.9</ele>
    <time>2026-08-20T08:48:52Z</time>
   </trkpt>
   <trkpt lat="22.7355940" lon="120.3366440">
    <ele>20.9</ele>
    <time>2026-08-20T08:48:53Z</time>
   </trkpt>
   <trkpt lat="22.7355790" lon="120.3366170">
    <ele>21.0</ele>
    <time>2026-08-20T08:48:54Z</time>
   </trkpt>
   <trkpt lat="22.7355820" lon="120.3365890">
    <ele>20.9</ele>
    <time>2026-08-20T08:48:55Z</time>
   </trkpt>
   <trkpt lat="22.7355930" lon="120.3365640">
    <ele>20.9</ele>
    <time>2026-08-20T08:48:56Z</time>
   </trkpt>
   <trkpt lat="22.7356020" lon="120.3365290">
    <ele>20.9</ele>
    <time>2026-08-20T08:48:57Z</time>
   </trkpt>
   <trkpt lat="22.7356150" lon="120.3364880">
    <ele>20.8</ele>
    <time>2026-08-20T08:48:58Z</time>
   </trkpt>
   <trkpt lat="22.7356290" lon="120.3364470">
    <ele>20.8</ele>
    <time>2026-08-20T08:48:59Z</time>
   </trkpt>
   <trkpt lat="22.7356460" lon="120.3364030">
    <ele>20.8</ele>
    <time>2026-08-20T08:49:00Z</time>
   </trkpt>
   <trkpt lat="22.7356550" lon="120.3363680">
    <ele>20.7</ele>
    <time>2026-08-20T08:49:01Z</time>
   </trkpt>
   <trkpt lat="22.7356740" lon="120.3363300">
    <ele>20.7</ele>
    <time>2026-08-20T08:49:02Z</time>
   </trkpt>
   <trkpt lat="22.7356690" lon="120.3362920">
    <ele>20.7</ele>
    <time>2026-08-20T08:49:03Z</time>
   </trkpt>
   <trkpt lat="22.7356820" lon="120.3362640">
    <ele>20.7</ele>
    <time>2026-08-20T08:49:04Z</time>
   </trkpt>
   <trkpt lat="22.7356950" lon="120.3362400">
    <ele>20.6</ele>
    <time>2026-08-20T08:49:05Z</time>
   </trkpt>
   <trkpt lat="22.7357070" lon="120.3362070">
    <ele>20.6</ele>
    <time>2026-08-20T08:49:06Z</time>
   </trkpt>
   <trkpt lat="22.7357230" lon="120.3361660">
    <ele>20.6</ele>
    <time>2026-08-20T08:49:07Z</time>
   </trkpt>
   <trkpt lat="22.7357230" lon="120.3361220">
    <ele>20.5</ele>
    <time>2026-08-20T08:49:08Z</time>
   </trkpt>
   <trkpt lat="22.7357370" lon="120.3361010">
    <ele>20.5</ele>
    <time>2026-08-20T08:49:09Z</time>
   </trkpt>
   <trkpt lat="22.7357470" lon="120.3360700">
    <ele>20.5</ele>
    <time>2026-08-20T08:49:10Z</time>
   </trkpt>
   <trkpt lat="22.7357570" lon="120.3360400">
    <ele>20.5</ele>
    <time>2026-08-20T08:49:11Z</time>
   </trkpt>
   <trkpt lat="22.7357630" lon="120.3360150">
    <ele>20.5</ele>
    <time>2026-08-20T08:49:12Z</time>
   </trkpt>
   <trkpt lat="22.7357550" lon="120.3360040">
    <ele>20.5</ele>
    <time>2026-08-20T08:49:13Z</time>
   </trkpt>
   <trkpt lat="22.7357470" lon="120.3360120">
    <ele>20.5</ele>
    <time>2026-08-20T08:49:14Z</time>
   </trkpt>
   <trkpt lat="22.7357440" lon="120.3360180">
    <ele>20.5</ele>
    <time>2026-08-20T08:49:15Z</time>
   </trkpt>
   <trkpt lat="22.7357450" lon="120.3360300">
    <ele>20.5</ele>
    <time>2026-08-20T08:49:16Z</time>
   </trkpt>
   <trkpt lat="22.7357500" lon="120.3360430">
    <ele>20.5</ele>
    <time>2026-08-20T08:49:17Z</time>
   </trkpt>
   <trkpt lat="22.7357530" lon="120.3360650">
    <ele>20.5</ele>
    <time>2026-08-20T08:49:18Z</time>
   </trkpt>
   <trkpt lat="22.7357450" lon="120.3360950">
    <ele>20.5</ele>
    <time>2026-08-20T08:49:19Z</time>
   </trkpt>
   <trkpt lat="22.7357370" lon="120.3361310">
    <ele>20.5</ele>
    <time>2026-08-20T08:49:20Z</time>
   </trkpt>
   <trkpt lat="22.7357190" lon="120.3361690">
    <ele>20.6</ele>
    <time>2026-08-20T08:49:21Z</time>
   </trkpt>
   <trkpt lat="22.7357090" lon="120.3362150">
    <ele>20.6</ele>
    <time>2026-08-20T08:49:22Z</time>
   </trkpt>
   <trkpt lat="22.7356940" lon="120.3362580">
    <ele>20.6</ele>
    <time>2026-08-20T08:49:23Z</time>
   </trkpt>
   <trkpt lat="22.7356850" lon="120.3363040">
    <ele>20.7</ele>
    <time>2026-08-20T08:49:24Z</time>
   </trkpt>
   <trkpt lat="22.7356790" lon="120.3363480">
    <ele>20.7</ele>
    <time>2026-08-20T08:49:25Z</time>
   </trkpt>
   <trkpt lat="22.7356690" lon="120.3364060">
    <ele>20.7</ele>
    <time>2026-08-20T08:49:26Z</time>
   </trkpt>
   <trkpt lat="22.7356570" lon="120.3364410">
    <ele>20.8</ele>
    <time>2026-08-20T08:49:27Z</time>
   </trkpt>
   <trkpt lat="22.7356500" lon="120.3364840">
    <ele>20.8</ele>
    <time>2026-08-20T08:49:28Z</time>
   </trkpt>
   <trkpt lat="22.7356440" lon="120.3365130">
    <ele>20.8</ele>
    <time>2026-08-20T08:49:29Z</time>
   </trkpt>
   <trkpt lat="22.7356300" lon="120.3365410">
    <ele>20.8</ele>
    <time>2026-08-20T08:49:30Z</time>
   </trkpt>
   <trkpt lat="22.7356180" lon="120.3365670">
    <ele>20.9</ele>
    <time>2026-08-20T08:49:31Z</time>
   </trkpt>
   <trkpt lat="22.7356000" lon="120.3365780">
    <ele>20.9</ele>
    <time>2026-08-20T08:49:32Z</time>
   </trkpt>
   <trkpt lat="22.7355860" lon="120.3365750">
    <ele>20.9</ele>
    <time>2026-08-20T08:49:33Z</time>
   </trkpt>
   <trkpt lat="22.7355780" lon="120.3365760">
    <ele>20.9</ele>
    <time>2026-08-20T08:49:34Z</time>
   </trkpt>
   <trkpt lat="22.7355780" lon="120.3365790">
    <ele>20.9</ele>
    <time>2026-08-20T08:49:35Z</time>
   </trkpt>
   <trkpt lat="22.7355810" lon="120.3365830">
    <ele>20.9</ele>
    <time>2026-08-20T08:49:36Z</time>
   </trkpt>
   <trkpt lat="22.7355800" lon="120.3365880">
    <ele>20.9</ele>
    <time>2026-08-20T08:49:37Z</time>
   </trkpt>
  </trkseg>
 </trk>
</gpx>
