<?xml version="1.0" encoding="UTF-8"?>
<gpx creator="StravaGPX" version="1.1" xmlns="http://www.topografix.com/GPX/1/1" xmlns:xsi="http://www.w3.org/2001/XMLSchema-instance" xsi:schemaLocation="http://www.topografix.com/GPX/1/1 http://www.topografix.com/GPX/1/1/gpx.xsd">
 <trk>
  <name>午後跑步</name>
  <type>running</type>
  <trkseg>
   <trkpt lat="22.7271370" lon="120.3246960">
    <ele>18.2</ele>
   </trkpt>
   <trkpt lat="22.7271370" lon="120.3246960">
    <ele>18.2</ele>
   </trkpt>
   <trkpt lat="22.7271250" lon="120.3246960">
    <ele>18.2</ele>
   </trkpt>
   <trkpt lat="22.7271160" lon="120.3246970">
    <ele>18.2</ele>
   </trkpt>
   <trkpt lat="22.7271170" lon="120.3246990">
    <ele>18.2</ele>
   </trkpt>
   <trkpt lat="22.7271280" lon="120.3247050">
    <ele>18.2</ele>
   </trkpt>
   <trkpt lat="22.7271300" lon="120.3247050">
    <ele>18.2</ele>
   </trkpt>
   <trkpt lat="22.7271280" lon="120.3247050">
    <ele>18.2</ele>
   </trkpt>
   <trkpt lat="22.7271280" lon="120.3247050">
    <ele>18.2</ele>
   </trkpt>
   <trkpt lat="22.7271280" lon="120.3247050">
    <ele>18.2</ele>
   </trkpt>
   <trkpt lat="22.7271280" lon="120.3247050">
    <ele>18.2</ele>
   </trkpt>
   <trkpt lat="22.7271470" lon="120.3247040">
    <ele>18.2</ele>
   </trkpt>
   <trkpt lat="22.7271440" lon="120.3246980">
    <ele>18.2</ele>
   </trkpt>
   <trkpt lat="22.7271400" lon="120.3246950">
    <ele>18.2</ele>
   </trkpt>
   <trkpt lat="22.7271460" lon="120.3246850">
    <ele>18.2</ele>
   </trkpt>
   <trkpt lat="22.7271390" lon="120.3246860">
    <ele>18.2</ele>
   </trkpt>
   <trkpt lat="22.7271440" lon="120.3246730">
    <ele>18.2</ele>
   </trkpt>
   <trkpt lat="22.7271490" lon="120.3246630">
    <ele>18.2</ele>
   </trkpt>
   <trkpt lat="22.7271550" lon="120.3246520">
    <ele>18.2</ele>
   </trkpt>
   <trkpt lat="22.7271530" lon="120.3246520">
    <ele>18.2</ele>
   </trkpt>
   <trkpt lat="22.7271530" lon="120.3246520">
    <ele>18.2</ele>
   </trkpt>
   <trkpt lat="22.7271800" lon="120.3246390">
    <ele>18.1</ele>
   </trkpt>
   <trkpt lat="22.7271970" lon="120.3246370">
    <ele>18.1</ele>
   </trkpt>
   <trkpt lat="22.7272030" lon="120.3246430">
    <ele>18.1</ele>
   </trkpt>
   <trkpt lat="22.7272010" lon="120.3246430">
    <ele>18.1</ele>
   </trkpt>
   <trkpt lat="22.7272030" lon="120.3246470">
    <ele>18.1</ele>
   </trkpt>
   <trkpt lat="22.7271970" lon="120.3246590">
    <ele>18.1</ele>
   </trkpt>
   <trkpt lat="22.7271970" lon="120.3246590">
    <ele>18.1</ele>
   </trkpt>
   <trkpt lat="22.7272050" lon="120.3246630">
    <ele>18.1</ele>
   </trkpt>
   <trkpt lat="22.7272030" lon="120.3246570">
    <ele>18.1</ele>
   </trkpt>
   <trkpt lat="22.7272030" lon="120.3246610">
    <ele>18.1</ele>
   </trkpt>
   <trkpt lat="22.7272040" lon="120.3246630">
    <ele>18.1</ele>
   </trkpt>
   <trkpt lat="22.7272080" lon="120.3246640">
    <ele>18.1</ele>
   </trkpt>
   <trkpt lat="22.7272200" lon="120.3246750">
    <ele>18.1</ele>
   </trkpt>
   <trkpt lat="22.7272310" lon="120.3246900">
    <ele>18.1</ele>
   </trkpt>
   <trkpt lat="22.7272260" lon="120.3246910">
    <ele>18.1</ele>
   </trkpt>
   <trkpt lat="22.7272020" lon="120.3246850">
    <ele>18.1</ele>
   </trkpt>
   <trkpt lat="22.7272050" lon="120.3247010">
    <ele>18.1</ele>
   </trkpt>
   <trkpt lat="22.7272070" lon="120.3247120">
    <ele>18.1</ele>
   </trkpt>
   <trkpt lat="22.7272120" lon="120.3247190">
    <ele>18.1</ele>
   </trkpt>
   <trkpt lat="22.7272210" lon="120.3247270">
    <ele>18.1</ele>
   </trkpt>
   <trkpt lat="22.7272410" lon="120.3247520">
    <ele>18.1</ele>
   </trkpt>
   <trkpt lat="22.7272380" lon="120.3247520">
    <ele>18.1</ele>
   </trkpt>
   <trkpt lat="22.7272370" lon="120.3247560">
    <ele>18.1</ele>
   </trkpt>
   <trkpt lat="22.7272440" lon="120.3247660">
    <ele>18.1</ele>
   </trkpt>
   <trkpt lat="22.7272480" lon="120.3247830">
    <ele>18.1</ele>
   </trkpt>
   <trkpt lat="22.7272550" lon="120.3247920">
    <ele>18.1</ele>
   </trkpt>
   <trkpt lat="22.7272540" lon="120.3247980">
    <ele>18.1</ele>
   </trkpt>
   <trkpt lat="22.7272610" lon="120.3248160">
    <ele>18.1</ele>
   </trkpt>
   <trkpt lat="22.7272680" lon="120.3248230">
    <ele>18.1</ele>
   </trkpt>
   <trkpt lat="22.7272830" lon="120.3248390">
    <ele>18.1</ele>
   </trkpt>
   <trkpt lat="22.7273090" lon="120.3248520">
    <ele>18.1</ele>
   </trkpt>
   <trkpt lat="22.7273120" lon="120.3248640">
    <ele>18.1</ele>
   </trkpt>
   <trkpt lat="22.7272960" lon="120.3248860">
    <ele>18.1</ele>
   </trkpt>
   <trkpt lat="22.7272940" lon="120.3248860">
    <ele>18.1</ele>
   </trkpt>
   <trkpt lat="22.7272970" lon="120.3248930">
    <ele>18.1</ele>
   </trkpt>
   <trkpt lat="22.7272970" lon="120.3249160">
    <ele>18.1</ele>
   </trkpt>
   <trkpt lat="22.7272970" lon="120.3249280">
    <ele>18.1</ele>
   </trkpt>
   <trkpt lat="22.7273030" lon="120.3249350">
    <ele>18.1</ele>
   </trkpt>
   <trkpt lat="22.7273030" lon="120.3249350">
    <ele>18.1</ele>
   </trkpt>
   <trkpt lat="22.7273070" lon="120.3249380">
    <ele>18.1</ele>
   </trkpt>
   <trkpt lat="22.7273190" lon="120.3249340">
    <ele>18.1</ele>
   </trkpt>
   <trkpt lat="22.7273140" lon="120.3249250">
    <ele>18.1</ele>
   </trkpt>
   <trkpt lat="22.7273030" lon="120.3249220">
    <ele>18.1</ele>
   </trkpt>
   <trkpt lat="22.7273100" lon="120.3249220">
    <ele>18.1</ele>
   </trkpt>
   <trkpt lat="22.7273190" lon="120.3249210">
    <ele>18.1</ele>
   </trkpt>
   <trkpt lat="22.7273450" lon="120.3249200">
    <ele>18.1</ele>
   </trkpt>
   <trkpt lat="22.7273360" lon="120.3249260">
    <ele>18.2</ele>
   </trkpt>
   <trkpt lat="22.7273220" lon="120.3249360">
    <ele>18.2</ele>
   </trkpt>
   <trkpt lat="22.7273260" lon="120.3249480">
    <ele>18.2</ele>
   </trkpt>
   <trkpt lat="22.7273250" lon="120.3249500">
    <ele>18.2</ele>
   </trkpt>
   <trkpt lat="22.7273240" lon="120.3249600">
    <ele>18.2</ele>
   </trkpt>
   <trkpt lat="22.7273200" lon="120.3249670">
    <ele>18.2</ele>
   </trkpt>
   <trkpt lat="22.7273200" lon="120.3249750">
    <ele>18.2</ele>
   </trkpt>
   <trkpt lat="22.7273180" lon="120.3249880">
    <ele>18.2</ele>
   </trkpt>
   <trkpt lat="22.7273150" lon="120.3250030">
    <ele>18.2</ele>
   </trkpt>
   <trkpt lat="22.7273140" lon="120.3250120">
    <ele>18.2</ele>
   </trkpt>
   <trkpt lat="22.7273160" lon="120.3250240">
    <ele>18.2</ele>
   </trkpt>
   <trkpt lat="22.7273140" lon="120.3250220">
    <ele>18.2</ele>
   </trkpt>
   <trkpt lat="22.7273140" lon="120.3250220">
    <ele>18.2</ele>
   </trkpt>
   <trkpt lat="22.7273140" lon="120.3250220">
    <ele>18.2</ele>
   </trkpt>
   <trkpt lat="22.7273040" lon="120.3250260">
    <ele>18.2</ele>
   </trkpt>
   <trkpt lat="22.7273140" lon="120.3250370">
    <ele>18.2</ele>
   </trkpt>
   <trkpt lat="22.7273130" lon="120.3250340">
    <ele>18.2</ele>
   </trkpt>
   <trkpt lat="22.7272990" lon="120.3250430">
    <ele>18.2</ele>
   </trkpt>
   <trkpt lat="22.7272870" lon="120.3250620">
    <ele>18.2</ele>
   </trkpt>
   <trkpt lat="22.7272670" lon="120.3250750">
    <ele>18.2</ele>
   </trkpt>
   <trkpt lat="22.7272270" lon="120.3250690">
    <ele>18.2</ele>
   </trkpt>
   <trkpt lat="22.7271860" lon="120.3250820">
    <ele>18.2</ele>
   </trkpt>
   <trkpt lat="22.7271760" lon="120.3250890">
    <ele>18.2</ele>
   </trkpt>
   <trkpt lat="22.7271730" lon="120.3250920">
    <ele>18.2</ele>
   </trkpt>
   <trkpt lat="22.7271730" lon="120.3250860">
    <ele>18.2</ele>
   </trkpt>
   <trkpt lat="22.7271760" lon="120.3250840">
    <ele>18.2</ele>
   </trkpt>
   <trkpt lat="22.7271540" lon="120.3250740">
    <ele>18.2</ele>
   </trkpt>
   <trkpt lat="22.7271550" lon="120.3250670">
    <ele>18.2</ele>
   </trkpt>
   <trkpt lat="22.7271520" lon="120.3250640">
    <ele>18.2</ele>
   </trkpt>
   <trkpt lat="22.7271390" lon="120.3250630">
    <ele>18.2</ele>
   </trkpt>
   <trkpt lat="22.7271280" lon="120.3250630">
    <ele>18.2</ele>
   </trkpt>
   <trkpt lat="22.7271110" lon="120.3250640">
    <ele>18.2</ele>
   </trkpt>
   <trkpt lat="22.7271000" lon="120.3250640">
    <ele>18.2</ele>
   </trkpt>
   <trkpt lat="22.7270830" lon="120.3250620">
    <ele>18.2</ele>
   </trkpt>
   <trkpt lat="22.7270740" lon="120.3250580">
    <ele>18.2</ele>
   </trkpt>
   <trkpt lat="22.7270560" lon="120.3250540">
    <ele>18.2</ele>
   </trkpt>
   <trkpt lat="22.7270450" lon="120.3250500">
    <ele>18.2</ele>
   </trkpt>
   <trkpt lat="22.7270310" lon="120.3250480">
    <ele>18.2</ele>
   </trkpt>
   <trkpt lat="22.7270190" lon="120.3250480">
    <ele>18.2</ele>
   </trkpt>
   <trkpt lat="22.7270060" lon="120.3250410">
    <ele>18.2</ele>
   </trkpt>
   <trkpt lat="22.7270010" lon="120.3250380">
    <ele>18.2</ele>
   </trkpt>
   <trkpt lat="22.7269920" lon="120.3250370">
    <ele>18.2</ele>
   </trkpt>
   <trkpt lat="22.7269890" lon="120.3250340">
    <ele>18.2</ele>
   </trkpt>
   <trkpt lat="22.7269860" lon="120.3250310">
    <ele>18.2</ele>
   </trkpt>
   <trkpt lat="22.7269820" lon="120.3250200">
    <ele>18.2</ele>
   </trkpt>
   <trkpt lat="22.7269810" lon="120.3250100">
    <ele>18.2</ele>
   </trkpt>
   <trkpt lat="22.7269820" lon="120.3250020">
    <ele>18.2</ele>
   </trkpt>
   <trkpt lat="22.7269780" lon="120.3249820">
    <ele>18.2</ele>
   </trkpt>
   <trkpt lat="22.7269810" lon="120.3249670">
    <ele>18.2</ele>
   </trkpt>
   <trkpt lat="22.7269790" lon="120.3249570">
    <ele>18.2</ele>
   </trkpt>
   <trkpt lat="22.7269780" lon="120.3249480">
    <ele>18.2</ele>
   </trkpt>
   <trkpt lat="22.7269740" lon="120.3249360">
    <ele>18.2</ele>
   </trkpt>
   <trkpt lat="22.7269690" lon="120.3249230">
    <ele>18.2</ele>
   </trkpt>
   <trkpt lat="22.7269660" lon="120.3249090">
    <ele>18.1</ele>
   </trkpt>
   <trkpt lat="22.7269650" lon="120.3248980">
    <ele>18.1</ele>
   </trkpt>
   <trkpt lat="22.7269650" lon="120.3248950">
    <ele>18.1</ele>
   </trkpt>
   <trkpt lat="22.7269620" lon="120.3248960">
    <ele>18.1</ele>
   </trkpt>
   <trkpt lat="22.7269610" lon="120.3248940">
    <ele>18.1</ele>
   </trkpt>
   <trkpt lat="22.7269620" lon="120.3248910">
    <ele>18.1</ele>
   </trkpt>
   <trkpt lat="22.7269660" lon="120.3248910">
    <ele>18.1</ele>
   </trkpt>
   <trkpt lat="22.7269770" lon="120.3249010">
    <ele>18.1</ele>
   </trkpt>
   <trkpt lat="22.7269800" lon="120.3249050">
    <ele>18.1</ele>
   </trkpt>
   <trkpt lat="22.7269760" lon="120.3249060">
    <ele>18.1</ele>
   </trkpt>
   <trkpt lat="22.7269760" lon="120.3249070">
    <ele>18.1</ele>
   </trkpt>
   <trkpt lat="22.7269700" lon="120.3249070">
    <ele>18.1</ele>
   </trkpt>
   <trkpt lat="22.7269670" lon="120.3249070">
    <ele>18.1</ele>
   </trkpt>
   <trkpt lat="22.7269650" lon="120.3249080">
    <ele>18.1</ele>
   </trkpt>
   <trkpt lat="22.7269620" lon="120.3249100">
    <ele>18.1</ele>
   </trkpt>
   <trkpt lat="22.7269620" lon="120.3249100">
    <ele>18.1</ele>
   </trkpt>
   <trkpt lat="22.7269620" lon="120.3249100">
    <ele>18.1</ele>
   </trkpt>
   <trkpt lat="22.7269620" lon="120.3249100">
    <ele>18.1</ele>
   </trkpt>
   <trkpt lat="22.7269450" lon="120.3249150">
    <ele>18.1</ele>
   </trkpt>
   <trkpt lat="22.7269420" lon="120.3249140">
    <ele>18.1</ele>
   </trkpt>
   <trkpt lat="22.7269420" lon="120.3249150">
    <ele>18.1</ele>
   </trkpt>
   <trkpt lat="22.7269420" lon="120.3249150">
    <ele>18.1</ele>
   </trkpt>
   <trkpt lat="22.7269420" lon="120.3249150">
    <ele>18.1</ele>
   </trkpt>
   <trkpt lat="22.7269420" lon="120.3249150">
    <ele>18.1</ele>
   </trkpt>
   <trkpt lat="22.7269420" lon="120.3249150">
    <ele>18.1</ele>
   </trkpt>
   <trkpt lat="22.7269420" lon="120.3249150">
    <ele>18.1</ele>
   </trkpt>
   <trkpt lat="22.7269420" lon="120.3249150">
    <ele>18.1</ele>
   </trkpt>
   <trkpt lat="22.7269420" lon="120.3249150">
    <ele>18.1</ele>
   </trkpt>
   <trkpt lat="22.7269420" lon="120.3249150">
    <ele>18.1</ele>
   </trkpt>
   <trkpt lat="22.7269520" lon="120.3249220">
    <ele>18.1</ele>
   </trkpt>
   <trkpt lat="22.7269520" lon="120.3249230">
    <ele>18.1</ele>
   </trkpt>
   <trkpt lat="22.7269470" lon="120.3249220">
    <ele>18.1</ele>
   </trkpt>
   <trkpt lat="22.7269470" lon="120.3249220">
    <ele>18.1</ele>
   </trkpt>
   <trkpt lat="22.7269470" lon="120.3249220">
    <ele>18.1</ele>
   </trkpt>
   <trkpt lat="22.7269470" lon="120.3249220">
    <ele>18.1</ele>
   </trkpt>
   <trkpt lat="22.7269470" lon="120.3249220">
    <ele>18.1</ele>
   </trkpt>
   <trkpt lat="22.7269470" lon="120.3249220">
    <ele>18.1</ele>
   </trkpt>
   <trkpt lat="22.7269250" lon="120.3249160">
    <ele>18.1</ele>
   </trkpt>
   <trkpt lat="22.7269250" lon="120.3249160">
    <ele>18.1</ele>
   </trkpt>
   <trkpt lat="22.7269200" lon="120.3249130">
    <ele>18.1</ele>
   </trkpt>
   <trkpt lat="22.7269160" lon="120.3249110">
    <ele>18.1</ele>
   </trkpt>
   <trkpt lat="22.7269160" lon="120.3249180">
    <ele>18.1</ele>
   </trkpt>
   <trkpt lat="22.7269160" lon="120.3249180">
    <ele>18.1</ele>
   </trkpt>
   <trkpt lat="22.7269160" lon="120.3249180">
    <ele>18.1</ele>
   </trkpt>
   <trkpt lat="22.7269180" lon="120.3249140">
    <ele>18.1</ele>
   </trkpt>
   <trkpt lat="22.7269190" lon="120.3249150">
    <ele>18.1</ele>
   </trkpt>
   <trkpt lat="22.7269230" lon="120.3249180">
    <ele>18.1</ele>
   </trkpt>
   <trkpt lat="22.7269230" lon="120.3249180">
    <ele>18.1</ele>
   </trkpt>
   <trkpt lat="22.7269210" lon="120.3249170">
    <ele>18.1</ele>
   </trkpt>
   <trkpt lat="22.7269220" lon="120.3249190">
    <ele>18.1</ele>
   </trkpt>
   <trkpt lat="22.7269210" lon="120.3249200">
    <ele>18.1</ele>
   </trkpt>
   <trkpt lat="22.7269070" lon="120.3249180">
    <ele>18.1</ele>
   </trkpt>
   <trkpt lat="22.7269080" lon="120.3249140">
    <ele>18.1</ele>
   </trkpt>
   <trkpt lat="22.7269060" lon="120.3249170">
    <ele>18.1</ele>
   </trkpt>
   <trkpt lat="22.7269230" lon="120.3249180">
    <ele>18.1</ele>
   </trkpt>
   <trkpt lat="22.7269260" lon="120.3249150">
    <ele>18.1</ele>
   </trkpt>
   <trkpt lat="22.7269340" lon="120.3249190">
    <ele>18.1</ele>
   </trkpt>
   <trkpt lat="22.7269460" lon="120.3249180">
    <ele>18.1</ele>
   </trkpt>
   <trkpt lat="22.7269540" lon="120.3249120">
    <ele>18.1</ele>
   </trkpt>
   <trkpt lat="22.7269650" lon="120.3249090">
    <ele>18.1</ele>
   </trkpt>
   <trkpt lat="22.7269680" lon="120.3249010">
    <ele>18.1</ele>
   </trkpt>
   <trkpt lat="22.7269800" lon="120.3249060">
    <ele>18.1</ele>
   </trkpt>
   <trkpt lat="22.7269800" lon="120.3249060">
    <ele>18.1</ele>
   </trkpt>
   <trkpt lat="22.7269800" lon="120.3249060">
    <ele>18.1</ele>
   </trkpt>
   <trkpt lat="22.7269800" lon="120.3249060">
    <ele>18.1</ele>
   </trkpt>
   <trkpt lat="22.7269800" lon="120.3249060">
    <ele>18.1</ele>
   </trkpt>
   <trkpt lat="22.7269800" lon="120.3249060">
    <ele>18.1</ele>
   </trkpt>
   <trkpt lat="22.7269800" lon="120.3249060">
    <ele>18.1</ele>
   </trkpt>
   <trkpt lat="22.7269800" lon="120.3249060">
    <ele>18.1</ele>
   </trkpt>
   <trkpt lat="22.7269800" lon="120.3249060">
    <ele>18.1</ele>
   </trkpt>
   <trkpt lat="22.7269800" lon="120.3249060">
    <ele>18.1</ele>
   </trkpt>
   <trkpt lat="22.7269800" lon="120.3249060">
    <ele>18.1</ele>
   </trkpt>
   <trkpt lat="22.7269800" lon="120.3249060">
    <ele>18.1</ele>
   </trkpt>
   <trkpt lat="22.7270030" lon="120.3249040">
    <ele>18.1</ele>
   </trkpt>
   <trkpt lat="22.7270030" lon="120.3249050">
    <ele>18.1</ele>
   </trkpt>
   <trkpt lat="22.7270030" lon="120.3249050">
    <ele>18.1</ele>
   </trkpt>
   <trkpt lat="22.7270030" lon="120.3249050">
    <ele>18.1</ele>
   </trkpt>
   <trkpt lat="22.7270270" lon="120.3249080">
    <ele>18.1</ele>
   </trkpt>
   <trkpt lat="22.7270310" lon="120.3249090">
    <ele>18.1</ele>
   </trkpt>
   <trkpt lat="22.7270330" lon="120.3249070">
    <ele>18.1</ele>
   </trkpt>
   <trkpt lat="22.7270290" lon="120.3249090">
    <ele>18.1</ele>
   </trkpt>
   <trkpt lat="22.7270380" lon="120.3249070">
    <ele>18.1</ele>
   </trkpt>
   <trkpt lat="22.7270240" lon="120.3248940">
    <ele>18.1</ele>
   </trkpt>
   <trkpt lat="22.7270450" lon="120.3248830">
    <ele>18.1</ele>
   </trkpt>
   <trkpt lat="22.7270490" lon="120.3248620">
    <ele>18.1</ele>
   </trkpt>
   <trkpt lat="22.7270580" lon="120.3248710">
    <ele>18.1</ele>
   </trkpt>
   <trkpt lat="22.7270580" lon="120.3248690">
    <ele>18.1</ele>
   </trkpt>
   <trkpt lat="22.7270710" lon="120.3248640">
    <ele>18.1</ele>
   </trkpt>
   <trkpt lat="22.7270700" lon="120.3248600">
    <ele>18.1</ele>
   </trkpt>
   <trkpt lat="22.7270750" lon="120.3248440">
    <ele>18.1</ele>
   </trkpt>
   <trkpt lat="22.7270740" lon="120.3248390">
    <ele>18.1</ele>
   </trkpt>
   <trkpt lat="22.7270880" lon="120.3248300">
    <ele>18.1</ele>
   </trkpt>
   <trkpt lat="22.7270990" lon="120.3248280">
    <ele>18.1</ele>
   </trkpt>
   <trkpt lat="22.7271060" lon="120.3248390">
    <ele>18.1</ele>
   </trkpt>
   <trkpt lat="22.7271130" lon="120.3248370">
    <ele>18.1</ele>
   </trkpt>
   <trkpt lat="22.7271240" lon="120.3248390">
    <ele>18.1</ele>
   </trkpt>
   <trkpt lat="22.7271360" lon="120.3248270">
    <ele>18.1</ele>
   </trkpt>
   <trkpt lat="22.7271310" lon="120.3248180">
    <ele>18.1</ele>
   </trkpt>
   <trkpt lat="22.7271210" lon="120.3248090">
    <ele>18.1</ele>
   </trkpt>
   <trkpt lat="22.7271050" lon="120.3247960">
    <ele>18.1</ele>
   </trkpt>
   <trkpt lat="22.7270990" lon="120.3247820">
    <ele>18.1</ele>
   </trkpt>
   <trkpt lat="22.7270970" lon="120.3247720">
    <ele>18.2</ele>
   </trkpt>
   <trkpt lat="22.7270870" lon="120.3247520">
    <ele>18.2</ele>
   </trkpt>
   <trkpt lat="22.7270520" lon="120.3247330">
    <ele>18.2</ele>
   </trkpt>
   <trkpt lat="22.7270280" lon="120.3247260">
    <ele>18.2</ele>
   </trkpt>
   <trkpt lat="22.7270160" lon="120.3247110">
    <ele>18.2</ele>
   </trkpt>
   <trkpt lat="22.7270120" lon="120.3246980">
    <ele>18.2</ele>
   </trkpt>
   <trkpt lat="22.7269980" lon="120.3246830">
    <ele>18.2</ele>
   </trkpt>
   <trkpt lat="22.7269950" lon="120.3246720">
    <ele>18.2</ele>
   </trkpt>
   <trkpt lat="22.7269920" lon="120.3246630">
    <ele>18.2</ele>
   </trkpt>
   <trkpt lat="22.7269850" lon="120.3246450">
    <ele>18.2</ele>
   </trkpt>
   <trkpt lat="22.7269740" lon="120.3246330">
    <ele>18.2</ele>
   </trkpt>
   <trkpt lat="22.7269710" lon="120.3246190">
    <ele>18.2</ele>
   </trkpt>
   <trkpt lat="22.7269720" lon="120.3246030">
    <ele>18.2</ele>
   </trkpt>
   <trkpt lat="22.7269660" lon="120.3245900">
    <ele>18.2</ele>
   </trkpt>
   <trkpt lat="22.7269580" lon="120.3245780">
    <ele>18.2</ele>
   </trkpt>
   <trkpt lat="22.7269570" lon="120.3245670">
    <ele>18.2</ele>
   </trkpt>
   <trkpt lat="22.7269520" lon="120.3245630">
    <ele>18.2</ele>
   </trkpt>
   <trkpt lat="22.7269540" lon="120.3245650">
    <ele>18.2</ele>
   </trkpt>
   <trkpt lat="22.7269480" lon="120.3245510">
    <ele>18.2</ele>
   </trkpt>
   <trkpt lat="22.7269380" lon="120.3245390">
    <ele>18.2</ele>
   </trkpt>
   <trkpt lat="22.7269370" lon="120.3245440">
    <ele>18.3</ele>
   </trkpt>
   <trkpt lat="22.7269380" lon="120.3245460">
    <ele>18.3</ele>
   </trkpt>
   <trkpt lat="22.7269390" lon="120.3245460">
    <ele>18.3</ele>
   </trkpt>
   <trkpt lat="22.7269310" lon="120.3245460">
    <ele>18.3</ele>
   </trkpt>
   <trkpt lat="22.7269310" lon="120.3245370">
    <ele>18.3</ele>
   </trkpt>
   <trkpt lat="22.7269190" lon="120.3245240">
    <ele>18.3</ele>
   </trkpt>
   <trkpt lat="22.7268920" lon="120.3245080">
    <ele>18.3</ele>
   </trkpt>
   <trkpt lat="22.7268810" lon="120.3245030">
    <ele>18.3</ele>
   </trkpt>
   <trkpt lat="22.7268680" lon="120.3244900">
    <ele>18.3</ele>
   </trkpt>
   <trkpt lat="22.7268850" lon="120.3244910">
    <ele>18.3</ele>
   </trkpt>
   <trkpt lat="22.7268680" lon="120.3244790">
    <ele>18.3</ele>
   </trkpt>
   <trkpt lat="22.7268660" lon="120.3244630">
    <ele>18.3</ele>
   </trkpt>
   <trkpt lat="22.7268630" lon="120.3244500">
    <ele>18.3</ele>
   </trkpt>
   <trkpt lat="22.7268650" lon="120.3244350">
    <ele>18.3</ele>
   </trkpt>
   <trkpt lat="22.7268780" lon="120.3244110">
    <ele>18.3</ele>
   </trkpt>
   <trkpt lat="22.7269030" lon="120.3243940">
    <ele>18.3</ele>
   </trkpt>
   <trkpt lat="22.7269030" lon="120.3243700">
    <ele>18.3</ele>
   </trkpt>
   <trkpt lat="22.7269040" lon="120.3243650">
    <ele>18.3</ele>
   </trkpt>
   <trkpt lat="22.7269050" lon="120.3243600">
    <ele>18.3</ele>
   </trkpt>
   <trkpt lat="22.7269220" lon="120.3243730">
    <ele>18.4</ele>
   </trkpt>
   <trkpt lat="22.7269350" lon="120.3243890">
    <ele>18.4</ele>
   </trkpt>
   <trkpt lat="22.7269350" lon="120.3243890">
    <ele>18.4</ele>
   </trkpt>
   <trkpt lat="22.7269350" lon="120.3243890">
    <ele>18.4</ele>
   </trkpt>
   <trkpt lat="22.7269350" lon="120.3243890">
    <ele>18.4</ele>
   </trkpt>
   <trkpt lat="22.7269350" lon="120.3243890">
    <ele>18.4</ele>
   </trkpt>
   <trkpt lat="22.7269350" lon="120.3243890">
    <ele>18.4</ele>
   </trkpt>
   <trkpt lat="22.7269350" lon="120.3243890">
    <ele>18.4</ele>
   </trkpt>
   <trkpt lat="22.7269350" lon="120.3243890">
    <ele>18.4</ele>
   </trkpt>
   <trkpt lat="22.7269350" lon="120.3243890">
    <ele>18.4</ele>
   </trkpt>
   <trkpt lat="22.7269560" lon="120.3244080">
    <ele>18.4</ele>
   </trkpt>
   <trkpt lat="22.7269600" lon="120.3244120">
    <ele>18.4</ele>
   </trkpt>
   <trkpt lat="22.7269650" lon="120.3244160">
    <ele>18.4</ele>
   </trkpt>
   <trkpt lat="22.7269700" lon="120.3244210">
    <ele>18.4</ele>
   </trkpt>
   <trkpt lat="22.7269750" lon="120.3244250">
    <ele>18.4</ele>
   </trkpt>
   <trkpt lat="22.7269800" lon="120.3244300">
    <ele>18.4</ele>
   </trkpt>
   <trkpt lat="22.7269840" lon="120.3244340">
    <ele>18.4</ele>
   </trkpt>
   <trkpt lat="22.7269890" lon="120.3244380">
    <ele>18.4</ele>
   </trkpt>
   <trkpt lat="22.7269940" lon="120.3244430">
    <ele>18.4</ele>
   </trkpt>
   <trkpt lat="22.7269990" lon="120.3244470">
    <ele>18.4</ele>
   </trkpt>
   <trkpt lat="22.7270030" lon="120.3244510">
    <ele>18.4</ele>
   </trkpt>
   <trkpt lat="22.7270080" lon="120.3244560">
    <ele>18.4</ele>
   </trkpt>
   <trkpt lat="22.7270130" lon="120.3244600">
    <ele>18.4</ele>
   </trkpt>
   <trkpt lat="22.7270130" lon="120.3244590">
    <ele>18.4</ele>
   </trkpt>
   <trkpt lat="22.7270200" lon="120.3244610">
    <ele>18.4</ele>
   </trkpt>
   <trkpt lat="22.7270370" lon="120.3244640">
    <ele>18.4</ele>
   </trkpt>
   <trkpt lat="22.7270390" lon="120.3244690">
    <ele>18.4</ele>
   </trkpt>
   <trkpt lat="22.7270460" lon="120.3244760">
    <ele>18.4</ele>
   </trkpt>
   <trkpt lat="22.7270420" lon="120.3244780">
    <ele>18.4</ele>
   </trkpt>
   <trkpt lat="22.7270420" lon="120.3244780">
    <ele>18.4</ele>
   </trkpt>
   <trkpt lat="22.7270420" lon="120.3244780">
    <ele>18.4</ele>
   </trkpt>
   <trkpt lat="22.7270420" lon="120.3244780">
    <ele>18.4</ele>
   </trkpt>
   <trkpt lat="22.7270420" lon="120.3244780">
    <ele>18.4</ele>
   </trkpt>
   <trkpt lat="22.7270420" lon="120.3244780">
    <ele>18.4</ele>
   </trkpt>
   <trkpt lat="22.7270420" lon="120.3244780">
    <ele>18.4</ele>
   </trkpt>
   <trkpt lat="22.7270420" lon="120.3244780">
    <ele>18.4</ele>
   </trkpt>
   <trkpt lat="22.7270420" lon="120.3244780">
    <ele>18.4</ele>
   </trkpt>
   <trkpt lat="22.7270420" lon="120.3244780">
    <ele>18.4</ele>
   </trkpt>
   <trkpt lat="22.7270420" lon="120.3244780">
    <ele>18.4</ele>
   </trkpt>
   <trkpt lat="22.7270420" lon="120.3244780">
    <ele>18.4</ele>
   </trkpt>
   <trkpt lat="22.7270420" lon="120.3244780">
    <ele>18.4</ele>
   </trkpt>
   <trkpt lat="22.7270420" lon="120.3244780">
    <ele>18.4</ele>
   </trkpt>
   <trkpt lat="22.7270420" lon="120.3244780">
    <ele>18.4</ele>
   </trkpt>
   <trkpt lat="22.7270070" lon="120.3244840">
    <ele>18.4</ele>
   </trkpt>
   <trkpt lat="22.7270110" lon="120.3244890">
    <ele>18.4</ele>
   </trkpt>
   <trkpt lat="22.7270150" lon="120.3244860">
    <ele>18.4</ele>
   </trkpt>
   <trkpt lat="22.7270130" lon="120.3244910">
    <ele>18.4</ele>
   </trkpt>
   <trkpt lat="22.7270130" lon="120.3244900">
    <ele>18.4</ele>
   </trkpt>
   <trkpt lat="22.7270100" lon="120.3244920">
    <ele>18.4</ele>
   </trkpt>
   <trkpt lat="22.7270120" lon="120.3244950">
    <ele>18.4</ele>
   </trkpt>
   <trkpt lat="22.7270120" lon="120.3244940">
    <ele>18.4</ele>
   </trkpt>
   <trkpt lat="22.7270120" lon="120.3244940">
    <ele>18.4</ele>
   </trkpt>
   <trkpt lat="22.7270120" lon="120.3244940">
    <ele>18.4</ele>
   </trkpt>
   <trkpt lat="22.7270180" lon="120.3245020">
    <ele>18.4</ele>
   </trkpt>
   <trkpt lat="22.7270280" lon="120.3245070">
    <ele>18.4</ele>
   </trkpt>
   <trkpt lat="22.7270310" lon="120.3245120">
    <ele>18.4</ele>
   </trkpt>
   <trkpt lat="22.7270270" lon="120.3245160">
    <ele>18.4</ele>
   </trkpt>
   <trkpt lat="22.7270200" lon="120.3245250">
    <ele>18.4</ele>
   </trkpt>
   <trkpt lat="22.7270280" lon="120.3245380">
    <ele>18.4</ele>
   </trkpt>
   <trkpt lat="22.7270390" lon="120.3245620">
    <ele>18.3</ele>
   </trkpt>
   <trkpt lat="22.7270340" lon="120.3245610">
    <ele>18.3</ele>
   </trkpt>
   <trkpt lat="22.7270390" lon="120.3245610">
    <ele>18.3</ele>
   </trkpt>
   <trkpt lat="22.7270420" lon="120.3245660">
    <ele>18.3</ele>
   </trkpt>
   <trkpt lat="22.7270350" lon="120.3245710">
    <ele>18.3</ele>
   </trkpt>
   <trkpt lat="22.7270380" lon="120.3245720">
    <ele>18.3</ele>
   </trkpt>
   <trkpt lat="22.7270400" lon="120.3245740">
    <ele>18.3</ele>
   </trkpt>
   <trkpt lat="22.7270420" lon="120.3245790">
    <ele>18.3</ele>
   </trkpt>
   <trkpt lat="22.7270450" lon="120.3245850">
    <ele>18.3</ele>
   </trkpt>
   <trkpt lat="22.7270520" lon="120.3245870">
    <ele>18.3</ele>
   </trkpt>
   <trkpt lat="22.7270620" lon="120.3245900">
    <ele>18.3</ele>
   </trkpt>
   <trkpt lat="22.7270710" lon="120.3245920">
    <ele>18.3</ele>
   </trkpt>
   <trkpt lat="22.7270810" lon="120.3245940">
    <ele>18.3</ele>
   </trkpt>
   <trkpt lat="22.7270900" lon="120.3245970">
    <ele>18.3</ele>
   </trkpt>
   <trkpt lat="22.7271000" lon="120.3246000">
    <ele>18.3</ele>
   </trkpt>
   <trkpt lat="22.7271110" lon="120.3246050">
    <ele>18.3</ele>
   </trkpt>
   <trkpt lat="22.7271210" lon="120.3246100">
    <ele>18.3</ele>
   </trkpt>
   <trkpt lat="22.7271310" lon="120.3246160">
    <ele>18.3</ele>
   </trkpt>
   <trkpt lat="22.7271420" lon="120.3246190">
    <ele>18.3</ele>
   </trkpt>
   <trkpt lat="22.7271530" lon="120.3246230">
    <ele>18.3</ele>
   </trkpt>
   <trkpt lat="22.7271610" lon="120.3246270">
    <ele>18.3</ele>
   </trkpt>
   <trkpt lat="22.7271710" lon="120.3246340">
    <ele>18.3</ele>
   </trkpt>
   <trkpt lat="22.7271800" lon="120.3246400">
    <ele>18.3</ele>
   </trkpt>
   <trkpt lat="22.7271890" lon="120.3246500">
    <ele>18.3</ele>
   </trkpt>
   <trkpt lat="22.7271980" lon="120.3246600">
    <ele>18.2</ele>
   </trkpt>
   <trkpt lat="22.7272020" lon="120.3246650">
    <ele>18.2</ele>
   </trkpt>
   <trkpt lat="22.7272060" lon="120.3246620">
    <ele>18.2</ele>
   </trkpt>
   <trkpt lat="22.7272090" lon="120.3246610">
    <ele>18.2</ele>
   </trkpt>
   <trkpt lat="22.7272140" lon="120.3246660">
    <ele>18.2</ele>
   </trkpt>
   <trkpt lat="22.7272120" lon="120.3246680">
    <ele>18.2</ele>
   </trkpt>
   <trkpt lat="22.7272110" lon="120.3246720">
    <ele>18.2</ele>
   </trkpt>
   <trkpt lat="22.7272130" lon="120.3246720">
    <ele>18.2</ele>
   </trkpt>
   <trkpt lat="22.7272050" lon="120.3246700">
    <ele>18.2</ele>
   </trkpt>
   <trkpt lat="22.7272050" lon="120.3246700">
    <ele>18.2</ele>
   </trkpt>
   <trkpt lat="22.7272080" lon="120.3246730">
    <ele>18.2</ele>
   </trkpt>
   <trkpt lat="22.7272060" lon="120.3246720">
    <ele>18.2</ele>
   </trkpt>
   <trkpt lat="22.7272060" lon="120.3246720">
    <ele>18.2</ele>
   </trkpt>
   <trkpt lat="22.7272060" lon="120.3246740">
    <ele>18.2</ele>
   </trkpt>
   <trkpt lat="22.7272060" lon="120.3246740">
    <ele>18.2</ele>
   </trkpt>
   <trkpt lat="22.7272080" lon="120.3246730">
    <ele>18.2</ele>
   </trkpt>
   <trkpt lat="22.7272020" lon="120.3246760">
    <ele>18.2</ele>
   </trkpt>
   <trkpt lat="22.7271960" lon="120.3246770">
    <ele>18.2</ele>
   </trkpt>
   <trkpt lat="22.7272030" lon="120.3246790">
    <ele>18.2</ele>
   </trkpt>
   <trkpt lat="22.7272050" lon="120.3246760">
    <ele>18.2</ele>
   </trkpt>
   <trkpt lat="22.7272050" lon="120.3246710">
    <ele>18.2</ele>
   </trkpt>
   <trkpt lat="22.7272030" lon="120.3246720">
    <ele>18.2</ele>
   </trkpt>
   <trkpt lat="22.7272030" lon="120.3246720">
    <ele>18.2</ele>
   </trkpt>
   <trkpt lat="22.7272030" lon="120.3246720">
    <ele>18.2</ele>
   </trkpt>
   <trkpt lat="22.7272050" lon="120.3246720">
    <ele>18.2</ele>
   </trkpt>
   <trkpt lat="22.7272050" lon="120.3246680">
    <ele>18.2</ele>
   </trkpt>
   <trkpt lat="22.7272050" lon="120.3246660">
    <ele>18.2</ele>
   </trkpt>
   <trkpt lat="22.7272070" lon="120.3246660">
    <ele>18.2</ele>
   </trkpt>
   <trkpt lat="22.7272010" lon="120.3246630">
    <ele>18.2</ele>
   </trkpt>
   <trkpt lat="22.7272050" lon="120.3246620">
    <ele>18.2</ele>
   </trkpt>
   <trkpt lat="22.7272060" lon="120.3246630">
    <ele>18.2</ele>
   </trkpt>
   <trkpt lat="22.7272080" lon="120.3246650">
    <ele>18.2</ele>
   </trkpt>
   <trkpt lat="22.7272120" lon="120.3246670">
    <ele>18.2</ele>
   </trkpt>
   <trkpt lat="22.7272140" lon="120.3246620">
    <ele>18.2</ele>
   </trkpt>
   <trkpt lat="22.7272150" lon="120.3246620">
    <ele>18.2</ele>
   </trkpt>
   <trkpt lat="22.7272160" lon="120.3246620">
    <ele>18.2</ele>
   </trkpt>
   <trkpt lat="22.7272160" lon="120.3246640">
    <ele>18.2</ele>
   </trkpt>
   <trkpt lat="22.7272170" lon="120.3246620">
    <ele>18.2</ele>
   </trkpt>
   <trkpt lat="22.7272090" lon="120.3246600">
    <ele>18.2</ele>
   </trkpt>
   <trkpt lat="22.7272030" lon="120.3246710">
    <ele>18.2</ele>
   </trkpt>
   <trkpt lat="22.7272020" lon="120.3246690">
    <ele>18.2</ele>
   </trkpt>
   <trkpt lat="22.7271950" lon="120.3246680">
    <ele>18.2</ele>
   </trkpt>
   <trkpt lat="22.7271950" lon="120.3246670">
    <ele>18.2</ele>
   </trkpt>
   <trkpt lat="22.7271950" lon="120.3246670">
    <ele>18.2</ele>
   </trkpt>
   <trkpt lat="22.7271950" lon="120.3246670">
    <ele>18.2</ele>
   </trkpt>
   <trkpt lat="22.7271910" lon="120.3246670">
    <ele>18.2</ele>
   </trkpt>
   <trkpt lat="22.7271870" lon="120.3246660">
    <ele>18.2</ele>
   </trkpt>
   <trkpt lat="22.7271850" lon="120.3246670">
    <ele>18.2</ele>
   </trkpt>
   <trkpt lat="22.7271850" lon="120.3246690">
    <ele>18.2</ele>
   </trkpt>
   <trkpt lat="22.7271830" lon="120.3246690">
    <ele>18.2</ele>
   </trkpt>
   <trkpt lat="22.7271830" lon="120.3246670">
    <ele>18.2</ele>
   </trkpt>
   <trkpt lat="22.7271840" lon="120.3246680">
    <ele>18.2</ele>
   </trkpt>
   <trkpt lat="22.7271840" lon="120.3246650">
    <ele>18.2</ele>
   </trkpt>
   <trkpt lat="22.7271840" lon="120.3246650">
    <ele>18.2</ele>
   </trkpt>
   <trkpt lat="22.7271840" lon="120.3246640">
    <ele>18.2</ele>
   </trkpt>
   <trkpt lat="22.7271840" lon="120.3246640">
    <ele>18.2</ele>
   </trkpt>
   <trkpt lat="22.7271840" lon="120.3246640">
    <ele>18.2</ele>
   </trkpt>
   <trkpt lat="22.7271840" lon="120.3246630">
    <ele>18.2</ele>
   </trkpt>
   <trkpt lat="22.7271840" lon="120.3246640">
    <ele>18.2</ele>
   </trkpt>
   <trkpt lat="22.7271810" lon="120.3246640">
    <ele>18.2</ele>
   </trkpt>
   <trkpt lat="22.7271810" lon="120.3246640">
    <ele>18.2</ele>
   </trkpt>
   <trkpt lat="22.7271810" lon="120.3246640">
    <ele>18.2</ele>
   </trkpt>
   <trkpt lat="22.7271810" lon="120.3246640">
    <ele>18.2</ele>
   </trkpt>
   <trkpt lat="22.7271730" lon="120.3246620">
    <ele>18.2</ele>
   </trkpt>
   <trkpt lat="22.7271730" lon="120.3246630">
    <ele>18.2</ele>
   </trkpt>
   <trkpt lat="22.7271740" lon="120.3246620">
    <ele>18.2</ele>
   </trkpt>
   <trkpt lat="22.7271740" lon="120.3246630">
    <ele>18.2</ele>
   </trkpt>
   <trkpt lat="22.7271730" lon="120.3246630">
    <ele>18.2</ele>
   </trkpt>
   <trkpt lat="22.7271740" lon="120.3246630">
    <ele>18.2</ele>
   </trkpt>
   <trkpt lat="22.7271720" lon="120.3246630">
    <ele>18.2</ele>
   </trkpt>
   <trkpt lat="22.7271690" lon="120.3246620">
    <ele>18.2</ele>
   </trkpt>
   <trkpt lat="22.7271690" lon="120.3246620">
    <ele>18.2</ele>
   </trkpt>
   <trkpt lat="22.7271720" lon="120.3246600">
    <ele>18.2</ele>
   </trkpt>
   <trkpt lat="22.7271740" lon="120.3246600">
    <ele>18.2</ele>
   </trkpt>
   <trkpt lat="22.7271710" lon="120.3246600">
    <ele>18.2</ele>
   </trkpt>
   <trkpt lat="22.7271720" lon="120.3246590">
    <ele>18.2</ele>
   </trkpt>
   <trkpt lat="22.7271730" lon="120.3246610">
    <ele>18.2</ele>
   </trkpt>
   <trkpt lat="22.7271710" lon="120.3246600">
    <ele>18.2</ele>
   </trkpt>
   <trkpt lat="22.7271710" lon="120.3246590">
    <ele>18.2</ele>
   </trkpt>
   <trkpt lat="22.7271680" lon="120.3246590">
    <ele>18.2</ele>
   </trkpt>
   <trkpt lat="22.7271680" lon="120.3246590">
    <ele>18.2</ele>
   </trkpt>
   <trkpt lat="22.7271680" lon="120.3246590">
    <ele>18.2</ele>
   </trkpt>
   <trkpt lat="22.7271670" lon="120.3246600">
    <ele>18.2</ele>
   </trkpt>
   <trkpt lat="22.7271690" lon="120.3246600">
    <ele>18.2</ele>
   </trkpt>
   <trkpt lat="22.7271700" lon="120.3246600">
    <ele>18.2</ele>
   </trkpt>
   <trkpt lat="22.7271660" lon="120.3246600">
    <ele>18.2</ele>
   </trkpt>
   <trkpt lat="22.7271630" lon="120.3246580">
    <ele>18.2</ele>
   </trkpt>
   <trkpt lat="22.7271670" lon="120.3246620">
    <ele>18.2</ele>
   </trkpt>
   <trkpt lat="22.7271670" lon="120.3246590">
    <ele>18.1</ele>
   </trkpt>
   <trkpt lat="22.7271800" lon="120.3246510">
    <ele>18.1</ele>
   </trkpt>
   <trkpt lat="22.7271850" lon="120.3246540">
    <ele>18.1</ele>
   </trkpt>
   <trkpt lat="22.7271930" lon="120.3246600">
    <ele>18.1</ele>
   </trkpt>
   <trkpt lat="22.7271930" lon="120.3246590">
    <ele>18.1</ele>
   </trkpt>
   <trkpt lat="22.7271930" lon="120.3246590">
    <ele>18.1</ele>
   </trkpt>
   <trkpt lat="22.7271930" lon="120.3246600">
    <ele>18.1</ele>
   </trkpt>
   <trkpt lat="22.7271950" lon="120.3246610">
    <ele>18.1</ele>
   </trkpt>
   <trkpt lat="22.7271950" lon="120.3246580">
    <ele>18.1</ele>
   </trkpt>
   <trkpt lat="22.7271940" lon="120.3246570">
    <ele>18.1</ele>
   </trkpt>
   <trkpt lat="22.7271980" lon="120.3246600">
    <ele>18.1</ele>
   </trkpt>
   <trkpt lat="22.7271960" lon="120.3246600">
    <ele>18.1</ele>
   </trkpt>
   <trkpt lat="22.7271960" lon="120.3246600">
    <ele>18.1</ele>
   </trkpt>
   <trkpt lat="22.7271960" lon="120.3246600">
    <ele>18.1</ele>
   </trkpt>
   <trkpt lat="22.7271980" lon="120.3246620">
    <ele>18.1</ele>
   </trkpt>
   <trkpt lat="22.7271990" lon="120.3246620">
    <ele>18.1</ele>
   </trkpt>
   <trkpt lat="22.7271990" lon="120.3246620">
    <ele>18.1</ele>
   </trkpt>
   <trkpt lat="22.7271990" lon="120.3246620">
    <ele>18.1</ele>
   </trkpt>
   <trkpt lat="22.7271990" lon="120.3246620">
    <ele>18.1</ele>
   </trkpt>
   <trkpt lat="22.7272010" lon="120.3246620">
    <ele>18.1</ele>
   </trkpt>
   <trkpt lat="22.7272010" lon="120.3246630">
    <ele>18.1</ele>
   </trkpt>
   <trkpt lat="22.7272050" lon="120.3246640">
    <ele>18.1</ele>
   </trkpt>
   <trkpt lat="22.7272010" lon="120.3246610">
    <ele>18.1</ele>
   </trkpt>
   <trkpt lat="22.7272000" lon="120.3246610">
    <ele>18.1</ele>
   </trkpt>
   <trkpt lat="22.7271980" lon="120.3246590">
    <ele>18.1</ele>
   </trkpt>
   <trkpt lat="22.7272030" lon="120.3246600">
    <ele>18.1</ele>
   </trkpt>
   <trkpt lat="22.7272010" lon="120.3246590">
    <ele>18.1</ele>
   </trkpt>
   <trkpt lat="22.7272030" lon="120.3246590">
    <ele>18.1</ele>
   </trkpt>
   <trkpt lat="22.7272020" lon="120.3246610">
    <ele>18.1</ele>
   </trkpt>
   <trkpt lat="22.7272030" lon="120.3246580">
    <ele>18.1</ele>
   </trkpt>
   <trkpt lat="22.7272130" lon="120.3246630">
    <ele>18.1</ele>
   </trkpt>
   <trkpt lat="22.7272160" lon="120.3246690">
    <ele>18.1</ele>
   </trkpt>
   <trkpt lat="22.7272120" lon="120.3246720">
    <ele>18.1</ele>
   </trkpt>
   <trkpt lat="22.7272110" lon="120.3246690">
    <ele>18.1</ele>
   </trkpt>
   <trkpt lat="22.7272100" lon="120.3246680">
    <ele>18.1</ele>
   </trkpt>
   <trkpt lat="22.7272130" lon="120.3246690">
    <ele>18.1</ele>
   </trkpt>
   <trkpt lat="22.7272120" lon="120.3246670">
    <ele>18.1</ele>
   </trkpt>
   <trkpt lat="22.7272120" lon="120.3246680">
    <ele>18.1</ele>
   </trkpt>
   <trkpt lat="22.7272110" lon="120.3246670">
    <ele>18.1</ele>
   </trkpt>
   <trkpt lat="22.7272140" lon="120.3246680">
    <ele>18.1</ele>
   </trkpt>
   <trkpt lat="22.7272140" lon="120.3246720">
    <ele>18.1</ele>
   </trkpt>
   <trkpt lat="22.7272130" lon="120.3246880">
    <ele>18.1</ele>
   </trkpt>
   <trkpt lat="22.7272200" lon="120.3247260">
    <ele>18.1</ele>
   </trkpt>
   <trkpt lat="22.7272180" lon="120.3247560">
    <ele>18.1</ele>
   </trkpt>
   <trkpt lat="22.7272050" lon="120.3247760">
    <ele>18.1</ele>
   </trkpt>
   <trkpt lat="22.7271900" lon="120.3247750">
    <ele>18.1</ele>
   </trkpt>
   <trkpt lat="22.7271750" lon="120.3247850">
    <ele>18.1</ele>
   </trkpt>
   <trkpt lat="22.7271480" lon="120.3248030">
    <ele>18.1</ele>
   </trkpt>
   <trkpt lat="22.7271060" lon="120.3248220">
    <ele>18.1</ele>
   </trkpt>
   <trkpt lat="22.7270700" lon="120.3248450">
    <ele>18.1</ele>
   </trkpt>
   <trkpt lat="22.7270490" lon="120.3248730">
    <ele>18.1</ele>
   </trkpt>
   <trkpt lat="22.7270350" lon="120.3249040">
    <ele>18.1</ele>
   </trkpt>
   <trkpt lat="22.7270340" lon="120.3249250">
    <ele>18.1</ele>
   </trkpt>
   <trkpt lat="22.7270360" lon="120.3249460">
    <ele>18.2</ele>
   </trkpt>
   <trkpt lat="22.7270350" lon="120.3249630">
    <ele>18.2</ele>
   </trkpt>
   <trkpt lat="22.7270330" lon="120.3249730">
    <ele>18.2</ele>
   </trkpt>
  </trkseg>
 </trk>
</gpx>
