<?xml version="1.0" encoding="UTF-8"?>
<gpx creator="StravaGPX" version="1.1" xmlns="http://www.topografix.com/GPX/1/1" xmlns:xsi="http://www.w3.org/2001/XMLSchema-instance" xsi:schemaLocation="http://www.topografix.com/GPX/1/1 http://www.topografix.com/GPX/1/1/gpx.xsd">
 <metadata>
  <time>2026-08-26T10:46:53Z</time>
 </metadata>
 <trk>
  <name>0826_Justin</name>
  <type>running</type>
  <trkseg>
   <trkpt lat="22.7479280" lon="120.3279970">
    <ele>13.3</ele>
    <time>2026-08-26T10:46:53Z</time>
   </trkpt>
   <trkpt lat="22.7479280" lon="120.3279990">
    <ele>13.3</ele>
    <time>2026-08-26T10:46:54Z</time>
   </trkpt>
   <trkpt lat="22.7479280" lon="120.3279990">
    <ele>13.3</ele>
    <time>2026-08-26T10:46:55Z</time>
   </trkpt>
   <trkpt lat="22.7479280" lon="120.3279990">
    <ele>13.3</ele>
    <time>2026-08-26T10:46:56Z</time>
   </trkpt>
   <trkpt lat="22.7479280" lon="120.3279990">
    <ele>13.3</ele>
    <time>2026-08-26T10:46:57Z</time>
   </trkpt>
   <trkpt lat="22.7479280" lon="120.3279990">
    <ele>13.3</ele>
    <time>2026-08-26T10:46:58Z</time>
   </trkpt>
   <trkpt lat="22.7479280" lon="120.3279990">
    <ele>13.3</ele>
    <time>2026-08-26T10:46:59Z</time>
   </trkpt>
   <trkpt lat="22.7479280" lon="120.3279990">
    <ele>13.3</ele>
    <time>2026-08-26T10:47:00Z</time>
   </trkpt>
   <trkpt lat="22.7479280" lon="120.3279990">
    <ele>13.3</ele>
    <time>2026-08-26T10:47:01Z</time>
   </trkpt>
   <trkpt lat="22.7479280" lon="120.3279990">
    <ele>13.3</ele>
    <time>2026-08-26T10:47:02Z</time>
   </trkpt>
   <trkpt lat="22.7479280" lon="120.3279990">
    <ele>13.3</ele>
    <time>2026-08-26T10:47:03Z</time>
   </trkpt>
   <trkpt lat="22.7479280" lon="120.3279990">
    <ele>13.3</ele>
    <time>2026-08-26T10:47:04Z</time>
   </trkpt>
   <trkpt lat="22.7479280" lon="120.3279990">
    <ele>13.3</ele>
    <time>2026-08-26T10:47:05Z</time>
   </trkpt>
   <trkpt lat="22.7479280" lon="120.3279990">
    <ele>13.3</ele>
    <time>2026-08-26T10:47:06Z</time>
   </trkpt>
   <trkpt lat="22.7479280" lon="120.3279990">
    <ele>13.3</ele>
    <time>2026-08-26T10:47:07Z</time>
   </trkpt>
   <trkpt lat="22.7479280" lon="120.3279990">
    <ele>13.3</ele>
    <time>2026-08-26T10:47:08Z</time>
   </trkpt>
   <trkpt lat="22.7479280" lon="120.3279990">
    <ele>13.3</ele>
    <time>2026-08-26T10:47:09Z</time>
   </trkpt>
   <trkpt lat="22.7479280" lon="120.3279990">
    <ele>13.3</ele>
    <time>2026-08-26T10:47:10Z</time>
   </trkpt>
   <trkpt lat="22.7479280" lon="120.3279990">
    <ele>13.3</ele>
    <time>2026-08-26T10:47:11Z</time>
   </trkpt>
   <trkpt lat="22.7479280" lon="120.3279990">
    <ele>13.3</ele>
    <time>2026-08-26T10:47:12Z</time>
   </trkpt>
   <trkpt lat="22.7479280" lon="120.3279990">
    <ele>13.3</ele>
    <time>2026-08-26T10:47:13Z</time>
   </trkpt>
   <trkpt lat="22.7479280" lon="120.3279990">
    <ele>13.3</ele>
    <time>2026-08-26T10:47:14Z</time>
   </trkpt>
   <trkpt lat="22.7479280" lon="120.3279990">
    <ele>13.3</ele>
    <time>2026-08-26T10:47:15Z</time>
   </trkpt>
   <trkpt lat="22.7479280" lon="120.3279990">
    <ele>13.3</ele>
    <time>2026-08-26T10:47:16Z</time>
   </trkpt>
   <trkpt lat="22.7479280" lon="120.3279990">
    <ele>13.3</ele>
    <time>2026-08-26T10:47:17Z</time>
   </trkpt>
   <trkpt lat="22.7479280" lon="120.3279990">
    <ele>13.3</ele>
    <time>2026-08-26T10:47:18Z</time>
   </trkpt>
   <trkpt lat="22.7479280" lon="120.3279990">
    <ele>13.3</ele>
    <time>2026-08-26T10:47:19Z</time>
   </trkpt>
   <trkpt lat="22.7479280" lon="120.3279990">
    <ele>13.3</ele>
    <time>2026-08-26T10:47:20Z</time>
   </trkpt>
   <trkpt lat="22.7479120" lon="120.3279940">
    <ele>13.3</ele>
    <time>2026-08-26T10:47:21Z</time>
   </trkpt>
   <trkpt lat="22.7479110" lon="120.3279950">
    <ele>13.3</ele>
    <time>2026-08-26T10:47:22Z</time>
   </trkpt>
   <trkpt lat="22.7479100" lon="120.3279950">
    <ele>13.3</ele>
    <time>2026-08-26T10:47:23Z</time>
   </trkpt>
   <trkpt lat="22.7479100" lon="120.3279960">
    <ele>13.3</ele>
    <time>2026-08-26T10:47:24Z</time>
   </trkpt>
   <trkpt lat="22.7479100" lon="120.3279960">
    <ele>13.3</ele>
    <time>2026-08-26T10:47:25Z</time>
   </trkpt>
   <trkpt lat="22.7479100" lon="120.3279960">
    <ele>13.3</ele>
    <time>2026-08-26T10:47:26Z</time>
   </trkpt>
   <trkpt lat="22.7479100" lon="120.3279960">
    <ele>13.3</ele>
    <time>2026-08-26T10:47:27Z</time>
   </trkpt>
   <trkpt lat="22.7479100" lon="120.3279960">
    <ele>13.3</ele>
    <time>2026-08-26T10:47:28Z</time>
   </trkpt>
   <trkpt lat="22.7479100" lon="120.3279960">
    <ele>13.3</ele>
    <time>2026-08-26T10:47:29Z</time>
   </trkpt>
   <trkpt lat="22.7479100" lon="120.3279960">
    <ele>13.3</ele>
    <time>2026-08-26T10:47:30Z</time>
   </trkpt>
   <trkpt lat="22.7479100" lon="120.3279960">
    <ele>13.3</ele>
    <time>2026-08-26T10:47:31Z</time>
   </trkpt>
   <trkpt lat="22.7479100" lon="120.3279960">
    <ele>13.3</ele>
    <time>2026-08-26T10:47:32Z</time>
   </trkpt>
   <trkpt lat="22.7479100" lon="120.3279960">
    <ele>13.3</ele>
    <time>2026-08-26T10:47:33Z</time>
   </trkpt>
   <trkpt lat="22.7479040" lon="120.3279970">
    <ele>13.3</ele>
    <time>2026-08-26T10:47:34Z</time>
   </trkpt>
   <trkpt lat="22.7479050" lon="120.3279980">
    <ele>13.3</ele>
    <time>2026-08-26T10:47:35Z</time>
   </trkpt>
   <trkpt lat="22.7479060" lon="120.3279990">
    <ele>13.3</ele>
    <time>2026-08-26T10:47:36Z</time>
   </trkpt>
   <trkpt lat="22.7479070" lon="120.3280000">
    <ele>13.3</ele>
    <time>2026-08-26T10:47:37Z</time>
   </trkpt>
   <trkpt lat="22.7479070" lon="120.3280000">
    <ele>13.3</ele>
    <time>2026-08-26T10:47:38Z</time>
   </trkpt>
   <trkpt lat="22.7479070" lon="120.3280000">
    <ele>13.3</ele>
    <time>2026-08-26T10:47:39Z</time>
   </trkpt>
   <trkpt lat="22.7479070" lon="120.3280000">
    <ele>13.3</ele>
    <time>2026-08-26T10:47:40Z</time>
   </trkpt>
   <trkpt lat="22.7479070" lon="120.3280000">
    <ele>13.3</ele>
    <time>2026-08-26T10:47:41Z</time>
   </trkpt>
   <trkpt lat="22.7479070" lon="120.3280000">
    <ele>13.3</ele>
    <time>2026-08-26T10:47:42Z</time>
   </trkpt>
   <trkpt lat="22.7479070" lon="120.3280000">
    <ele>13.3</ele>
    <time>2026-08-26T10:47:43Z</time>
   </trkpt>
   <trkpt lat="22.7479070" lon="120.3280000">
    <ele>13.3</ele>
    <time>2026-08-26T10:47:44Z</time>
   </trkpt>
   <trkpt lat="22.7479070" lon="120.3280000">
    <ele>13.3</ele>
    <time>2026-08-26T10:47:45Z</time>
   </trkpt>
   <trkpt lat="22.7479070" lon="120.3280000">
    <ele>13.3</ele>
    <time>2026-08-26T10:47:46Z</time>
   </trkpt>
   <trkpt lat="22.7479070" lon="120.3280000">
    <ele>13.3</ele>
    <time>2026-08-26T10:47:47Z</time>
   </trkpt>
   <trkpt lat="22.7479070" lon="120.3280000">
    <ele>13.3</ele>
    <time>2026-08-26T10:47:48Z</time>
   </trkpt>
   <trkpt lat="22.7479070" lon="120.3280000">
    <ele>13.3</ele>
    <time>2026-08-26T10:47:49Z</time>
   </trkpt>
   <trkpt lat="22.7479070" lon="120.3280000">
    <ele>13.3</ele>
    <time>2026-08-26T10:47:50Z</time>
   </trkpt>
   <trkpt lat="22.7479070" lon="120.3280000">
    <ele>13.3</ele>
    <time>2026-08-26T10:47:51Z</time>
   </trkpt>
   <trkpt lat="22.7479130" lon="120.3280080">
    <ele>13.3</ele>
    <time>2026-08-26T10:47:52Z</time>
   </trkpt>
   <trkpt lat="22.7479140" lon="120.3280080">
    <ele>13.3</ele>
    <time>2026-08-26T10:47:53Z</time>
   </trkpt>
   <trkpt lat="22.7479140" lon="120.3280090">
    <ele>13.3</ele>
    <time>2026-08-26T10:47:54Z</time>
   </trkpt>
   <trkpt lat="22.7479140" lon="120.3280100">
    <ele>13.3</ele>
    <time>2026-08-26T10:47:55Z</time>
   </trkpt>
   <trkpt lat="22.7479140" lon="120.3280100">
    <ele>13.3</ele>
    <time>2026-08-26T10:47:56Z</time>
   </trkpt>
   <trkpt lat="22.7479140" lon="120.3280100">
    <ele>13.3</ele>
    <time>2026-08-26T10:47:57Z</time>
   </trkpt>
   <trkpt lat="22.7479140" lon="120.3280100">
    <ele>13.3</ele>
    <time>2026-08-26T10:47:58Z</time>
   </trkpt>
   <trkpt lat="22.7479140" lon="120.3280100">
    <ele>13.3</ele>
    <time>2026-08-26T10:47:59Z</time>
   </trkpt>
   <trkpt lat="22.7479140" lon="120.3280100">
    <ele>13.3</ele>
    <time>2026-08-26T10:48:00Z</time>
   </trkpt>
   <trkpt lat="22.7479140" lon="120.3280100">
    <ele>13.3</ele>
    <time>2026-08-26T10:48:01Z</time>
   </trkpt>
   <trkpt lat="22.7479140" lon="120.3280100">
    <ele>13.3</ele>
    <time>2026-08-26T10:48:02Z</time>
   </trkpt>
   <trkpt lat="22.7479140" lon="120.3280100">
    <ele>13.3</ele>
    <time>2026-08-26T10:48:03Z</time>
   </trkpt>
   <trkpt lat="22.7479140" lon="120.3280100">
    <ele>13.3</ele>
    <time>2026-08-26T10:48:04Z</time>
   </trkpt>
   <trkpt lat="22.7479140" lon="120.3280100">
    <ele>13.3</ele>
    <time>2026-08-26T10:48:05Z</time>
   </trkpt>
   <trkpt lat="22.7479140" lon="120.3280100">
    <ele>13.3</ele>
    <time>2026-08-26T10:48:06Z</time>
   </trkpt>
   <trkpt lat="22.7479140" lon="120.3280100">
    <ele>13.3</ele>
    <time>2026-08-26T10:48:07Z</time>
   </trkpt>
   <trkpt lat="22.7479140" lon="120.3280100">
    <ele>13.3</ele>
    <time>2026-08-26T10:48:08Z</time>
   </trkpt>
   <trkpt lat="22.7479140" lon="120.3280100">
    <ele>13.3</ele>
    <time>2026-08-26T10:48:09Z</time>
   </trkpt>
   <trkpt lat="22.7479140" lon="120.3280100">
    <ele>13.3</ele>
    <time>2026-08-26T10:48:10Z</time>
   </trkpt>
   <trkpt lat="22.7479140" lon="120.3280100">
    <ele>13.3</ele>
    <time>2026-08-26T10:48:11Z</time>
   </trkpt>
   <trkpt lat="22.7479140" lon="120.3280100">
    <ele>13.3</ele>
    <time>2026-08-26T10:48:12Z</time>
   </trkpt>
   <trkpt lat="22.7479140" lon="120.3280100">
    <ele>13.3</ele>
    <time>2026-08-26T10:48:13Z</time>
   </trkpt>
   <trkpt lat="22.7479140" lon="120.3280100">
    <ele>13.3</ele>
    <time>2026-08-26T10:48:14Z</time>
   </trkpt>
   <trkpt lat="22.7479140" lon="120.3280100">
    <ele>13.3</ele>
    <time>2026-08-26T10:48:15Z</time>
   </trkpt>
   <trkpt lat="22.7479140" lon="120.3280100">
    <ele>13.3</ele>
    <time>2026-08-26T10:48:16Z</time>
   </trkpt>
   <trkpt lat="22.7479140" lon="120.3280100">
    <ele>13.3</ele>
    <time>2026-08-26T10:48:17Z</time>
   </trkpt>
   <trkpt lat="22.7479140" lon="120.3280100">
    <ele>13.3</ele>
    <time>2026-08-26T10:48:18Z</time>
   </trkpt>
   <trkpt lat="22.7479140" lon="120.3280100">
    <ele>13.3</ele>
    <time>2026-08-26T10:48:19Z</time>
   </trkpt>
   <trkpt lat="22.7479140" lon="120.3280100">
    <ele>13.3</ele>
    <time>2026-08-26T10:48:20Z</time>
   </trkpt>
   <trkpt lat="22.7479140" lon="120.3280100">
    <ele>13.3</ele>
    <time>2026-08-26T10:48:21Z</time>
   </trkpt>
   <trkpt lat="22.7479250" lon="120.3280200">
    <ele>13.3</ele>
    <time>2026-08-26T10:48:22Z</time>
   </trkpt>
   <trkpt lat="22.7479250" lon="120.3280200">
    <ele>13.3</ele>
    <time>2026-08-26T10:48:23Z</time>
   </trkpt>
   <trkpt lat="22.7479260" lon="120.3280200">
    <ele>13.3</ele>
    <time>2026-08-26T10:48:24Z</time>
   </trkpt>
   <trkpt lat="22.7479270" lon="120.3280210">
    <ele>13.3</ele>
    <time>2026-08-26T10:48:25Z</time>
   </trkpt>
   <trkpt lat="22.7479270" lon="120.3280210">
    <ele>13.3</ele>
    <time>2026-08-26T10:48:26Z</time>
   </trkpt>
   <trkpt lat="22.7479270" lon="120.3280210">
    <ele>13.3</ele>
    <time>2026-08-26T10:48:27Z</time>
   </trkpt>
   <trkpt lat="22.7479270" lon="120.3280210">
    <ele>13.3</ele>
    <time>2026-08-26T10:48:28Z</time>
   </trkpt>
   <trkpt lat="22.7479270" lon="120.3280210">
    <ele>13.3</ele>
    <time>2026-08-26T10:48:29Z</time>
   </trkpt>
   <trkpt lat="22.7479270" lon="120.3280210">
    <ele>13.3</ele>
    <time>2026-08-26T10:48:30Z</time>
   </trkpt>
   <trkpt lat="22.7479270" lon="120.3280210">
    <ele>13.3</ele>
    <time>2026-08-26T10:48:31Z</time>
   </trkpt>
   <trkpt lat="22.7479270" lon="120.3280210">
    <ele>13.3</ele>
    <time>2026-08-26T10:48:32Z</time>
   </trkpt>
   <trkpt lat="22.7479270" lon="120.3280210">
    <ele>13.3</ele>
    <time>2026-08-26T10:48:33Z</time>
   </trkpt>
   <trkpt lat="22.7479270" lon="120.3280210">
    <ele>13.3</ele>
    <time>2026-08-26T10:48:34Z</time>
   </trkpt>
   <trkpt lat="22.7479270" lon="120.3280210">
    <ele>13.3</ele>
    <time>2026-08-26T10:48:35Z</time>
   </trkpt>
   <trkpt lat="22.7479270" lon="120.3280210">
    <ele>13.3</ele>
    <time>2026-08-26T10:48:36Z</time>
   </trkpt>
   <trkpt lat="22.7479270" lon="120.3280210">
    <ele>13.3</ele>
    <time>2026-08-26T10:48:37Z</time>
   </trkpt>
   <trkpt lat="22.7479270" lon="120.3280210">
    <ele>13.3</ele>
    <time>2026-08-26T10:48:38Z</time>
   </trkpt>
   <trkpt lat="22.7479270" lon="120.3280210">
    <ele>13.3</ele>
    <time>2026-08-26T10:48:39Z</time>
   </trkpt>
   <trkpt lat="22.7479270" lon="120.3280210">
    <ele>13.3</ele>
    <time>2026-08-26T10:48:40Z</time>
   </trkpt>
   <trkpt lat="22.7479270" lon="120.3280210">
    <ele>13.3</ele>
    <time>2026-08-26T10:48:41Z</time>
   </trkpt>
   <trkpt lat="22.7479270" lon="120.3280210">
    <ele>13.3</ele>
    <time>2026-08-26T10:48:42Z</time>
   </trkpt>
   <trkpt lat="22.7479270" lon="120.3280210">
    <ele>13.3</ele>
    <time>2026-08-26T10:48:43Z</time>
   </trkpt>
   <trkpt lat="22.7479270" lon="120.3280210">
    <ele>13.3</ele>
    <time>2026-08-26T10:48:44Z</time>
   </trkpt>
   <trkpt lat="22.7479270" lon="120.3280210">
    <ele>13.3</ele>
    <time>2026-08-26T10:48:45Z</time>
   </trkpt>
   <trkpt lat="22.7479270" lon="120.3280210">
    <ele>13.3</ele>
    <time>2026-08-26T10:48:46Z</time>
   </trkpt>
   <trkpt lat="22.7479270" lon="120.3280210">
    <ele>13.3</ele>
    <time>2026-08-26T10:48:47Z</time>
   </trkpt>
   <trkpt lat="22.7479270" lon="120.3280210">
    <ele>13.3</ele>
    <time>2026-08-26T10:48:48Z</time>
   </trkpt>
   <trkpt lat="22.7479270" lon="120.3280210">
    <ele>13.3</ele>
    <time>2026-08-26T10:48:49Z</time>
   </trkpt>
   <trkpt lat="22.7479270" lon="120.3280210">
    <ele>13.3</ele>
    <time>2026-08-26T10:48:50Z</time>
   </trkpt>
   <trkpt lat="22.7479270" lon="120.3280210">
    <ele>13.3</ele>
    <time>2026-08-26T10:48:51Z</time>
   </trkpt>
   <trkpt lat="22.7479270" lon="120.3280210">
    <ele>13.3</ele>
    <time>2026-08-26T10:48:52Z</time>
   </trkpt>
   <trkpt lat="22.7479270" lon="120.3280210">
    <ele>13.3</ele>
    <time>2026-08-26T10:48:53Z</time>
   </trkpt>
   <trkpt lat="22.7479270" lon="120.3280210">
    <ele>13.3</ele>
    <time>2026-08-26T10:48:54Z</time>
   </trkpt>
   <trkpt lat="22.7479270" lon="120.3280210">
    <ele>13.3</ele>
    <time>2026-08-26T10:48:55Z</time>
   </trkpt>
   <trkpt lat="22.7479270" lon="120.3280210">
    <ele>13.3</ele>
    <time>2026-08-26T10:48:56Z</time>
   </trkpt>
   <trkpt lat="22.7479270" lon="120.3280210">
    <ele>13.3</ele>
    <time>2026-08-26T10:48:57Z</time>
   </trkpt>
   <trkpt lat="22.7479270" lon="120.3280210">
    <ele>13.3</ele>
    <time>2026-08-26T10:48:58Z</time>
   </trkpt>
   <trkpt lat="22.7479270" lon="120.3280210">
    <ele>13.3</ele>
    <time>2026-08-26T10:48:59Z</time>
   </trkpt>
   <trkpt lat="22.7479270" lon="120.3280210">
    <ele>13.3</ele>
    <time>2026-08-26T10:49:00Z</time>
   </trkpt>
   <trkpt lat="22.7479270" lon="120.3280210">
    <ele>13.3</ele>
    <time>2026-08-26T10:49:01Z</time>
   </trkpt>
   <trkpt lat="22.7479270" lon="120.3280210">
    <ele>13.3</ele>
    <time>2026-08-26T10:49:02Z</time>
   </trkpt>
   <trkpt lat="22.7479270" lon="120.3280210">
    <ele>13.3</ele>
    <time>2026-08-26T10:49:03Z</time>
   </trkpt>
   <trkpt lat="22.7479270" lon="120.3280210">
    <ele>13.3</ele>
    <time>2026-08-26T10:49:04Z</time>
   </trkpt>
   <trkpt lat="22.7479270" lon="120.3280210">
    <ele>13.3</ele>
    <time>2026-08-26T10:49:05Z</time>
   </trkpt>
   <trkpt lat="22.7479270" lon="120.3280210">
    <ele>13.3</ele>
    <time>2026-08-26T10:49:06Z</time>
   </trkpt>
   <trkpt lat="22.7479270" lon="120.3280210">
    <ele>13.3</ele>
    <time>2026-08-26T10:49:07Z</time>
   </trkpt>
   <trkpt lat="22.7479270" lon="120.3280210">
    <ele>13.3</ele>
    <time>2026-08-26T10:49:08Z</time>
   </trkpt>
   <trkpt lat="22.7479270" lon="120.3280210">
    <ele>13.3</ele>
    <time>2026-08-26T10:49:09Z</time>
   </trkpt>
   <trkpt lat="22.7479270" lon="120.3280210">
    <ele>13.3</ele>
    <time>2026-08-26T10:49:10Z</time>
   </trkpt>
   <trkpt lat="22.7479270" lon="120.3280210">
    <ele>13.3</ele>
    <time>2026-08-26T10:49:11Z</time>
   </trkpt>
   <trkpt lat="22.7479270" lon="120.3280210">
    <ele>13.3</ele>
    <time>2026-08-26T10:49:12Z</time>
   </trkpt>
   <trkpt lat="22.7479270" lon="120.3280210">
    <ele>13.3</ele>
    <time>2026-08-26T10:49:13Z</time>
   </trkpt>
   <trkpt lat="22.7479270" lon="120.3280210">
    <ele>13.3</ele>
    <time>2026-08-26T10:49:14Z</time>
   </trkpt>
   <trkpt lat="22.7479270" lon="120.3280210">
    <ele>13.3</ele>
    <time>2026-08-26T10:49:15Z</time>
   </trkpt>
   <trkpt lat="22.7479270" lon="120.3280210">
    <ele>13.3</ele>
    <time>2026-08-26T10:49:16Z</time>
   </trkpt>
   <trkpt lat="22.7479270" lon="120.3280210">
    <ele>13.3</ele>
    <time>2026-08-26T10:49:17Z</time>
   </trkpt>
   <trkpt lat="22.7479270" lon="120.3280210">
    <ele>13.3</ele>
    <time>2026-08-26T10:49:18Z</time>
   </trkpt>
   <trkpt lat="22.7479270" lon="120.3280210">
    <ele>13.3</ele>
    <time>2026-08-26T10:49:19Z</time>
   </trkpt>
   <trkpt lat="22.7479270" lon="120.3280210">
    <ele>13.3</ele>
    <time>2026-08-26T10:49:20Z</time>
   </trkpt>
   <trkpt lat="22.7479270" lon="120.3280210">
    <ele>13.3</ele>
    <time>2026-08-26T10:49:21Z</time>
   </trkpt>
   <trkpt lat="22.7479270" lon="120.3280210">
    <ele>13.3</ele>
    <time>2026-08-26T10:49:22Z</time>
   </trkpt>
   <trkpt lat="22.7479270" lon="120.3280210">
    <ele>13.3</ele>
    <time>2026-08-26T10:49:23Z</time>
   </trkpt>
   <trkpt lat="22.7479270" lon="120.3280210">
    <ele>13.3</ele>
    <time>2026-08-26T10:49:24Z</time>
   </trkpt>
   <trkpt lat="22.7479270" lon="120.3280210">
    <ele>13.3</ele>
    <time>2026-08-26T10:49:25Z</time>
   </trkpt>
   <trkpt lat="22.7479270" lon="120.3280210">
    <ele>13.3</ele>
    <time>2026-08-26T10:49:26Z</time>
   </trkpt>
   <trkpt lat="22.7479270" lon="120.3280210">
    <ele>13.3</ele>
    <time>2026-08-26T10:49:27Z</time>
   </trkpt>
   <trkpt lat="22.7479270" lon="120.3280210">
    <ele>13.3</ele>
    <time>2026-08-26T10:49:28Z</time>
   </trkpt>
   <trkpt lat="22.7479270" lon="120.3280210">
    <ele>13.3</ele>
    <time>2026-08-26T10:49:29Z</time>
   </trkpt>
   <trkpt lat="22.7479270" lon="120.3280210">
    <ele>13.3</ele>
    <time>2026-08-26T10:49:30Z</time>
   </trkpt>
   <trkpt lat="22.7479270" lon="120.3280210">
    <ele>13.3</ele>
    <time>2026-08-26T10:49:31Z</time>
   </trkpt>
   <trkpt lat="22.7479270" lon="120.3280210">
    <ele>13.3</ele>
    <time>2026-08-26T10:49:32Z</time>
   </trkpt>
   <trkpt lat="22.7479270" lon="120.3280210">
    <ele>13.3</ele>
    <time>2026-08-26T10:49:33Z</time>
   </trkpt>
   <trkpt lat="22.7479270" lon="120.3280210">
    <ele>13.3</ele>
    <time>2026-08-26T10:49:34Z</time>
   </trkpt>
   <trkpt lat="22.7479270" lon="120.3280210">
    <ele>13.3</ele>
    <time>2026-08-26T10:49:35Z</time>
   </trkpt>
   <trkpt lat="22.7479270" lon="120.3280210">
    <ele>13.3</ele>
    <time>2026-08-26T10:49:36Z</time>
   </trkpt>
   <trkpt lat="22.7479270" lon="120.3280210">
    <ele>13.3</ele>
    <time>2026-08-26T10:49:37Z</time>
   </trkpt>
   <trkpt lat="22.7479270" lon="120.3280210">
    <ele>13.3</ele>
    <time>2026-08-26T10:49:38Z</time>
   </trkpt>
   <trkpt lat="22.7479270" lon="120.3280210">
    <ele>13.3</ele>
    <time>2026-08-26T10:49:39Z</time>
   </trkpt>
   <trkpt lat="22.7479270" lon="120.3280210">
    <ele>13.3</ele>
    <time>2026-08-26T10:49:40Z</time>
   </trkpt>
   <trkpt lat="22.7479270" lon="120.3280210">
    <ele>13.3</ele>
    <time>2026-08-26T10:49:41Z</time>
   </trkpt>
   <trkpt lat="22.7479270" lon="120.3280210">
    <ele>13.3</ele>
    <time>2026-08-26T10:49:42Z</time>
   </trkpt>
   <trkpt lat="22.7479270" lon="120.3280210">
    <ele>13.3</ele>
    <time>2026-08-26T10:49:43Z</time>
   </trkpt>
   <trkpt lat="22.7479270" lon="120.3280210">
    <ele>13.3</ele>
    <time>2026-08-26T10:49:44Z</time>
   </trkpt>
   <trkpt lat="22.7479270" lon="120.3280210">
    <ele>13.3</ele>
    <time>2026-08-26T10:49:45Z</time>
   </trkpt>
   <trkpt lat="22.7479270" lon="120.3280210">
    <ele>13.3</ele>
    <time>2026-08-26T10:49:46Z</time>
   </trkpt>
   <trkpt lat="22.7479270" lon="120.3280210">
    <ele>13.3</ele>
    <time>2026-08-26T10:49:47Z</time>
   </trkpt>
   <trkpt lat="22.7479270" lon="120.3280210">
    <ele>13.3</ele>
    <time>2026-08-26T10:49:48Z</time>
   </trkpt>
   <trkpt lat="22.7479270" lon="120.3280210">
    <ele>13.3</ele>
    <time>2026-08-26T10:49:49Z</time>
   </trkpt>
   <trkpt lat="22.7479270" lon="120.3280210">
    <ele>13.3</ele>
    <time>2026-08-26T10:49:50Z</time>
   </trkpt>
   <trkpt lat="22.7479270" lon="120.3280210">
    <ele>13.3</ele>
    <time>2026-08-26T10:49:51Z</time>
   </trkpt>
   <trkpt lat="22.7479270" lon="120.3280210">
    <ele>13.3</ele>
    <time>2026-08-26T10:49:52Z</time>
   </trkpt>
   <trkpt lat="22.7479270" lon="120.3280210">
    <ele>13.3</ele>
    <time>2026-08-26T10:49:53Z</time>
   </trkpt>
   <trkpt lat="22.7479270" lon="120.3280210">
    <ele>13.3</ele>
    <time>2026-08-26T10:49:54Z</time>
   </trkpt>
   <trkpt lat="22.7479270" lon="120.3280210">
    <ele>13.3</ele>
    <time>2026-08-26T10:49:55Z</time>
   </trkpt>
   <trkpt lat="22.7479270" lon="120.3280210">
    <ele>13.3</ele>
    <time>2026-08-26T10:49:56Z</time>
   </trkpt>
   <trkpt lat="22.7479270" lon="120.3280210">
    <ele>13.3</ele>
    <time>2026-08-26T10:49:57Z</time>
   </trkpt>
   <trkpt lat="22.7479270" lon="120.3280210">
    <ele>13.3</ele>
    <time>2026-08-26T10:49:58Z</time>
   </trkpt>
   <trkpt lat="22.7479270" lon="120.3280210">
    <ele>13.3</ele>
    <time>2026-08-26T10:49:59Z</time>
   </trkpt>
   <trkpt lat="22.7479270" lon="120.3280210">
    <ele>13.3</ele>
    <time>2026-08-26T10:50:00Z</time>
   </trkpt>
   <trkpt lat="22.7479270" lon="120.3280210">
    <ele>13.3</ele>
    <time>2026-08-26T10:50:01Z</time>
   </trkpt>
   <trkpt lat="22.7479270" lon="120.3280210">
    <ele>13.3</ele>
    <time>2026-08-26T10:50:02Z</time>
   </trkpt>
   <trkpt lat="22.7479270" lon="120.3280210">
    <ele>13.3</ele>
    <time>2026-08-26T10:50:03Z</time>
   </trkpt>
   <trkpt lat="22.7479270" lon="120.3280210">
    <ele>13.3</ele>
    <time>2026-08-26T10:50:04Z</time>
   </trkpt>
   <trkpt lat="22.7479270" lon="120.3280210">
    <ele>13.3</ele>
    <time>2026-08-26T10:50:05Z</time>
   </trkpt>
   <trkpt lat="22.7479270" lon="120.3280210">
    <ele>13.3</ele>
    <time>2026-08-26T10:50:06Z</time>
   </trkpt>
   <trkpt lat="22.7479270" lon="120.3280210">
    <ele>13.3</ele>
    <time>2026-08-26T10:50:07Z</time>
   </trkpt>
   <trkpt lat="22.7479270" lon="120.3280210">
    <ele>13.3</ele>
    <time>2026-08-26T10:50:08Z</time>
   </trkpt>
   <trkpt lat="22.7479270" lon="120.3280210">
    <ele>13.3</ele>
    <time>2026-08-26T10:50:09Z</time>
   </trkpt>
   <trkpt lat="22.7479270" lon="120.3280210">
    <ele>13.3</ele>
    <time>2026-08-26T10:50:10Z</time>
   </trkpt>
   <trkpt lat="22.7479270" lon="120.3280210">
    <ele>13.3</ele>
    <time>2026-08-26T10:50:11Z</time>
   </trkpt>
   <trkpt lat="22.7479270" lon="120.3280210">
    <ele>13.3</ele>
    <time>2026-08-26T10:50:12Z</time>
   </trkpt>
   <trkpt lat="22.7479270" lon="120.3280210">
    <ele>13.3</ele>
    <time>2026-08-26T10:50:13Z</time>
   </trkpt>
   <trkpt lat="22.7479270" lon="120.3280210">
    <ele>13.3</ele>
    <time>2026-08-26T10:50:14Z</time>
   </trkpt>
   <trkpt lat="22.7479270" lon="120.3280210">
    <ele>13.3</ele>
    <time>2026-08-26T10:50:15Z</time>
   </trkpt>
   <trkpt lat="22.7479270" lon="120.3280210">
    <ele>13.3</ele>
    <time>2026-08-26T10:50:16Z</time>
   </trkpt>
   <trkpt lat="22.7479270" lon="120.3280210">
    <ele>13.3</ele>
    <time>2026-08-26T10:50:17Z</time>
   </trkpt>
   <trkpt lat="22.7479270" lon="120.3280210">
    <ele>13.3</ele>
    <time>2026-08-26T10:50:18Z</time>
   </trkpt>
   <trkpt lat="22.7479270" lon="120.3280210">
    <ele>13.3</ele>
    <time>2026-08-26T10:50:19Z</time>
   </trkpt>
   <trkpt lat="22.7479270" lon="120.3280210">
    <ele>13.3</ele>
    <time>2026-08-26T10:50:20Z</time>
   </trkpt>
   <trkpt lat="22.7479270" lon="120.3280210">
    <ele>13.3</ele>
    <time>2026-08-26T10:50:21Z</time>
   </trkpt>
   <trkpt lat="22.7479270" lon="120.3280210">
    <ele>13.3</ele>
    <time>2026-08-26T10:50:22Z</time>
   </trkpt>
   <trkpt lat="22.7479270" lon="120.3280210">
    <ele>13.3</ele>
    <time>2026-08-26T10:50:23Z</time>
   </trkpt>
   <trkpt lat="22.7479270" lon="120.3280210">
    <ele>13.3</ele>
    <time>2026-08-26T10:50:24Z</time>
   </trkpt>
   <trkpt lat="22.7479270" lon="120.3280210">
    <ele>13.3</ele>
    <time>2026-08-26T10:50:25Z</time>
   </trkpt>
   <trkpt lat="22.7479270" lon="120.3280210">
    <ele>13.3</ele>
    <time>2026-08-26T10:50:26Z</time>
   </trkpt>
   <trkpt lat="22.7479270" lon="120.3280210">
    <ele>13.3</ele>
    <time>2026-08-26T10:50:27Z</time>
   </trkpt>
   <trkpt lat="22.7479270" lon="120.3280210">
    <ele>13.3</ele>
    <time>2026-08-26T10:50:28Z</time>
   </trkpt>
   <trkpt lat="22.7479270" lon="120.3280210">
    <ele>13.3</ele>
    <time>2026-08-26T10:50:29Z</time>
   </trkpt>
   <trkpt lat="22.7479270" lon="120.3280210">
    <ele>13.3</ele>
    <time>2026-08-26T10:50:30Z</time>
   </trkpt>
   <trkpt lat="22.7479270" lon="120.3280210">
    <ele>13.3</ele>
    <time>2026-08-26T10:50:31Z</time>
   </trkpt>
   <trkpt lat="22.7479270" lon="120.3280210">
    <ele>13.3</ele>
    <time>2026-08-26T10:50:32Z</time>
   </trkpt>
   <trkpt lat="22.7479270" lon="120.3280210">
    <ele>13.3</ele>
    <time>2026-08-26T10:50:33Z</time>
   </trkpt>
   <trkpt lat="22.7479270" lon="120.3280210">
    <ele>13.3</ele>
    <time>2026-08-26T10:50:34Z</time>
   </trkpt>
   <trkpt lat="22.7479270" lon="120.3280210">
    <ele>13.3</ele>
    <time>2026-08-26T10:50:35Z</time>
   </trkpt>
   <trkpt lat="22.7479270" lon="120.3280210">
    <ele>13.3</ele>
    <time>2026-08-26T10:50:36Z</time>
   </trkpt>
   <trkpt lat="22.7479270" lon="120.3280210">
    <ele>13.3</ele>
    <time>2026-08-26T10:50:37Z</time>
   </trkpt>
   <trkpt lat="22.7479270" lon="120.3280210">
    <ele>13.3</ele>
    <time>2026-08-26T10:50:38Z</time>
   </trkpt>
   <trkpt lat="22.7479270" lon="120.3280210">
    <ele>13.3</ele>
    <time>2026-08-26T10:50:39Z</time>
   </trkpt>
   <trkpt lat="22.7479270" lon="120.3280210">
    <ele>13.3</ele>
    <time>2026-08-26T10:50:40Z</time>
   </trkpt>
   <trkpt lat="22.7479270" lon="120.3280210">
    <ele>13.3</ele>
    <time>2026-08-26T10:50:41Z</time>
   </trkpt>
   <trkpt lat="22.7479270" lon="120.3280210">
    <ele>13.3</ele>
    <time>2026-08-26T10:50:42Z</time>
   </trkpt>
   <trkpt lat="22.7479270" lon="120.3280210">
    <ele>13.3</ele>
    <time>2026-08-26T10:50:43Z</time>
   </trkpt>
   <trkpt lat="22.7479270" lon="120.3280210">
    <ele>13.3</ele>
    <time>2026-08-26T10:50:44Z</time>
   </trkpt>
   <trkpt lat="22.7479270" lon="120.3280210">
    <ele>13.3</ele>
    <time>2026-08-26T10:50:45Z</time>
   </trkpt>
   <trkpt lat="22.7479270" lon="120.3280210">
    <ele>13.3</ele>
    <time>2026-08-26T10:50:46Z</time>
   </trkpt>
   <trkpt lat="22.7479270" lon="120.3280210">
    <ele>13.3</ele>
    <time>2026-08-26T10:50:47Z</time>
   </trkpt>
   <trkpt lat="22.7479270" lon="120.3280210">
    <ele>13.3</ele>
    <time>2026-08-26T10:50:48Z</time>
   </trkpt>
   <trkpt lat="22.7479270" lon="120.3280210">
    <ele>13.3</ele>
    <time>2026-08-26T10:50:49Z</time>
   </trkpt>
   <trkpt lat="22.7479270" lon="120.3280210">
    <ele>13.3</ele>
    <time>2026-08-26T10:50:50Z</time>
   </trkpt>
   <trkpt lat="22.7479270" lon="120.3280210">
    <ele>13.3</ele>
    <time>2026-08-26T10:50:51Z</time>
   </trkpt>
   <trkpt lat="22.7479270" lon="120.3280210">
    <ele>13.3</ele>
    <time>2026-08-26T10:50:52Z</time>
   </trkpt>
   <trkpt lat="22.7479270" lon="120.3280210">
    <ele>13.3</ele>
    <time>2026-08-26T10:50:53Z</time>
   </trkpt>
   <trkpt lat="22.7479270" lon="120.3280210">
    <ele>13.3</ele>
    <time>2026-08-26T10:50:54Z</time>
   </trkpt>
   <trkpt lat="22.7479270" lon="120.3280210">
    <ele>13.3</ele>
    <time>2026-08-26T10:50:55Z</time>
   </trkpt>
   <trkpt lat="22.7479270" lon="120.3280210">
    <ele>13.3</ele>
    <time>2026-08-26T10:50:56Z</time>
   </trkpt>
   <trkpt lat="22.7479270" lon="120.3280210">
    <ele>13.3</ele>
    <time>2026-08-26T10:50:57Z</time>
   </trkpt>
   <trkpt lat="22.7479270" lon="120.3280210">
    <ele>13.3</ele>
    <time>2026-08-26T10:50:58Z</time>
   </trkpt>
   <trkpt lat="22.7479270" lon="120.3280210">
    <ele>13.3</ele>
    <time>2026-08-26T10:50:59Z</time>
   </trkpt>
   <trkpt lat="22.7479270" lon="120.3280210">
    <ele>13.3</ele>
    <time>2026-08-26T10:51:00Z</time>
   </trkpt>
   <trkpt lat="22.7479270" lon="120.3280200">
    <ele>13.3</ele>
    <time>2026-08-26T10:51:01Z</time>
   </trkpt>
   <trkpt lat="22.7479270" lon="120.3280200">
    <ele>13.3</ele>
    <time>2026-08-26T10:51:02Z</time>
   </trkpt>
   <trkpt lat="22.7479260" lon="120.3280210">
    <ele>13.3</ele>
    <time>2026-08-26T10:51:03Z</time>
   </trkpt>
   <trkpt lat="22.7479260" lon="120.3280210">
    <ele>13.3</ele>
    <time>2026-08-26T10:51:04Z</time>
   </trkpt>
   <trkpt lat="22.7479260" lon="120.3280210">
    <ele>13.3</ele>
    <time>2026-08-26T10:51:05Z</time>
   </trkpt>
   <trkpt lat="22.7479270" lon="120.3280210">
    <ele>13.3</ele>
    <time>2026-08-26T10:51:06Z</time>
   </trkpt>
   <trkpt lat="22.7479270" lon="120.3280210">
    <ele>13.3</ele>
    <time>2026-08-26T10:51:07Z</time>
   </trkpt>
   <trkpt lat="22.7479270" lon="120.3280210">
    <ele>13.3</ele>
    <time>2026-08-26T10:51:08Z</time>
   </trkpt>
   <trkpt lat="22.7479270" lon="120.3280210">
    <ele>13.3</ele>
    <time>2026-08-26T10:51:09Z</time>
   </trkpt>
   <trkpt lat="22.7479270" lon="120.3280210">
    <ele>13.3</ele>
    <time>2026-08-26T10:51:10Z</time>
   </trkpt>
   <trkpt lat="22.7479270" lon="120.3280210">
    <ele>13.3</ele>
    <time>2026-08-26T10:51:11Z</time>
   </trkpt>
   <trkpt lat="22.7479270" lon="120.3280210">
    <ele>13.3</ele>
    <time>2026-08-26T10:51:12Z</time>
   </trkpt>
   <trkpt lat="22.7479270" lon="120.3280210">
    <ele>13.3</ele>
    <time>2026-08-26T10:51:13Z</time>
   </trkpt>
   <trkpt lat="22.7479270" lon="120.3280210">
    <ele>13.3</ele>
    <time>2026-08-26T10:51:14Z</time>
   </trkpt>
   <trkpt lat="22.7479270" lon="120.3280210">
    <ele>13.3</ele>
    <time>2026-08-26T10:51:15Z</time>
   </trkpt>
   <trkpt lat="22.7479270" lon="120.3280210">
    <ele>13.3</ele>
    <time>2026-08-26T10:51:16Z</time>
   </trkpt>
   <trkpt lat="22.7479270" lon="120.3280210">
    <ele>13.3</ele>
    <time>2026-08-26T10:51:17Z</time>
   </trkpt>
   <trkpt lat="22.7479270" lon="120.3280210">
    <ele>13.3</ele>
    <time>2026-08-26T10:51:18Z</time>
   </trkpt>
   <trkpt lat="22.7479270" lon="120.3280210">
    <ele>13.3</ele>
    <time>2026-08-26T10:51:19Z</time>
   </trkpt>
   <trkpt lat="22.7479270" lon="120.3280210">
    <ele>13.3</ele>
    <time>2026-08-26T10:51:20Z</time>
   </trkpt>
   <trkpt lat="22.7479260" lon="120.3280210">
    <ele>13.3</ele>
    <time>2026-08-26T10:51:21Z</time>
   </trkpt>
   <trkpt lat="22.7479260" lon="120.3280210">
    <ele>13.3</ele>
    <time>2026-08-26T10:51:22Z</time>
   </trkpt>
   <trkpt lat="22.7479260" lon="120.3280210">
    <ele>13.3</ele>
    <time>2026-08-26T10:51:23Z</time>
   </trkpt>
   <trkpt lat="22.7479260" lon="120.3280210">
    <ele>13.3</ele>
    <time>2026-08-26T10:51:24Z</time>
   </trkpt>
   <trkpt lat="22.7479260" lon="120.3280210">
    <ele>13.3</ele>
    <time>2026-08-26T10:51:25Z</time>
   </trkpt>
   <trkpt lat="22.7479260" lon="120.3280210">
    <ele>13.3</ele>
    <time>2026-08-26T10:51:26Z</time>
   </trkpt>
   <trkpt lat="22.7479260" lon="120.3280210">
    <ele>13.3</ele>
    <time>2026-08-26T10:51:27Z</time>
   </trkpt>
   <trkpt lat="22.7479260" lon="120.3280210">
    <ele>13.3</ele>
    <time>2026-08-26T10:51:28Z</time>
   </trkpt>
   <trkpt lat="22.7479260" lon="120.3280210">
    <ele>13.3</ele>
    <time>2026-08-26T10:51:29Z</time>
   </trkpt>
   <trkpt lat="22.7479260" lon="120.3280210">
    <ele>13.3</ele>
    <time>2026-08-26T10:51:30Z</time>
   </trkpt>
   <trkpt lat="22.7479260" lon="120.3280210">
    <ele>13.3</ele>
    <time>2026-08-26T10:51:31Z</time>
   </trkpt>
   <trkpt lat="22.7479260" lon="120.3280210">
    <ele>13.3</ele>
    <time>2026-08-26T10:51:32Z</time>
   </trkpt>
   <trkpt lat="22.7479260" lon="120.3280210">
    <ele>13.3</ele>
    <time>2026-08-26T10:51:33Z</time>
   </trkpt>
   <trkpt lat="22.7479260" lon="120.3280210">
    <ele>13.3</ele>
    <time>2026-08-26T10:51:34Z</time>
   </trkpt>
   <trkpt lat="22.7479260" lon="120.3280210">
    <ele>13.3</ele>
    <time>2026-08-26T10:51:35Z</time>
   </trkpt>
   <trkpt lat="22.7479260" lon="120.3280210">
    <ele>13.3</ele>
    <time>2026-08-26T10:51:36Z</time>
   </trkpt>
   <trkpt lat="22.7479260" lon="120.3280210">
    <ele>13.3</ele>
    <time>2026-08-26T10:51:37Z</time>
   </trkpt>
   <trkpt lat="22.7479260" lon="120.3280210">
    <ele>13.3</ele>
    <time>2026-08-26T10:51:38Z</time>
   </trkpt>
   <trkpt lat="22.7479260" lon="120.3280210">
    <ele>13.3</ele>
    <time>2026-08-26T10:51:39Z</time>
   </trkpt>
   <trkpt lat="22.7479260" lon="120.3280210">
    <ele>13.3</ele>
    <time>2026-08-26T10:51:40Z</time>
   </trkpt>
   <trkpt lat="22.7479260" lon="120.3280210">
    <ele>13.3</ele>
    <time>2026-08-26T10:51:41Z</time>
   </trkpt>
   <trkpt lat="22.7479260" lon="120.3280210">
    <ele>13.3</ele>
    <time>2026-08-26T10:51:42Z</time>
   </trkpt>
   <trkpt lat="22.7479260" lon="120.3280210">
    <ele>13.3</ele>
    <time>2026-08-26T10:51:43Z</time>
   </trkpt>
   <trkpt lat="22.7479260" lon="120.3280210">
    <ele>13.3</ele>
    <time>2026-08-26T10:51:44Z</time>
   </trkpt>
   <trkpt lat="22.7479260" lon="120.3280210">
    <ele>13.3</ele>
    <time>2026-08-26T10:51:45Z</time>
   </trkpt>
   <trkpt lat="22.7479260" lon="120.3280210">
    <ele>13.3</ele>
    <time>2026-08-26T10:51:46Z</time>
   </trkpt>
   <trkpt lat="22.7479260" lon="120.3280210">
    <ele>13.3</ele>
    <time>2026-08-26T10:51:47Z</time>
   </trkpt>
   <trkpt lat="22.7479260" lon="120.3280210">
    <ele>13.3</ele>
    <time>2026-08-26T10:51:48Z</time>
   </trkpt>
   <trkpt lat="22.7479260" lon="120.3280210">
    <ele>13.3</ele>
    <time>2026-08-26T10:51:49Z</time>
   </trkpt>
   <trkpt lat="22.7479260" lon="120.3280210">
    <ele>13.3</ele>
    <time>2026-08-26T10:51:50Z</time>
   </trkpt>
   <trkpt lat="22.7479260" lon="120.3280210">
    <ele>13.3</ele>
    <time>2026-08-26T10:51:51Z</time>
   </trkpt>
   <trkpt lat="22.7479260" lon="120.3280210">
    <ele>13.3</ele>
    <time>2026-08-26T10:51:52Z</time>
   </trkpt>
   <trkpt lat="22.7479260" lon="120.3280210">
    <ele>13.3</ele>
    <time>2026-08-26T10:51:53Z</time>
   </trkpt>
   <trkpt lat="22.7479260" lon="120.3280210">
    <ele>13.3</ele>
    <time>2026-08-26T10:51:54Z</time>
   </trkpt>
   <trkpt lat="22.7479260" lon="120.3280210">
    <ele>13.3</ele>
    <time>2026-08-26T10:51:55Z</time>
   </trkpt>
   <trkpt lat="22.7479260" lon="120.3280210">
    <ele>13.3</ele>
    <time>2026-08-26T10:51:56Z</time>
   </trkpt>
   <trkpt lat="22.7479260" lon="120.3280210">
    <ele>13.3</ele>
    <time>2026-08-26T10:51:57Z</time>
   </trkpt>
   <trkpt lat="22.7479260" lon="120.3280210">
    <ele>13.3</ele>
    <time>2026-08-26T10:51:58Z</time>
   </trkpt>
   <trkpt lat="22.7479260" lon="120.3280210">
    <ele>13.3</ele>
    <time>2026-08-26T10:51:59Z</time>
   </trkpt>
   <trkpt lat="22.7479260" lon="120.3280210">
    <ele>13.3</ele>
    <time>2026-08-26T10:52:00Z</time>
   </trkpt>
   <trkpt lat="22.7479260" lon="120.3280210">
    <ele>13.3</ele>
    <time>2026-08-26T10:52:01Z</time>
   </trkpt>
   <trkpt lat="22.7479260" lon="120.3280210">
    <ele>13.3</ele>
    <time>2026-08-26T10:52:02Z</time>
   </trkpt>
   <trkpt lat="22.7479260" lon="120.3280210">
    <ele>13.3</ele>
    <time>2026-08-26T10:52:03Z</time>
   </trkpt>
   <trkpt lat="22.7479260" lon="120.3280210">
    <ele>13.3</ele>
    <time>2026-08-26T10:52:04Z</time>
   </trkpt>
   <trkpt lat="22.7479260" lon="120.3280210">
    <ele>13.3</ele>
    <time>2026-08-26T10:52:05Z</time>
   </trkpt>
   <trkpt lat="22.7479260" lon="120.3280210">
    <ele>13.3</ele>
    <time>2026-08-26T10:52:06Z</time>
   </trkpt>
   <trkpt lat="22.7479260" lon="120.3280210">
    <ele>13.3</ele>
    <time>2026-08-26T10:52:07Z</time>
   </trkpt>
   <trkpt lat="22.7479260" lon="120.3280210">
    <ele>13.3</ele>
    <time>2026-08-26T10:52:08Z</time>
   </trkpt>
   <trkpt lat="22.7479260" lon="120.3280210">
    <ele>13.3</ele>
    <time>2026-08-26T10:52:09Z</time>
   </trkpt>
   <trkpt lat="22.7479260" lon="120.3280210">
    <ele>13.3</ele>
    <time>2026-08-26T10:52:10Z</time>
   </trkpt>
   <trkpt lat="22.7479260" lon="120.3280210">
    <ele>13.3</ele>
    <time>2026-08-26T10:52:11Z</time>
   </trkpt>
   <trkpt lat="22.7479260" lon="120.3280210">
    <ele>13.3</ele>
    <time>2026-08-26T10:52:12Z</time>
   </trkpt>
   <trkpt lat="22.7479260" lon="120.3280210">
    <ele>13.3</ele>
    <time>2026-08-26T10:52:13Z</time>
   </trkpt>
   <trkpt lat="22.7479260" lon="120.3280210">
    <ele>13.3</ele>
    <time>2026-08-26T10:52:14Z</time>
   </trkpt>
   <trkpt lat="22.7479260" lon="120.3280210">
    <ele>13.3</ele>
    <time>2026-08-26T10:52:15Z</time>
   </trkpt>
   <trkpt lat="22.7479260" lon="120.3280210">
    <ele>13.3</ele>
    <time>2026-08-26T10:52:16Z</time>
   </trkpt>
   <trkpt lat="22.7479270" lon="120.3280210">
    <ele>13.3</ele>
    <time>2026-08-26T10:52:17Z</time>
   </trkpt>
   <trkpt lat="22.7479270" lon="120.3280210">
    <ele>13.3</ele>
    <time>2026-08-26T10:52:18Z</time>
   </trkpt>
   <trkpt lat="22.7479270" lon="120.3280210">
    <ele>13.3</ele>
    <time>2026-08-26T10:52:19Z</time>
   </trkpt>
   <trkpt lat="22.7479270" lon="120.3280210">
    <ele>13.3</ele>
    <time>2026-08-26T10:52:20Z</time>
   </trkpt>
   <trkpt lat="22.7479270" lon="120.3280210">
    <ele>13.3</ele>
    <time>2026-08-26T10:52:21Z</time>
   </trkpt>
   <trkpt lat="22.7479260" lon="120.3280220">
    <ele>13.3</ele>
    <time>2026-08-26T10:52:22Z</time>
   </trkpt>
   <trkpt lat="22.7479260" lon="120.3280220">
    <ele>13.3</ele>
    <time>2026-08-26T10:52:23Z</time>
   </trkpt>
   <trkpt lat="22.7479260" lon="120.3280220">
    <ele>13.3</ele>
    <time>2026-08-26T10:52:24Z</time>
   </trkpt>
   <trkpt lat="22.7479260" lon="120.3280220">
    <ele>13.3</ele>
    <time>2026-08-26T10:52:25Z</time>
   </trkpt>
   <trkpt lat="22.7479260" lon="120.3280220">
    <ele>13.3</ele>
    <time>2026-08-26T10:52:26Z</time>
   </trkpt>
   <trkpt lat="22.7479260" lon="120.3280220">
    <ele>13.3</ele>
    <time>2026-08-26T10:52:27Z</time>
   </trkpt>
   <trkpt lat="22.7479260" lon="120.3280220">
    <ele>13.3</ele>
    <time>2026-08-26T10:52:28Z</time>
   </trkpt>
   <trkpt lat="22.7479260" lon="120.3280220">
    <ele>13.3</ele>
    <time>2026-08-26T10:52:29Z</time>
   </trkpt>
   <trkpt lat="22.7479260" lon="120.3280220">
    <ele>13.3</ele>
    <time>2026-08-26T10:52:30Z</time>
   </trkpt>
   <trkpt lat="22.7479260" lon="120.3280220">
    <ele>13.3</ele>
    <time>2026-08-26T10:52:31Z</time>
   </trkpt>
   <trkpt lat="22.7479260" lon="120.3280220">
    <ele>13.3</ele>
    <time>2026-08-26T10:52:32Z</time>
   </trkpt>
   <trkpt lat="22.7479260" lon="120.3280220">
    <ele>13.3</ele>
    <time>2026-08-26T10:52:33Z</time>
   </trkpt>
   <trkpt lat="22.7479260" lon="120.3280220">
    <ele>13.3</ele>
    <time>2026-08-26T10:52:34Z</time>
   </trkpt>
   <trkpt lat="22.7479260" lon="120.3280220">
    <ele>13.3</ele>
    <time>2026-08-26T10:52:35Z</time>
   </trkpt>
   <trkpt lat="22.7479260" lon="120.3280220">
    <ele>13.3</ele>
    <time>2026-08-26T10:52:36Z</time>
   </trkpt>
   <trkpt lat="22.7479260" lon="120.3280220">
    <ele>13.3</ele>
    <time>2026-08-26T10:52:37Z</time>
   </trkpt>
   <trkpt lat="22.7479260" lon="120.3280220">
    <ele>13.3</ele>
    <time>2026-08-26T10:52:38Z</time>
   </trkpt>
   <trkpt lat="22.7479260" lon="120.3280220">
    <ele>13.3</ele>
    <time>2026-08-26T10:52:39Z</time>
   </trkpt>
   <trkpt lat="22.7479260" lon="120.3280220">
    <ele>13.3</ele>
    <time>2026-08-26T10:52:40Z</time>
   </trkpt>
   <trkpt lat="22.7479260" lon="120.3280220">
    <ele>13.3</ele>
    <time>2026-08-26T10:52:41Z</time>
   </trkpt>
   <trkpt lat="22.7479260" lon="120.3280220">
    <ele>13.3</ele>
    <time>2026-08-26T10:52:42Z</time>
   </trkpt>
   <trkpt lat="22.7479260" lon="120.3280220">
    <ele>13.3</ele>
    <time>2026-08-26T10:52:43Z</time>
   </trkpt>
   <trkpt lat="22.7479260" lon="120.3280220">
    <ele>13.3</ele>
    <time>2026-08-26T10:52:44Z</time>
   </trkpt>
   <trkpt lat="22.7479260" lon="120.3280220">
    <ele>13.3</ele>
    <time>2026-08-26T10:52:45Z</time>
   </trkpt>
   <trkpt lat="22.7479260" lon="120.3280220">
    <ele>13.3</ele>
    <time>2026-08-26T10:52:46Z</time>
   </trkpt>
   <trkpt lat="22.7479260" lon="120.3280220">
    <ele>13.3</ele>
    <time>2026-08-26T10:52:47Z</time>
   </trkpt>
   <trkpt lat="22.7479260" lon="120.3280220">
    <ele>13.3</ele>
    <time>2026-08-26T10:52:48Z</time>
   </trkpt>
   <trkpt lat="22.7479260" lon="120.3280220">
    <ele>13.3</ele>
    <time>2026-08-26T10:52:49Z</time>
   </trkpt>
   <trkpt lat="22.7479260" lon="120.3280220">
    <ele>13.3</ele>
    <time>2026-08-26T10:52:50Z</time>
   </trkpt>
   <trkpt lat="22.7479260" lon="120.3280220">
    <ele>13.3</ele>
    <time>2026-08-26T10:52:51Z</time>
   </trkpt>
   <trkpt lat="22.7479260" lon="120.3280220">
    <ele>13.3</ele>
    <time>2026-08-26T10:52:52Z</time>
   </trkpt>
   <trkpt lat="22.7479260" lon="120.3280220">
    <ele>13.3</ele>
    <time>2026-08-26T10:52:53Z</time>
   </trkpt>
   <trkpt lat="22.7479260" lon="120.3280220">
    <ele>13.3</ele>
    <time>2026-08-26T10:52:54Z</time>
   </trkpt>
   <trkpt lat="22.7479260" lon="120.3280210">
    <ele>13.3</ele>
    <time>2026-08-26T10:52:55Z</time>
   </trkpt>
   <trkpt lat="22.7479260" lon="120.3280210">
    <ele>13.3</ele>
    <time>2026-08-26T10:52:56Z</time>
   </trkpt>
   <trkpt lat="22.7479260" lon="120.3280210">
    <ele>13.3</ele>
    <time>2026-08-26T10:52:57Z</time>
   </trkpt>
   <trkpt lat="22.7479260" lon="120.3280220">
    <ele>13.3</ele>
    <time>2026-08-26T10:52:58Z</time>
   </trkpt>
   <trkpt lat="22.7479260" lon="120.3280220">
    <ele>13.3</ele>
    <time>2026-08-26T10:52:59Z</time>
   </trkpt>
   <trkpt lat="22.7479260" lon="120.3280210">
    <ele>13.3</ele>
    <time>2026-08-26T10:53:00Z</time>
   </trkpt>
   <trkpt lat="22.7479260" lon="120.3280220">
    <ele>13.3</ele>
    <time>2026-08-26T10:53:01Z</time>
   </trkpt>
   <trkpt lat="22.7479260" lon="120.3280220">
    <ele>13.3</ele>
    <time>2026-08-26T10:53:02Z</time>
   </trkpt>
   <trkpt lat="22.7479260" lon="120.3280210">
    <ele>13.3</ele>
    <time>2026-08-26T10:53:03Z</time>
   </trkpt>
   <trkpt lat="22.7479260" lon="120.3280210">
    <ele>13.3</ele>
    <time>2026-08-26T10:53:04Z</time>
   </trkpt>
   <trkpt lat="22.7479260" lon="120.3280210">
    <ele>13.3</ele>
    <time>2026-08-26T10:53:05Z</time>
   </trkpt>
   <trkpt lat="22.7479260" lon="120.3280210">
    <ele>13.3</ele>
    <time>2026-08-26T10:53:06Z</time>
   </trkpt>
   <trkpt lat="22.7479260" lon="120.3280220">
    <ele>13.3</ele>
    <time>2026-08-26T10:53:07Z</time>
   </trkpt>
   <trkpt lat="22.7479260" lon="120.3280220">
    <ele>13.3</ele>
    <time>2026-08-26T10:53:08Z</time>
   </trkpt>
   <trkpt lat="22.7479260" lon="120.3280210">
    <ele>13.3</ele>
    <time>2026-08-26T10:53:09Z</time>
   </trkpt>
   <trkpt lat="22.7479260" lon="120.3280210">
    <ele>13.3</ele>
    <time>2026-08-26T10:53:10Z</time>
   </trkpt>
   <trkpt lat="22.7479260" lon="120.3280210">
    <ele>13.3</ele>
    <time>2026-08-26T10:53:11Z</time>
   </trkpt>
   <trkpt lat="22.7479260" lon="120.3280210">
    <ele>13.3</ele>
    <time>2026-08-26T10:53:12Z</time>
   </trkpt>
   <trkpt lat="22.7479260" lon="120.3280210">
    <ele>13.3</ele>
    <time>2026-08-26T10:53:13Z</time>
   </trkpt>
   <trkpt lat="22.7479260" lon="120.3280210">
    <ele>13.3</ele>
    <time>2026-08-26T10:53:14Z</time>
   </trkpt>
   <trkpt lat="22.7479260" lon="120.3280210">
    <ele>13.3</ele>
    <time>2026-08-26T10:53:15Z</time>
   </trkpt>
   <trkpt lat="22.7479260" lon="120.3280210">
    <ele>13.3</ele>
    <time>2026-08-26T10:53:16Z</time>
   </trkpt>
   <trkpt lat="22.7479260" lon="120.3280210">
    <ele>13.3</ele>
    <time>2026-08-26T10:53:17Z</time>
   </trkpt>
   <trkpt lat="22.7479260" lon="120.3280210">
    <ele>13.3</ele>
    <time>2026-08-26T10:53:18Z</time>
   </trkpt>
   <trkpt lat="22.7479260" lon="120.3280210">
    <ele>13.3</ele>
    <time>2026-08-26T10:53:19Z</time>
   </trkpt>
   <trkpt lat="22.7479260" lon="120.3280210">
    <ele>13.3</ele>
    <time>2026-08-26T10:53:20Z</time>
   </trkpt>
   <trkpt lat="22.7479260" lon="120.3280210">
    <ele>13.3</ele>
    <time>2026-08-26T10:53:21Z</time>
   </trkpt>
   <trkpt lat="22.7479260" lon="120.3280210">
    <ele>13.3</ele>
    <time>2026-08-26T10:53:22Z</time>
   </trkpt>
   <trkpt lat="22.7479260" lon="120.3280210">
    <ele>13.3</ele>
    <time>2026-08-26T10:53:23Z</time>
   </trkpt>
   <trkpt lat="22.7479260" lon="120.3280210">
    <ele>13.3</ele>
    <time>2026-08-26T10:53:24Z</time>
   </trkpt>
   <trkpt lat="22.7479250" lon="120.3280210">
    <ele>13.3</ele>
    <time>2026-08-26T10:53:25Z</time>
   </trkpt>
   <trkpt lat="22.7479250" lon="120.3280210">
    <ele>13.3</ele>
    <time>2026-08-26T10:53:26Z</time>
   </trkpt>
   <trkpt lat="22.7479250" lon="120.3280210">
    <ele>13.3</ele>
    <time>2026-08-26T10:53:27Z</time>
   </trkpt>
   <trkpt lat="22.7479250" lon="120.3280210">
    <ele>13.3</ele>
    <time>2026-08-26T10:53:28Z</time>
   </trkpt>
   <trkpt lat="22.7479250" lon="120.3280210">
    <ele>13.3</ele>
    <time>2026-08-26T10:53:29Z</time>
   </trkpt>
   <trkpt lat="22.7479250" lon="120.3280210">
    <ele>13.3</ele>
    <time>2026-08-26T10:53:30Z</time>
   </trkpt>
   <trkpt lat="22.7479250" lon="120.3280210">
    <ele>13.3</ele>
    <time>2026-08-26T10:53:31Z</time>
   </trkpt>
   <trkpt lat="22.7479250" lon="120.3280210">
    <ele>13.3</ele>
    <time>2026-08-26T10:53:32Z</time>
   </trkpt>
   <trkpt lat="22.7479250" lon="120.3280210">
    <ele>13.3</ele>
    <time>2026-08-26T10:53:33Z</time>
   </trkpt>
   <trkpt lat="22.7479250" lon="120.3280210">
    <ele>13.3</ele>
    <time>2026-08-26T10:53:34Z</time>
   </trkpt>
   <trkpt lat="22.7479250" lon="120.3280210">
    <ele>13.3</ele>
    <time>2026-08-26T10:53:35Z</time>
   </trkpt>
   <trkpt lat="22.7479250" lon="120.3280200">
    <ele>13.3</ele>
    <time>2026-08-26T10:53:36Z</time>
   </trkpt>
   <trkpt lat="22.7479250" lon="120.3280200">
    <ele>13.3</ele>
    <time>2026-08-26T10:53:37Z</time>
   </trkpt>
   <trkpt lat="22.7479250" lon="120.3280200">
    <ele>13.3</ele>
    <time>2026-08-26T10:53:38Z</time>
   </trkpt>
   <trkpt lat="22.7479250" lon="120.3280200">
    <ele>13.3</ele>
    <time>2026-08-26T10:53:39Z</time>
   </trkpt>
   <trkpt lat="22.7479250" lon="120.3280200">
    <ele>13.3</ele>
    <time>2026-08-26T10:53:40Z</time>
   </trkpt>
   <trkpt lat="22.7479250" lon="120.3280200">
    <ele>13.3</ele>
    <time>2026-08-26T10:53:41Z</time>
   </trkpt>
   <trkpt lat="22.7479250" lon="120.3280200">
    <ele>13.3</ele>
    <time>2026-08-26T10:53:43Z</time>
   </trkpt>
   <trkpt lat="22.7479250" lon="120.3280200">
    <ele>13.3</ele>
    <time>2026-08-26T10:53:44Z</time>
   </trkpt>
   <trkpt lat="22.7479250" lon="120.3280200">
    <ele>13.3</ele>
    <time>2026-08-26T10:53:45Z</time>
   </trkpt>
   <trkpt lat="22.7479250" lon="120.3280200">
    <ele>13.3</ele>
    <time>2026-08-26T10:53:46Z</time>
   </trkpt>
   <trkpt lat="22.7479260" lon="120.3280200">
    <ele>13.3</ele>
    <time>2026-08-26T10:53:47Z</time>
   </trkpt>
   <trkpt lat="22.7479260" lon="120.3280200">
    <ele>13.3</ele>
    <time>2026-08-26T10:53:48Z</time>
   </trkpt>
   <trkpt lat="22.7479260" lon="120.3280200">
    <ele>13.3</ele>
    <time>2026-08-26T10:53:49Z</time>
   </trkpt>
   <trkpt lat="22.7479260" lon="120.3280200">
    <ele>13.3</ele>
    <time>2026-08-26T10:53:50Z</time>
   </trkpt>
   <trkpt lat="22.7479250" lon="120.3280210">
    <ele>13.3</ele>
    <time>2026-08-26T10:53:51Z</time>
   </trkpt>
   <trkpt lat="22.7479250" lon="120.3280210">
    <ele>13.3</ele>
    <time>2026-08-26T10:53:52Z</time>
   </trkpt>
   <trkpt lat="22.7479250" lon="120.3280210">
    <ele>13.3</ele>
    <time>2026-08-26T10:53:53Z</time>
   </trkpt>
   <trkpt lat="22.7479250" lon="120.3280210">
    <ele>13.3</ele>
    <time>2026-08-26T10:53:54Z</time>
   </trkpt>
   <trkpt lat="22.7479250" lon="120.3280210">
    <ele>13.3</ele>
    <time>2026-08-26T10:53:55Z</time>
   </trkpt>
   <trkpt lat="22.7479250" lon="120.3280210">
    <ele>13.3</ele>
    <time>2026-08-26T10:53:56Z</time>
   </trkpt>
   <trkpt lat="22.7479250" lon="120.3280210">
    <ele>13.3</ele>
    <time>2026-08-26T10:53:57Z</time>
   </trkpt>
   <trkpt lat="22.7479250" lon="120.3280210">
    <ele>13.3</ele>
    <time>2026-08-26T10:53:58Z</time>
   </trkpt>
   <trkpt lat="22.7479250" lon="120.3280210">
    <ele>13.3</ele>
    <time>2026-08-26T10:53:59Z</time>
   </trkpt>
   <trkpt lat="22.7479260" lon="120.3280210">
    <ele>13.3</ele>
    <time>2026-08-26T10:54:00Z</time>
   </trkpt>
   <trkpt lat="22.7479260" lon="120.3280210">
    <ele>13.3</ele>
    <time>2026-08-26T10:54:01Z</time>
   </trkpt>
   <trkpt lat="22.7479260" lon="120.3280210">
    <ele>13.3</ele>
    <time>2026-08-26T10:54:02Z</time>
   </trkpt>
   <trkpt lat="22.7479260" lon="120.3280210">
    <ele>13.3</ele>
    <time>2026-08-26T10:54:03Z</time>
   </trkpt>
   <trkpt lat="22.7479260" lon="120.3280210">
    <ele>13.3</ele>
    <time>2026-08-26T10:54:05Z</time>
   </trkpt>
   <trkpt lat="22.7479260" lon="120.3280210">
    <ele>13.3</ele>
    <time>2026-08-26T10:54:06Z</time>
   </trkpt>
   <trkpt lat="22.7479260" lon="120.3280210">
    <ele>13.3</ele>
    <time>2026-08-26T10:54:07Z</time>
   </trkpt>
   <trkpt lat="22.7479260" lon="120.3280210">
    <ele>13.3</ele>
    <time>2026-08-26T10:54:11Z</time>
   </trkpt>
   <trkpt lat="22.7479260" lon="120.3280210">
    <ele>13.3</ele>
    <time>2026-08-26T10:54:12Z</time>
   </trkpt>
   <trkpt lat="22.7479270" lon="120.3280210">
    <ele>13.3</ele>
    <time>2026-08-26T10:54:13Z</time>
   </trkpt>
   <trkpt lat="22.7479270" lon="120.3280210">
    <ele>13.3</ele>
    <time>2026-08-26T10:54:14Z</time>
   </trkpt>
   <trkpt lat="22.7479290" lon="120.3280210">
    <ele>13.3</ele>
    <time>2026-08-26T10:54:18Z</time>
   </trkpt>
   <trkpt lat="22.7479290" lon="120.3280210">
    <ele>13.3</ele>
    <time>2026-08-26T10:54:19Z</time>
   </trkpt>
   <trkpt lat="22.7479290" lon="120.3280210">
    <ele>13.3</ele>
    <time>2026-08-26T10:54:20Z</time>
   </trkpt>
   <trkpt lat="22.7479290" lon="120.3280210">
    <ele>13.3</ele>
    <time>2026-08-26T10:54:21Z</time>
   </trkpt>
   <trkpt lat="22.7479300" lon="120.3280210">
    <ele>13.3</ele>
    <time>2026-08-26T10:54:22Z</time>
   </trkpt>
   <trkpt lat="22.7479300" lon="120.3280210">
    <ele>13.3</ele>
    <time>2026-08-26T10:54:23Z</time>
   </trkpt>
   <trkpt lat="22.7479300" lon="120.3280220">
    <ele>13.3</ele>
    <time>2026-08-26T10:54:24Z</time>
   </trkpt>
   <trkpt lat="22.7479310" lon="120.3280220">
    <ele>13.3</ele>
    <time>2026-08-26T10:54:25Z</time>
   </trkpt>
   <trkpt lat="22.7479330" lon="120.3280210">
    <ele>13.3</ele>
    <time>2026-08-26T10:54:26Z</time>
   </trkpt>
   <trkpt lat="22.7479360" lon="120.3280180">
    <ele>13.3</ele>
    <time>2026-08-26T10:54:27Z</time>
   </trkpt>
   <trkpt lat="22.7479330" lon="120.3280080">
    <ele>13.3</ele>
    <time>2026-08-26T10:54:28Z</time>
   </trkpt>
   <trkpt lat="22.7479150" lon="120.3280320">
    <ele>13.3</ele>
    <time>2026-08-26T10:54:29Z</time>
   </trkpt>
   <trkpt lat="22.7479290" lon="120.3280780">
    <ele>13.3</ele>
    <time>2026-08-26T10:54:31Z</time>
   </trkpt>
   <trkpt lat="22.7479340" lon="120.3281100">
    <ele>13.3</ele>
    <time>2026-08-26T10:54:33Z</time>
   </trkpt>
   <trkpt lat="22.7479360" lon="120.3281390">
    <ele>13.3</ele>
    <time>2026-08-26T10:54:34Z</time>
   </trkpt>
   <trkpt lat="22.7479340" lon="120.3281740">
    <ele>13.3</ele>
    <time>2026-08-26T10:54:35Z</time>
   </trkpt>
   <trkpt lat="22.7479420" lon="120.3282070">
    <ele>13.3</ele>
    <time>2026-08-26T10:54:36Z</time>
   </trkpt>
   <trkpt lat="22.7479340" lon="120.3282610">
    <ele>13.3</ele>
    <time>2026-08-26T10:54:37Z</time>
   </trkpt>
   <trkpt lat="22.7479290" lon="120.3283430">
    <ele>13.3</ele>
    <time>2026-08-26T10:54:38Z</time>
   </trkpt>
   <trkpt lat="22.7479040" lon="120.3283860">
    <ele>13.4</ele>
    <time>2026-08-26T10:54:40Z</time>
   </trkpt>
   <trkpt lat="22.7478860" lon="120.3284540">
    <ele>13.4</ele>
    <time>2026-08-26T10:54:41Z</time>
   </trkpt>
   <trkpt lat="22.7478120" lon="120.3284250">
    <ele>13.4</ele>
    <time>2026-08-26T10:54:43Z</time>
   </trkpt>
   <trkpt lat="22.7478150" lon="120.3284870">
    <ele>13.4</ele>
    <time>2026-08-26T10:54:44Z</time>
   </trkpt>
   <trkpt lat="22.7477940" lon="120.3285290">
    <ele>13.4</ele>
    <time>2026-08-26T10:54:46Z</time>
   </trkpt>
   <trkpt lat="22.7477780" lon="120.3285650">
    <ele>13.4</ele>
    <time>2026-08-26T10:54:47Z</time>
   </trkpt>
   <trkpt lat="22.7477640" lon="120.3286050">
    <ele>13.4</ele>
    <time>2026-08-26T10:54:48Z</time>
   </trkpt>
   <trkpt lat="22.7477470" lon="120.3286450">
    <ele>13.4</ele>
    <time>2026-08-26T10:54:49Z</time>
   </trkpt>
   <trkpt lat="22.7477350" lon="120.3286670">
    <ele>13.4</ele>
    <time>2026-08-26T10:54:50Z</time>
   </trkpt>
   <trkpt lat="22.7477250" lon="120.3287000">
    <ele>13.5</ele>
    <time>2026-08-26T10:54:51Z</time>
   </trkpt>
   <trkpt lat="22.7477150" lon="120.3287320">
    <ele>13.5</ele>
    <time>2026-08-26T10:54:52Z</time>
   </trkpt>
   <trkpt lat="22.7477100" lon="120.3287580">
    <ele>13.5</ele>
    <time>2026-08-26T10:54:53Z</time>
   </trkpt>
   <trkpt lat="22.7477130" lon="120.3287900">
    <ele>13.5</ele>
    <time>2026-08-26T10:54:54Z</time>
   </trkpt>
   <trkpt lat="22.7477250" lon="120.3288200">
    <ele>13.5</ele>
    <time>2026-08-26T10:54:55Z</time>
   </trkpt>
   <trkpt lat="22.7477450" lon="120.3288440">
    <ele>13.5</ele>
    <time>2026-08-26T10:54:56Z</time>
   </trkpt>
   <trkpt lat="22.7477700" lon="120.3288580">
    <ele>13.5</ele>
    <time>2026-08-26T10:54:57Z</time>
   </trkpt>
   <trkpt lat="22.7477940" lon="120.3288640">
    <ele>13.6</ele>
    <time>2026-08-26T10:54:58Z</time>
   </trkpt>
   <trkpt lat="22.7478200" lon="120.3288660">
    <ele>13.6</ele>
    <time>2026-08-26T10:54:59Z</time>
   </trkpt>
   <trkpt lat="22.7478510" lon="120.3288730">
    <ele>13.6</ele>
    <time>2026-08-26T10:55:00Z</time>
   </trkpt>
   <trkpt lat="22.7478840" lon="120.3288730">
    <ele>13.7</ele>
    <time>2026-08-26T10:55:01Z</time>
   </trkpt>
   <trkpt lat="22.7479160" lon="120.3288720">
    <ele>13.7</ele>
    <time>2026-08-26T10:55:02Z</time>
   </trkpt>
   <trkpt lat="22.7479410" lon="120.3288720">
    <ele>13.7</ele>
    <time>2026-08-26T10:55:03Z</time>
   </trkpt>
   <trkpt lat="22.7479630" lon="120.3288710">
    <ele>13.8</ele>
    <time>2026-08-26T10:55:04Z</time>
   </trkpt>
   <trkpt lat="22.7479860" lon="120.3288730">
    <ele>13.8</ele>
    <time>2026-08-26T10:55:05Z</time>
   </trkpt>
   <trkpt lat="22.7480030" lon="120.3288710">
    <ele>13.8</ele>
    <time>2026-08-26T10:55:06Z</time>
   </trkpt>
   <trkpt lat="22.7480230" lon="120.3288710">
    <ele>13.8</ele>
    <time>2026-08-26T10:55:07Z</time>
   </trkpt>
   <trkpt lat="22.7480490" lon="120.3288700">
    <ele>13.9</ele>
    <time>2026-08-26T10:55:08Z</time>
   </trkpt>
   <trkpt lat="22.7480710" lon="120.3288700">
    <ele>13.9</ele>
    <time>2026-08-26T10:55:09Z</time>
   </trkpt>
   <trkpt lat="22.7480900" lon="120.3288690">
    <ele>13.9</ele>
    <time>2026-08-26T10:55:10Z</time>
   </trkpt>
   <trkpt lat="22.7481020" lon="120.3288650">
    <ele>13.9</ele>
    <time>2026-08-26T10:55:11Z</time>
   </trkpt>
   <trkpt lat="22.7481100" lon="120.3288660">
    <ele>13.9</ele>
    <time>2026-08-26T10:55:12Z</time>
   </trkpt>
   <trkpt lat="22.7481160" lon="120.3288640">
    <ele>14.0</ele>
    <time>2026-08-26T10:55:13Z</time>
   </trkpt>
   <trkpt lat="22.7481160" lon="120.3288630">
    <ele>14.0</ele>
    <time>2026-08-26T10:55:14Z</time>
   </trkpt>
   <trkpt lat="22.7481170" lon="120.3288630">
    <ele>14.0</ele>
    <time>2026-08-26T10:55:15Z</time>
   </trkpt>
   <trkpt lat="22.7481170" lon="120.3288630">
    <ele>14.0</ele>
    <time>2026-08-26T10:55:16Z</time>
   </trkpt>
   <trkpt lat="22.7481170" lon="120.3288630">
    <ele>14.0</ele>
    <time>2026-08-26T10:55:17Z</time>
   </trkpt>
   <trkpt lat="22.7481170" lon="120.3288630">
    <ele>14.0</ele>
    <time>2026-08-26T10:55:18Z</time>
   </trkpt>
   <trkpt lat="22.7481170" lon="120.3288630">
    <ele>14.0</ele>
    <time>2026-08-26T10:55:19Z</time>
   </trkpt>
   <trkpt lat="22.7481170" lon="120.3288630">
    <ele>14.0</ele>
    <time>2026-08-26T10:55:20Z</time>
   </trkpt>
   <trkpt lat="22.7481170" lon="120.3288630">
    <ele>14.0</ele>
    <time>2026-08-26T10:55:21Z</time>
   </trkpt>
   <trkpt lat="22.7481170" lon="120.3288630">
    <ele>14.0</ele>
    <time>2026-08-26T10:55:22Z</time>
   </trkpt>
   <trkpt lat="22.7481170" lon="120.3288630">
    <ele>14.0</ele>
    <time>2026-08-26T10:55:23Z</time>
   </trkpt>
   <trkpt lat="22.7481170" lon="120.3288630">
    <ele>14.0</ele>
    <time>2026-08-26T10:55:24Z</time>
   </trkpt>
   <trkpt lat="22.7481170" lon="120.3288630">
    <ele>14.0</ele>
    <time>2026-08-26T10:55:25Z</time>
   </trkpt>
   <trkpt lat="22.7481260" lon="120.3288620">
    <ele>14.0</ele>
    <time>2026-08-26T10:55:26Z</time>
   </trkpt>
   <trkpt lat="22.7481460" lon="120.3288650">
    <ele>14.0</ele>
    <time>2026-08-26T10:55:27Z</time>
   </trkpt>
   <trkpt lat="22.7481750" lon="120.3288640">
    <ele>14.0</ele>
    <time>2026-08-26T10:55:28Z</time>
   </trkpt>
   <trkpt lat="22.7482190" lon="120.3288600">
    <ele>14.1</ele>
    <time>2026-08-26T10:55:29Z</time>
   </trkpt>
   <trkpt lat="22.7482650" lon="120.3288610">
    <ele>14.2</ele>
    <time>2026-08-26T10:55:30Z</time>
   </trkpt>
   <trkpt lat="22.7483190" lon="120.3288610">
    <ele>14.2</ele>
    <time>2026-08-26T10:55:31Z</time>
   </trkpt>
   <trkpt lat="22.7483730" lon="120.3288590">
    <ele>14.3</ele>
    <time>2026-08-26T10:55:32Z</time>
   </trkpt>
   <trkpt lat="22.7484300" lon="120.3288590">
    <ele>14.4</ele>
    <time>2026-08-26T10:55:33Z</time>
   </trkpt>
   <trkpt lat="22.7484900" lon="120.3288540">
    <ele>14.5</ele>
    <time>2026-08-26T10:55:34Z</time>
   </trkpt>
   <trkpt lat="22.7485520" lon="120.3288520">
    <ele>14.6</ele>
    <time>2026-08-26T10:55:35Z</time>
   </trkpt>
   <trkpt lat="22.7486090" lon="120.3288470">
    <ele>14.6</ele>
    <time>2026-08-26T10:55:36Z</time>
   </trkpt>
   <trkpt lat="22.7486760" lon="120.3288460">
    <ele>14.7</ele>
    <time>2026-08-26T10:55:37Z</time>
   </trkpt>
   <trkpt lat="22.7487400" lon="120.3288450">
    <ele>14.8</ele>
    <time>2026-08-26T10:55:38Z</time>
   </trkpt>
   <trkpt lat="22.7488050" lon="120.3288450">
    <ele>14.9</ele>
    <time>2026-08-26T10:55:39Z</time>
   </trkpt>
   <trkpt lat="22.7488670" lon="120.3288400">
    <ele>15.0</ele>
    <time>2026-08-26T10:55:40Z</time>
   </trkpt>
   <trkpt lat="22.7489310" lon="120.3288410">
    <ele>15.1</ele>
    <time>2026-08-26T10:55:41Z</time>
   </trkpt>
   <trkpt lat="22.7489900" lon="120.3288370">
    <ele>15.2</ele>
    <time>2026-08-26T10:55:42Z</time>
   </trkpt>
   <trkpt lat="22.7490540" lon="120.3288350">
    <ele>15.3</ele>
    <time>2026-08-26T10:55:43Z</time>
   </trkpt>
   <trkpt lat="22.7491140" lon="120.3288340">
    <ele>15.4</ele>
    <time>2026-08-26T10:55:44Z</time>
   </trkpt>
   <trkpt lat="22.7491680" lon="120.3288340">
    <ele>15.5</ele>
    <time>2026-08-26T10:55:45Z</time>
   </trkpt>
   <trkpt lat="22.7492210" lon="120.3288340">
    <ele>15.5</ele>
    <time>2026-08-26T10:55:46Z</time>
   </trkpt>
   <trkpt lat="22.7492640" lon="120.3288420">
    <ele>15.5</ele>
    <time>2026-08-26T10:55:47Z</time>
   </trkpt>
   <trkpt lat="22.7493110" lon="120.3288510">
    <ele>15.7</ele>
    <time>2026-08-26T10:55:48Z</time>
   </trkpt>
   <trkpt lat="22.7493460" lon="120.3288700">
    <ele>15.9</ele>
    <time>2026-08-26T10:55:49Z</time>
   </trkpt>
   <trkpt lat="22.7493730" lon="120.3289080">
    <ele>16.1</ele>
    <time>2026-08-26T10:55:50Z</time>
   </trkpt>
   <trkpt lat="22.7493860" lon="120.3289530">
    <ele>16.3</ele>
    <time>2026-08-26T10:55:51Z</time>
   </trkpt>
   <trkpt lat="22.7493900" lon="120.3289970">
    <ele>16.4</ele>
    <time>2026-08-26T10:55:52Z</time>
   </trkpt>
   <trkpt lat="22.7493870" lon="120.3290400">
    <ele>16.6</ele>
    <time>2026-08-26T10:55:53Z</time>
   </trkpt>
   <trkpt lat="22.7493880" lon="120.3290700">
    <ele>16.7</ele>
    <time>2026-08-26T10:55:54Z</time>
   </trkpt>
   <trkpt lat="22.7493890" lon="120.3290980">
    <ele>16.8</ele>
    <time>2026-08-26T10:55:55Z</time>
   </trkpt>
   <trkpt lat="22.7493880" lon="120.3291200">
    <ele>16.9</ele>
    <time>2026-08-26T10:55:56Z</time>
   </trkpt>
   <trkpt lat="22.7493770" lon="120.3291370">
    <ele>17.0</ele>
    <time>2026-08-26T10:55:57Z</time>
   </trkpt>
   <trkpt lat="22.7493590" lon="120.3291590">
    <ele>17.0</ele>
    <time>2026-08-26T10:55:58Z</time>
   </trkpt>
   <trkpt lat="22.7493380" lon="120.3291750">
    <ele>17.0</ele>
    <time>2026-08-26T10:55:59Z</time>
   </trkpt>
   <trkpt lat="22.7493120" lon="120.3291960">
    <ele>17.0</ele>
    <time>2026-08-26T10:56:00Z</time>
   </trkpt>
   <trkpt lat="22.7492870" lon="120.3292110">
    <ele>17.0</ele>
    <time>2026-08-26T10:56:01Z</time>
   </trkpt>
   <trkpt lat="22.7492590" lon="120.3292270">
    <ele>17.0</ele>
    <time>2026-08-26T10:56:02Z</time>
   </trkpt>
   <trkpt lat="22.7492330" lon="120.3292430">
    <ele>17.0</ele>
    <time>2026-08-26T10:56:03Z</time>
   </trkpt>
   <trkpt lat="22.7492120" lon="120.3292560">
    <ele>17.0</ele>
    <time>2026-08-26T10:56:04Z</time>
   </trkpt>
   <trkpt lat="22.7491900" lon="120.3292680">
    <ele>17.0</ele>
    <time>2026-08-26T10:56:05Z</time>
   </trkpt>
   <trkpt lat="22.7491720" lon="120.3292760">
    <ele>17.0</ele>
    <time>2026-08-26T10:56:06Z</time>
   </trkpt>
   <trkpt lat="22.7491520" lon="120.3292850">
    <ele>16.9</ele>
    <time>2026-08-26T10:56:07Z</time>
   </trkpt>
   <trkpt lat="22.7491320" lon="120.3292950">
    <ele>16.9</ele>
    <time>2026-08-26T10:56:08Z</time>
   </trkpt>
   <trkpt lat="22.7491170" lon="120.3292980">
    <ele>16.9</ele>
    <time>2026-08-26T10:56:09Z</time>
   </trkpt>
   <trkpt lat="22.7491100" lon="120.3293040">
    <ele>16.9</ele>
    <time>2026-08-26T10:56:10Z</time>
   </trkpt>
   <trkpt lat="22.7491010" lon="120.3293050">
    <ele>16.9</ele>
    <time>2026-08-26T10:56:11Z</time>
   </trkpt>
   <trkpt lat="22.7490940" lon="120.3293040">
    <ele>16.9</ele>
    <time>2026-08-26T10:56:12Z</time>
   </trkpt>
   <trkpt lat="22.7490960" lon="120.3293020">
    <ele>16.9</ele>
    <time>2026-08-26T10:56:13Z</time>
   </trkpt>
   <trkpt lat="22.7490960" lon="120.3293020">
    <ele>16.9</ele>
    <time>2026-08-26T10:56:14Z</time>
   </trkpt>
   <trkpt lat="22.7490960" lon="120.3293020">
    <ele>16.9</ele>
    <time>2026-08-26T10:56:15Z</time>
   </trkpt>
   <trkpt lat="22.7490960" lon="120.3293020">
    <ele>16.9</ele>
    <time>2026-08-26T10:56:16Z</time>
   </trkpt>
   <trkpt lat="22.7490960" lon="120.3293020">
    <ele>16.9</ele>
    <time>2026-08-26T10:56:17Z</time>
   </trkpt>
   <trkpt lat="22.7490960" lon="120.3293020">
    <ele>16.9</ele>
    <time>2026-08-26T10:56:18Z</time>
   </trkpt>
   <trkpt lat="22.7490960" lon="120.3293020">
    <ele>16.9</ele>
    <time>2026-08-26T10:56:19Z</time>
   </trkpt>
   <trkpt lat="22.7490960" lon="120.3293020">
    <ele>16.9</ele>
    <time>2026-08-26T10:56:20Z</time>
   </trkpt>
   <trkpt lat="22.7490960" lon="120.3293020">
    <ele>16.9</ele>
    <time>2026-08-26T10:56:21Z</time>
   </trkpt>
   <trkpt lat="22.7490960" lon="120.3293020">
    <ele>16.9</ele>
    <time>2026-08-26T10:56:22Z</time>
   </trkpt>
   <trkpt lat="22.7490960" lon="120.3293020">
    <ele>16.9</ele>
    <time>2026-08-26T10:56:23Z</time>
   </trkpt>
   <trkpt lat="22.7490960" lon="120.3293020">
    <ele>16.9</ele>
    <time>2026-08-26T10:56:24Z</time>
   </trkpt>
   <trkpt lat="22.7490960" lon="120.3293020">
    <ele>16.9</ele>
    <time>2026-08-26T10:56:25Z</time>
   </trkpt>
   <trkpt lat="22.7490960" lon="120.3293020">
    <ele>16.9</ele>
    <time>2026-08-26T10:56:26Z</time>
   </trkpt>
   <trkpt lat="22.7490960" lon="120.3293020">
    <ele>16.9</ele>
    <time>2026-08-26T10:56:27Z</time>
   </trkpt>
   <trkpt lat="22.7490960" lon="120.3293020">
    <ele>16.9</ele>
    <time>2026-08-26T10:56:28Z</time>
   </trkpt>
   <trkpt lat="22.7490960" lon="120.3293020">
    <ele>16.9</ele>
    <time>2026-08-26T10:56:29Z</time>
   </trkpt>
   <trkpt lat="22.7490960" lon="120.3293020">
    <ele>16.9</ele>
    <time>2026-08-26T10:56:30Z</time>
   </trkpt>
   <trkpt lat="22.7490960" lon="120.3293020">
    <ele>16.9</ele>
    <time>2026-08-26T10:56:31Z</time>
   </trkpt>
   <trkpt lat="22.7490960" lon="120.3293020">
    <ele>16.9</ele>
    <time>2026-08-26T10:56:32Z</time>
   </trkpt>
   <trkpt lat="22.7490960" lon="120.3293020">
    <ele>16.9</ele>
    <time>2026-08-26T10:56:33Z</time>
   </trkpt>
   <trkpt lat="22.7490960" lon="120.3293020">
    <ele>16.9</ele>
    <time>2026-08-26T10:56:34Z</time>
   </trkpt>
   <trkpt lat="22.7490960" lon="120.3293020">
    <ele>16.9</ele>
    <time>2026-08-26T10:56:35Z</time>
   </trkpt>
   <trkpt lat="22.7490960" lon="120.3293020">
    <ele>16.9</ele>
    <time>2026-08-26T10:56:36Z</time>
   </trkpt>
   <trkpt lat="22.7490960" lon="120.3293020">
    <ele>16.9</ele>
    <time>2026-08-26T10:56:37Z</time>
   </trkpt>
   <trkpt lat="22.7490960" lon="120.3293020">
    <ele>16.9</ele>
    <time>2026-08-26T10:56:38Z</time>
   </trkpt>
   <trkpt lat="22.7490960" lon="120.3293020">
    <ele>16.9</ele>
    <time>2026-08-26T10:56:39Z</time>
   </trkpt>
   <trkpt lat="22.7490960" lon="120.3293020">
    <ele>16.9</ele>
    <time>2026-08-26T10:56:40Z</time>
   </trkpt>
   <trkpt lat="22.7490960" lon="120.3293020">
    <ele>16.9</ele>
    <time>2026-08-26T10:56:41Z</time>
   </trkpt>
   <trkpt lat="22.7490960" lon="120.3293020">
    <ele>16.9</ele>
    <time>2026-08-26T10:56:42Z</time>
   </trkpt>
   <trkpt lat="22.7490960" lon="120.3293020">
    <ele>16.9</ele>
    <time>2026-08-26T10:56:43Z</time>
   </trkpt>
   <trkpt lat="22.7490960" lon="120.3293020">
    <ele>16.9</ele>
    <time>2026-08-26T10:56:44Z</time>
   </trkpt>
   <trkpt lat="22.7490960" lon="120.3293020">
    <ele>16.9</ele>
    <time>2026-08-26T10:56:45Z</time>
   </trkpt>
   <trkpt lat="22.7490930" lon="120.3293020">
    <ele>16.9</ele>
    <time>2026-08-26T10:56:46Z</time>
   </trkpt>
   <trkpt lat="22.7490940" lon="120.3293010">
    <ele>16.9</ele>
    <time>2026-08-26T10:56:47Z</time>
   </trkpt>
   <trkpt lat="22.7490910" lon="120.3293000">
    <ele>16.9</ele>
    <time>2026-08-26T10:56:48Z</time>
   </trkpt>
   <trkpt lat="22.7490810" lon="120.3293010">
    <ele>16.9</ele>
    <time>2026-08-26T10:56:49Z</time>
   </trkpt>
   <trkpt lat="22.7490640" lon="120.3293100">
    <ele>16.9</ele>
    <time>2026-08-26T10:56:50Z</time>
   </trkpt>
   <trkpt lat="22.7490480" lon="120.3293180">
    <ele>16.9</ele>
    <time>2026-08-26T10:56:51Z</time>
   </trkpt>
   <trkpt lat="22.7490300" lon="120.3293290">
    <ele>16.9</ele>
    <time>2026-08-26T10:56:52Z</time>
   </trkpt>
   <trkpt lat="22.7490160" lon="120.3293290">
    <ele>16.9</ele>
    <time>2026-08-26T10:56:53Z</time>
   </trkpt>
   <trkpt lat="22.7490000" lon="120.3293370">
    <ele>16.8</ele>
    <time>2026-08-26T10:56:54Z</time>
   </trkpt>
   <trkpt lat="22.7489840" lon="120.3293410">
    <ele>16.8</ele>
    <time>2026-08-26T10:56:55Z</time>
   </trkpt>
   <trkpt lat="22.7489730" lon="120.3293430">
    <ele>16.8</ele>
    <time>2026-08-26T10:56:56Z</time>
   </trkpt>
  </trkseg>
 </trk>
</gpx>
