<?xml version="1.0" encoding="UTF-8"?>
<gpx creator="StravaGPX" version="1.1" xmlns="http://www.topografix.com/GPX/1/1" xmlns:xsi="http://www.w3.org/2001/XMLSchema-instance" xsi:schemaLocation="http://www.topografix.com/GPX/1/1 http://www.topografix.com/GPX/1/1/gpx.xsd">
 <metadata>
  <time>2026-09-09T08:46:11Z</time>
 </metadata>
 <trk>
  <name>午後電動自行車騎乘</name>
  <type>ebikeride</type>
  <trkseg>
   <trkpt lat="22.7244900" lon="120.3293480">
    <ele>16.0</ele>
    <time>2026-09-09T08:46:11Z</time>
   </trkpt>
   <trkpt lat="22.7244900" lon="120.3293480">
    <ele>16.0</ele>
    <time>2026-09-09T08:46:12Z</time>
   </trkpt>
   <trkpt lat="22.7244860" lon="120.3293430">
    <ele>16.0</ele>
    <time>2026-09-09T08:46:13Z</time>
   </trkpt>
   <trkpt lat="22.7244920" lon="120.3293330">
    <ele>16.1</ele>
    <time>2026-09-09T08:46:14Z</time>
   </trkpt>
   <trkpt lat="22.7244860" lon="120.3293430">
    <ele>16.1</ele>
    <time>2026-09-09T08:46:15Z</time>
   </trkpt>
   <trkpt lat="22.7244550" lon="120.3293700">
    <ele>16.3</ele>
    <time>2026-09-09T08:46:16Z</time>
   </trkpt>
   <trkpt lat="22.7244500" lon="120.3293690">
    <ele>16.3</ele>
    <time>2026-09-09T08:46:17Z</time>
   </trkpt>
   <trkpt lat="22.7244340" lon="120.3293900">
    <ele>16.4</ele>
    <time>2026-09-09T08:46:18Z</time>
   </trkpt>
   <trkpt lat="22.7244400" lon="120.3293920">
    <ele>16.4</ele>
    <time>2026-09-09T08:46:19Z</time>
   </trkpt>
   <trkpt lat="22.7244370" lon="120.3294080">
    <ele>16.4</ele>
    <time>2026-09-09T08:46:20Z</time>
   </trkpt>
   <trkpt lat="22.7244180" lon="120.3294330">
    <ele>16.6</ele>
    <time>2026-09-09T08:46:21Z</time>
   </trkpt>
   <trkpt lat="22.7244020" lon="120.3294370">
    <ele>16.6</ele>
    <time>2026-09-09T08:46:22Z</time>
   </trkpt>
   <trkpt lat="22.7243920" lon="120.3294490">
    <ele>16.7</ele>
    <time>2026-09-09T08:46:23Z</time>
   </trkpt>
   <trkpt lat="22.7243850" lon="120.3294400">
    <ele>16.7</ele>
    <time>2026-09-09T08:46:24Z</time>
   </trkpt>
   <trkpt lat="22.7243720" lon="120.3294450">
    <ele>16.8</ele>
    <time>2026-09-09T08:46:25Z</time>
   </trkpt>
   <trkpt lat="22.7243640" lon="120.3294430">
    <ele>16.8</ele>
    <time>2026-09-09T08:46:26Z</time>
   </trkpt>
   <trkpt lat="22.7243630" lon="120.3294390">
    <ele>16.8</ele>
    <time>2026-09-09T08:46:27Z</time>
   </trkpt>
   <trkpt lat="22.7243630" lon="120.3294390">
    <ele>16.8</ele>
    <time>2026-09-09T08:46:28Z</time>
   </trkpt>
   <trkpt lat="22.7243620" lon="120.3294360">
    <ele>16.8</ele>
    <time>2026-09-09T08:46:29Z</time>
   </trkpt>
   <trkpt lat="22.7243620" lon="120.3294360">
    <ele>16.8</ele>
    <time>2026-09-09T08:46:30Z</time>
   </trkpt>
   <trkpt lat="22.7243250" lon="120.3294570">
    <ele>17.0</ele>
    <time>2026-09-09T08:46:35Z</time>
   </trkpt>
   <trkpt lat="22.7243050" lon="120.3294930">
    <ele>17.1</ele>
    <time>2026-09-09T08:46:36Z</time>
   </trkpt>
   <trkpt lat="22.7242960" lon="120.3295060">
    <ele>17.2</ele>
    <time>2026-09-09T08:46:37Z</time>
   </trkpt>
   <trkpt lat="22.7243080" lon="120.3294990">
    <ele>17.2</ele>
    <time>2026-09-09T08:46:38Z</time>
   </trkpt>
   <trkpt lat="22.7243090" lon="120.3294980">
    <ele>17.2</ele>
    <time>2026-09-09T08:46:39Z</time>
   </trkpt>
   <trkpt lat="22.7243150" lon="120.3295000">
    <ele>17.3</ele>
    <time>2026-09-09T08:46:40Z</time>
   </trkpt>
   <trkpt lat="22.7243120" lon="120.3295080">
    <ele>17.3</ele>
    <time>2026-09-09T08:46:41Z</time>
   </trkpt>
   <trkpt lat="22.7242960" lon="120.3295220">
    <ele>17.4</ele>
    <time>2026-09-09T08:46:42Z</time>
   </trkpt>
   <trkpt lat="22.7242960" lon="120.3295290">
    <ele>17.4</ele>
    <time>2026-09-09T08:46:43Z</time>
   </trkpt>
   <trkpt lat="22.7242840" lon="120.3295430">
    <ele>17.5</ele>
    <time>2026-09-09T08:46:44Z</time>
   </trkpt>
   <trkpt lat="22.7242870" lon="120.3295400">
    <ele>17.5</ele>
    <time>2026-09-09T08:46:45Z</time>
   </trkpt>
   <trkpt lat="22.7242830" lon="120.3295560">
    <ele>17.5</ele>
    <time>2026-09-09T08:46:46Z</time>
   </trkpt>
   <trkpt lat="22.7242720" lon="120.3295760">
    <ele>17.6</ele>
    <time>2026-09-09T08:46:47Z</time>
   </trkpt>
   <trkpt lat="22.7242820" lon="120.3295700">
    <ele>17.7</ele>
    <time>2026-09-09T08:46:48Z</time>
   </trkpt>
   <trkpt lat="22.7242830" lon="120.3295730">
    <ele>17.7</ele>
    <time>2026-09-09T08:46:49Z</time>
   </trkpt>
   <trkpt lat="22.7243070" lon="120.3295810">
    <ele>17.8</ele>
    <time>2026-09-09T08:46:50Z</time>
   </trkpt>
   <trkpt lat="22.7243310" lon="120.3295700">
    <ele>17.9</ele>
    <time>2026-09-09T08:46:51Z</time>
   </trkpt>
   <trkpt lat="22.7243450" lon="120.3295390">
    <ele>18.0</ele>
    <time>2026-09-09T08:46:52Z</time>
   </trkpt>
   <trkpt lat="22.7243090" lon="120.3295320">
    <ele>18.1</ele>
    <time>2026-09-09T08:46:53Z</time>
   </trkpt>
   <trkpt lat="22.7243070" lon="120.3294990">
    <ele>18.2</ele>
    <time>2026-09-09T08:46:54Z</time>
   </trkpt>
   <trkpt lat="22.7242930" lon="120.3294750">
    <ele>18.3</ele>
    <time>2026-09-09T08:46:55Z</time>
   </trkpt>
   <trkpt lat="22.7242700" lon="120.3294340">
    <ele>18.5</ele>
    <time>2026-09-09T08:46:56Z</time>
   </trkpt>
   <trkpt lat="22.7242500" lon="120.3293850">
    <ele>18.7</ele>
    <time>2026-09-09T08:46:57Z</time>
   </trkpt>
   <trkpt lat="22.7242210" lon="120.3293380">
    <ele>18.9</ele>
    <time>2026-09-09T08:46:58Z</time>
   </trkpt>
   <trkpt lat="22.7241920" lon="120.3292620">
    <ele>19.2</ele>
    <time>2026-09-09T08:46:59Z</time>
   </trkpt>
   <trkpt lat="22.7241620" lon="120.3292100">
    <ele>19.4</ele>
    <time>2026-09-09T08:47:00Z</time>
   </trkpt>
   <trkpt lat="22.7241460" lon="120.3291700">
    <ele>19.5</ele>
    <time>2026-09-09T08:47:01Z</time>
   </trkpt>
   <trkpt lat="22.7241320" lon="120.3291410">
    <ele>19.6</ele>
    <time>2026-09-09T08:47:02Z</time>
   </trkpt>
   <trkpt lat="22.7241160" lon="120.3290740">
    <ele>19.9</ele>
    <time>2026-09-09T08:47:03Z</time>
   </trkpt>
   <trkpt lat="22.7241070" lon="120.3290100">
    <ele>20.1</ele>
    <time>2026-09-09T08:47:04Z</time>
   </trkpt>
   <trkpt lat="22.7240760" lon="120.3289560">
    <ele>20.3</ele>
    <time>2026-09-09T08:47:05Z</time>
   </trkpt>
   <trkpt lat="22.7240570" lon="120.3289210">
    <ele>20.5</ele>
    <time>2026-09-09T08:47:06Z</time>
   </trkpt>
   <trkpt lat="22.7240470" lon="120.3288940">
    <ele>20.6</ele>
    <time>2026-09-09T08:47:07Z</time>
   </trkpt>
   <trkpt lat="22.7240400" lon="120.3288550">
    <ele>20.7</ele>
    <time>2026-09-09T08:47:08Z</time>
   </trkpt>
   <trkpt lat="22.7240320" lon="120.3288220">
    <ele>20.8</ele>
    <time>2026-09-09T08:47:09Z</time>
   </trkpt>
   <trkpt lat="22.7240110" lon="120.3287910">
    <ele>21.0</ele>
    <time>2026-09-09T08:47:10Z</time>
   </trkpt>
   <trkpt lat="22.7239920" lon="120.3287750">
    <ele>21.1</ele>
    <time>2026-09-09T08:47:11Z</time>
   </trkpt>
   <trkpt lat="22.7239790" lon="120.3287450">
    <ele>21.2</ele>
    <time>2026-09-09T08:47:12Z</time>
   </trkpt>
   <trkpt lat="22.7239550" lon="120.3287060">
    <ele>21.3</ele>
    <time>2026-09-09T08:47:13Z</time>
   </trkpt>
   <trkpt lat="22.7239350" lon="120.3286860">
    <ele>21.4</ele>
    <time>2026-09-09T08:47:14Z</time>
   </trkpt>
   <trkpt lat="22.7239090" lon="120.3286490">
    <ele>21.6</ele>
    <time>2026-09-09T08:47:15Z</time>
   </trkpt>
   <trkpt lat="22.7239360" lon="120.3286040">
    <ele>21.8</ele>
    <time>2026-09-09T08:47:16Z</time>
   </trkpt>
   <trkpt lat="22.7239600" lon="120.3285940">
    <ele>21.9</ele>
    <time>2026-09-09T08:47:17Z</time>
   </trkpt>
   <trkpt lat="22.7239790" lon="120.3285860">
    <ele>22.0</ele>
    <time>2026-09-09T08:47:18Z</time>
   </trkpt>
   <trkpt lat="22.7239690" lon="120.3285590">
    <ele>21.6</ele>
    <time>2026-09-09T08:47:19Z</time>
   </trkpt>
   <trkpt lat="22.7239550" lon="120.3285320">
    <ele>21.1</ele>
    <time>2026-09-09T08:47:20Z</time>
   </trkpt>
   <trkpt lat="22.7239600" lon="120.3285050">
    <ele>20.8</ele>
    <time>2026-09-09T08:47:21Z</time>
   </trkpt>
   <trkpt lat="22.7239640" lon="120.3284610">
    <ele>20.2</ele>
    <time>2026-09-09T08:47:22Z</time>
   </trkpt>
   <trkpt lat="22.7239800" lon="120.3284030">
    <ele>19.4</ele>
    <time>2026-09-09T08:47:23Z</time>
   </trkpt>
   <trkpt lat="22.7240040" lon="120.3283630">
    <ele>18.8</ele>
    <time>2026-09-09T08:47:24Z</time>
   </trkpt>
   <trkpt lat="22.7240260" lon="120.3283220">
    <ele>18.2</ele>
    <time>2026-09-09T08:47:25Z</time>
   </trkpt>
   <trkpt lat="22.7240540" lon="120.3282900">
    <ele>17.7</ele>
    <time>2026-09-09T08:47:26Z</time>
   </trkpt>
   <trkpt lat="22.7240490" lon="120.3282430">
    <ele>17.1</ele>
    <time>2026-09-09T08:47:27Z</time>
   </trkpt>
   <trkpt lat="22.7240570" lon="120.3282230">
    <ele>16.8</ele>
    <time>2026-09-09T08:47:28Z</time>
   </trkpt>
   <trkpt lat="22.7240580" lon="120.3282170">
    <ele>16.7</ele>
    <time>2026-09-09T08:47:29Z</time>
   </trkpt>
   <trkpt lat="22.7240550" lon="120.3282270">
    <ele>16.6</ele>
    <time>2026-09-09T08:47:30Z</time>
   </trkpt>
   <trkpt lat="22.7240640" lon="120.3282220">
    <ele>16.5</ele>
    <time>2026-09-09T08:47:31Z</time>
   </trkpt>
   <trkpt lat="22.7240630" lon="120.3282210">
    <ele>16.4</ele>
    <time>2026-09-09T08:47:32Z</time>
   </trkpt>
   <trkpt lat="22.7240670" lon="120.3282170">
    <ele>16.4</ele>
    <time>2026-09-09T08:47:33Z</time>
   </trkpt>
   <trkpt lat="22.7240690" lon="120.3282160">
    <ele>16.3</ele>
    <time>2026-09-09T08:47:34Z</time>
   </trkpt>
   <trkpt lat="22.7240690" lon="120.3282160">
    <ele>16.3</ele>
    <time>2026-09-09T08:47:35Z</time>
   </trkpt>
   <trkpt lat="22.7240690" lon="120.3282160">
    <ele>16.3</ele>
    <time>2026-09-09T08:47:36Z</time>
   </trkpt>
   <trkpt lat="22.7240690" lon="120.3282160">
    <ele>16.3</ele>
    <time>2026-09-09T08:47:37Z</time>
   </trkpt>
   <trkpt lat="22.7240690" lon="120.3282160">
    <ele>16.3</ele>
    <time>2026-09-09T08:47:38Z</time>
   </trkpt>
   <trkpt lat="22.7240690" lon="120.3282160">
    <ele>16.3</ele>
    <time>2026-09-09T08:47:39Z</time>
   </trkpt>
   <trkpt lat="22.7240690" lon="120.3282160">
    <ele>16.3</ele>
    <time>2026-09-09T08:47:40Z</time>
   </trkpt>
   <trkpt lat="22.7240550" lon="120.3281390">
    <ele>15.3</ele>
    <time>2026-09-09T08:47:53Z</time>
   </trkpt>
   <trkpt lat="22.7240620" lon="120.3281340">
    <ele>15.2</ele>
    <time>2026-09-09T08:47:54Z</time>
   </trkpt>
   <trkpt lat="22.7240960" lon="120.3281160">
    <ele>14.7</ele>
    <time>2026-09-09T08:47:55Z</time>
   </trkpt>
   <trkpt lat="22.7241260" lon="120.3281090">
    <ele>14.3</ele>
    <time>2026-09-09T08:47:56Z</time>
   </trkpt>
   <trkpt lat="22.7241740" lon="120.3281150">
    <ele>14.4</ele>
    <time>2026-09-09T08:47:57Z</time>
   </trkpt>
   <trkpt lat="22.7242080" lon="120.3281290">
    <ele>14.6</ele>
    <time>2026-09-09T08:47:58Z</time>
   </trkpt>
   <trkpt lat="22.7242450" lon="120.3281810">
    <ele>15.1</ele>
    <time>2026-09-09T08:47:59Z</time>
   </trkpt>
   <trkpt lat="22.7242720" lon="120.3282210">
    <ele>15.5</ele>
    <time>2026-09-09T08:48:00Z</time>
   </trkpt>
   <trkpt lat="22.7243000" lon="120.3282620">
    <ele>15.9</ele>
    <time>2026-09-09T08:48:01Z</time>
   </trkpt>
   <trkpt lat="22.7243370" lon="120.3283020">
    <ele>16.4</ele>
    <time>2026-09-09T08:48:02Z</time>
   </trkpt>
   <trkpt lat="22.7243690" lon="120.3283410">
    <ele>16.8</ele>
    <time>2026-09-09T08:48:03Z</time>
   </trkpt>
   <trkpt lat="22.7243990" lon="120.3283780">
    <ele>17.1</ele>
    <time>2026-09-09T08:48:04Z</time>
   </trkpt>
   <trkpt lat="22.7244310" lon="120.3284180">
    <ele>17.2</ele>
    <time>2026-09-09T08:48:05Z</time>
   </trkpt>
   <trkpt lat="22.7244640" lon="120.3284620">
    <ele>17.4</ele>
    <time>2026-09-09T08:48:06Z</time>
   </trkpt>
   <trkpt lat="22.7245080" lon="120.3285020">
    <ele>17.6</ele>
    <time>2026-09-09T08:48:07Z</time>
   </trkpt>
   <trkpt lat="22.7245540" lon="120.3285430">
    <ele>17.8</ele>
    <time>2026-09-09T08:48:08Z</time>
   </trkpt>
   <trkpt lat="22.7245960" lon="120.3285880">
    <ele>18.1</ele>
    <time>2026-09-09T08:48:09Z</time>
   </trkpt>
   <trkpt lat="22.7246550" lon="120.3286220">
    <ele>18.4</ele>
    <time>2026-09-09T08:48:10Z</time>
   </trkpt>
   <trkpt lat="22.7247050" lon="120.3286600">
    <ele>18.7</ele>
    <time>2026-09-09T08:48:11Z</time>
   </trkpt>
   <trkpt lat="22.7247600" lon="120.3286910">
    <ele>18.8</ele>
    <time>2026-09-09T08:48:12Z</time>
   </trkpt>
   <trkpt lat="22.7248050" lon="120.3287160">
    <ele>18.7</ele>
    <time>2026-09-09T08:48:13Z</time>
   </trkpt>
   <trkpt lat="22.7248430" lon="120.3287420">
    <ele>18.6</ele>
    <time>2026-09-09T08:48:14Z</time>
   </trkpt>
   <trkpt lat="22.7248820" lon="120.3287630">
    <ele>18.5</ele>
    <time>2026-09-09T08:48:15Z</time>
   </trkpt>
   <trkpt lat="22.7249300" lon="120.3287890">
    <ele>18.4</ele>
    <time>2026-09-09T08:48:16Z</time>
   </trkpt>
   <trkpt lat="22.7249720" lon="120.3288150">
    <ele>18.3</ele>
    <time>2026-09-09T08:48:17Z</time>
   </trkpt>
   <trkpt lat="22.7250120" lon="120.3288350">
    <ele>18.3</ele>
    <time>2026-09-09T08:48:18Z</time>
   </trkpt>
   <trkpt lat="22.7250510" lon="120.3288450">
    <ele>18.3</ele>
    <time>2026-09-09T08:48:19Z</time>
   </trkpt>
   <trkpt lat="22.7250880" lon="120.3288290">
    <ele>18.3</ele>
    <time>2026-09-09T08:48:20Z</time>
   </trkpt>
   <trkpt lat="22.7251090" lon="120.3287710">
    <ele>18.2</ele>
    <time>2026-09-09T08:48:21Z</time>
   </trkpt>
   <trkpt lat="22.7251200" lon="120.3287370">
    <ele>18.2</ele>
    <time>2026-09-09T08:48:22Z</time>
   </trkpt>
   <trkpt lat="22.7251480" lon="120.3287070">
    <ele>18.2</ele>
    <time>2026-09-09T08:48:23Z</time>
   </trkpt>
   <trkpt lat="22.7251780" lon="120.3286710">
    <ele>18.2</ele>
    <time>2026-09-09T08:48:24Z</time>
   </trkpt>
   <trkpt lat="22.7252120" lon="120.3286260">
    <ele>18.2</ele>
    <time>2026-09-09T08:48:25Z</time>
   </trkpt>
   <trkpt lat="22.7252150" lon="120.3285530">
    <ele>18.2</ele>
    <time>2026-09-09T08:48:26Z</time>
   </trkpt>
   <trkpt lat="22.7252350" lon="120.3284940">
    <ele>18.2</ele>
    <time>2026-09-09T08:48:27Z</time>
   </trkpt>
   <trkpt lat="22.7252660" lon="120.3284470">
    <ele>18.2</ele>
    <time>2026-09-09T08:48:28Z</time>
   </trkpt>
   <trkpt lat="22.7252930" lon="120.3283900">
    <ele>18.2</ele>
    <time>2026-09-09T08:48:29Z</time>
   </trkpt>
   <trkpt lat="22.7253210" lon="120.3283460">
    <ele>18.2</ele>
    <time>2026-09-09T08:48:30Z</time>
   </trkpt>
   <trkpt lat="22.7253600" lon="120.3283000">
    <ele>18.2</ele>
    <time>2026-09-09T08:48:31Z</time>
   </trkpt>
   <trkpt lat="22.7253890" lon="120.3282480">
    <ele>18.2</ele>
    <time>2026-09-09T08:48:32Z</time>
   </trkpt>
   <trkpt lat="22.7254200" lon="120.3282040">
    <ele>18.2</ele>
    <time>2026-09-09T08:48:33Z</time>
   </trkpt>
   <trkpt lat="22.7254580" lon="120.3281390">
    <ele>18.1</ele>
    <time>2026-09-09T08:48:34Z</time>
   </trkpt>
   <trkpt lat="22.7254960" lon="120.3281080">
    <ele>18.1</ele>
    <time>2026-09-09T08:48:35Z</time>
   </trkpt>
   <trkpt lat="22.7255300" lon="120.3280770">
    <ele>18.1</ele>
    <time>2026-09-09T08:48:36Z</time>
   </trkpt>
   <trkpt lat="22.7255680" lon="120.3280330">
    <ele>18.1</ele>
    <time>2026-09-09T08:48:37Z</time>
   </trkpt>
   <trkpt lat="22.7255910" lon="120.3280090">
    <ele>18.1</ele>
    <time>2026-09-09T08:48:38Z</time>
   </trkpt>
   <trkpt lat="22.7256290" lon="120.3280020">
    <ele>18.0</ele>
    <time>2026-09-09T08:48:39Z</time>
   </trkpt>
   <trkpt lat="22.7256540" lon="120.3280120">
    <ele>18.0</ele>
    <time>2026-09-09T08:48:40Z</time>
   </trkpt>
   <trkpt lat="22.7256730" lon="120.3280320">
    <ele>17.9</ele>
    <time>2026-09-09T08:48:41Z</time>
   </trkpt>
   <trkpt lat="22.7257050" lon="120.3280460">
    <ele>17.8</ele>
    <time>2026-09-09T08:48:42Z</time>
   </trkpt>
   <trkpt lat="22.7257390" lon="120.3280740">
    <ele>17.7</ele>
    <time>2026-09-09T08:48:43Z</time>
   </trkpt>
   <trkpt lat="22.7257700" lon="120.3280990">
    <ele>17.6</ele>
    <time>2026-09-09T08:48:44Z</time>
   </trkpt>
   <trkpt lat="22.7258040" lon="120.3281070">
    <ele>17.5</ele>
    <time>2026-09-09T08:48:45Z</time>
   </trkpt>
   <trkpt lat="22.7258400" lon="120.3281280">
    <ele>17.4</ele>
    <time>2026-09-09T08:48:46Z</time>
   </trkpt>
   <trkpt lat="22.7258700" lon="120.3281460">
    <ele>17.2</ele>
    <time>2026-09-09T08:48:47Z</time>
   </trkpt>
   <trkpt lat="22.7258910" lon="120.3281600">
    <ele>17.2</ele>
    <time>2026-09-09T08:48:48Z</time>
   </trkpt>
   <trkpt lat="22.7259260" lon="120.3281860">
    <ele>17.0</ele>
    <time>2026-09-09T08:48:49Z</time>
   </trkpt>
   <trkpt lat="22.7259730" lon="120.3282100">
    <ele>16.8</ele>
    <time>2026-09-09T08:48:50Z</time>
   </trkpt>
   <trkpt lat="22.7260140" lon="120.3282380">
    <ele>16.7</ele>
    <time>2026-09-09T08:48:51Z</time>
   </trkpt>
   <trkpt lat="22.7260660" lon="120.3282550">
    <ele>16.5</ele>
    <time>2026-09-09T08:48:52Z</time>
   </trkpt>
   <trkpt lat="22.7261140" lon="120.3282760">
    <ele>16.4</ele>
    <time>2026-09-09T08:48:53Z</time>
   </trkpt>
   <trkpt lat="22.7261560" lon="120.3282950">
    <ele>16.2</ele>
    <time>2026-09-09T08:48:54Z</time>
   </trkpt>
   <trkpt lat="22.7261890" lon="120.3283140">
    <ele>16.2</ele>
    <time>2026-09-09T08:48:55Z</time>
   </trkpt>
   <trkpt lat="22.7262230" lon="120.3283240">
    <ele>16.1</ele>
    <time>2026-09-09T08:48:56Z</time>
   </trkpt>
   <trkpt lat="22.7262510" lon="120.3283180">
    <ele>16.0</ele>
    <time>2026-09-09T08:48:57Z</time>
   </trkpt>
   <trkpt lat="22.7262690" lon="120.3282910">
    <ele>16.0</ele>
    <time>2026-09-09T08:48:58Z</time>
   </trkpt>
   <trkpt lat="22.7262790" lon="120.3282600">
    <ele>16.0</ele>
    <time>2026-09-09T08:48:59Z</time>
   </trkpt>
   <trkpt lat="22.7262730" lon="120.3282320">
    <ele>16.1</ele>
    <time>2026-09-09T08:49:00Z</time>
   </trkpt>
   <trkpt lat="22.7262840" lon="120.3281730">
    <ele>16.1</ele>
    <time>2026-09-09T08:49:01Z</time>
   </trkpt>
   <trkpt lat="22.7262880" lon="120.3281240">
    <ele>16.1</ele>
    <time>2026-09-09T08:49:02Z</time>
   </trkpt>
   <trkpt lat="22.7263040" lon="120.3280720">
    <ele>16.1</ele>
    <time>2026-09-09T08:49:03Z</time>
   </trkpt>
   <trkpt lat="22.7263290" lon="120.3280320">
    <ele>16.1</ele>
    <time>2026-09-09T08:49:04Z</time>
   </trkpt>
   <trkpt lat="22.7263510" lon="120.3279750">
    <ele>16.1</ele>
    <time>2026-09-09T08:49:05Z</time>
   </trkpt>
   <trkpt lat="22.7263640" lon="120.3279460">
    <ele>16.1</ele>
    <time>2026-09-09T08:49:06Z</time>
   </trkpt>
   <trkpt lat="22.7263690" lon="120.3278900">
    <ele>16.2</ele>
    <time>2026-09-09T08:49:07Z</time>
   </trkpt>
   <trkpt lat="22.7263590" lon="120.3278350">
    <ele>16.4</ele>
    <time>2026-09-09T08:49:08Z</time>
   </trkpt>
   <trkpt lat="22.7263480" lon="120.3277800">
    <ele>16.7</ele>
    <time>2026-09-09T08:49:09Z</time>
   </trkpt>
   <trkpt lat="22.7263420" lon="120.3277260">
    <ele>17.0</ele>
    <time>2026-09-09T08:49:10Z</time>
   </trkpt>
   <trkpt lat="22.7263390" lon="120.3276740">
    <ele>17.3</ele>
    <time>2026-09-09T08:49:11Z</time>
   </trkpt>
   <trkpt lat="22.7263310" lon="120.3276190">
    <ele>17.6</ele>
    <time>2026-09-09T08:49:12Z</time>
   </trkpt>
   <trkpt lat="22.7263270" lon="120.3275650">
    <ele>17.9</ele>
    <time>2026-09-09T08:49:13Z</time>
   </trkpt>
   <trkpt lat="22.7263310" lon="120.3275320">
    <ele>18.0</ele>
    <time>2026-09-09T08:49:14Z</time>
   </trkpt>
   <trkpt lat="22.7263360" lon="120.3274860">
    <ele>18.1</ele>
    <time>2026-09-09T08:49:15Z</time>
   </trkpt>
   <trkpt lat="22.7263380" lon="120.3274310">
    <ele>18.2</ele>
    <time>2026-09-09T08:49:16Z</time>
   </trkpt>
   <trkpt lat="22.7263450" lon="120.3273790">
    <ele>18.3</ele>
    <time>2026-09-09T08:49:17Z</time>
   </trkpt>
   <trkpt lat="22.7263300" lon="120.3273270">
    <ele>18.4</ele>
    <time>2026-09-09T08:49:18Z</time>
   </trkpt>
   <trkpt lat="22.7263500" lon="120.3272910">
    <ele>18.5</ele>
    <time>2026-09-09T08:49:19Z</time>
   </trkpt>
   <trkpt lat="22.7263550" lon="120.3272630">
    <ele>18.6</ele>
    <time>2026-09-09T08:49:20Z</time>
   </trkpt>
   <trkpt lat="22.7263470" lon="120.3272520">
    <ele>18.6</ele>
    <time>2026-09-09T08:49:21Z</time>
   </trkpt>
   <trkpt lat="22.7263270" lon="120.3272450">
    <ele>18.7</ele>
    <time>2026-09-09T08:49:22Z</time>
   </trkpt>
   <trkpt lat="22.7263380" lon="120.3272650">
    <ele>18.7</ele>
    <time>2026-09-09T08:49:23Z</time>
   </trkpt>
   <trkpt lat="22.7263340" lon="120.3272730">
    <ele>18.8</ele>
    <time>2026-09-09T08:49:24Z</time>
   </trkpt>
   <trkpt lat="22.7263250" lon="120.3272750">
    <ele>18.8</ele>
    <time>2026-09-09T08:49:25Z</time>
   </trkpt>
   <trkpt lat="22.7263170" lon="120.3272720">
    <ele>18.8</ele>
    <time>2026-09-09T08:49:26Z</time>
   </trkpt>
   <trkpt lat="22.7263030" lon="120.3272730">
    <ele>18.8</ele>
    <time>2026-09-09T08:49:27Z</time>
   </trkpt>
   <trkpt lat="22.7263220" lon="120.3272880">
    <ele>18.9</ele>
    <time>2026-09-09T08:49:28Z</time>
   </trkpt>
   <trkpt lat="22.7263240" lon="120.3272980">
    <ele>18.9</ele>
    <time>2026-09-09T08:49:29Z</time>
   </trkpt>
   <trkpt lat="22.7263250" lon="120.3272970">
    <ele>18.9</ele>
    <time>2026-09-09T08:49:30Z</time>
   </trkpt>
   <trkpt lat="22.7263310" lon="120.3272950">
    <ele>18.9</ele>
    <time>2026-09-09T08:49:31Z</time>
   </trkpt>
   <trkpt lat="22.7263060" lon="120.3273120">
    <ele>19.0</ele>
    <time>2026-09-09T08:49:32Z</time>
   </trkpt>
   <trkpt lat="22.7263070" lon="120.3273100">
    <ele>19.0</ele>
    <time>2026-09-09T08:49:33Z</time>
   </trkpt>
   <trkpt lat="22.7263070" lon="120.3273010">
    <ele>19.0</ele>
    <time>2026-09-09T08:49:34Z</time>
   </trkpt>
   <trkpt lat="22.7263010" lon="120.3272960">
    <ele>19.0</ele>
    <time>2026-09-09T08:49:35Z</time>
   </trkpt>
   <trkpt lat="22.7263040" lon="120.3272980">
    <ele>19.0</ele>
    <time>2026-09-09T08:49:36Z</time>
   </trkpt>
   <trkpt lat="22.7263050" lon="120.3272980">
    <ele>19.1</ele>
    <time>2026-09-09T08:49:37Z</time>
   </trkpt>
   <trkpt lat="22.7263100" lon="120.3273040">
    <ele>19.1</ele>
    <time>2026-09-09T08:49:38Z</time>
   </trkpt>
   <trkpt lat="22.7263130" lon="120.3273160">
    <ele>19.1</ele>
    <time>2026-09-09T08:49:39Z</time>
   </trkpt>
   <trkpt lat="22.7263140" lon="120.3273180">
    <ele>19.1</ele>
    <time>2026-09-09T08:49:40Z</time>
   </trkpt>
   <trkpt lat="22.7262990" lon="120.3272980">
    <ele>19.2</ele>
    <time>2026-09-09T08:49:41Z</time>
   </trkpt>
   <trkpt lat="22.7262890" lon="120.3272900">
    <ele>19.2</ele>
    <time>2026-09-09T08:49:42Z</time>
   </trkpt>
   <trkpt lat="22.7262790" lon="120.3272910">
    <ele>19.2</ele>
    <time>2026-09-09T08:49:43Z</time>
   </trkpt>
   <trkpt lat="22.7262690" lon="120.3272930">
    <ele>19.2</ele>
    <time>2026-09-09T08:49:44Z</time>
   </trkpt>
   <trkpt lat="22.7262530" lon="120.3272950">
    <ele>19.3</ele>
    <time>2026-09-09T08:49:45Z</time>
   </trkpt>
   <trkpt lat="22.7262340" lon="120.3272930">
    <ele>19.3</ele>
    <time>2026-09-09T08:49:46Z</time>
   </trkpt>
   <trkpt lat="22.7262320" lon="120.3273010">
    <ele>19.3</ele>
    <time>2026-09-09T08:49:47Z</time>
   </trkpt>
   <trkpt lat="22.7261990" lon="120.3272750">
    <ele>19.4</ele>
    <time>2026-09-09T08:49:48Z</time>
   </trkpt>
   <trkpt lat="22.7261990" lon="120.3272710">
    <ele>19.4</ele>
    <time>2026-09-09T08:49:49Z</time>
   </trkpt>
   <trkpt lat="22.7261960" lon="120.3272720">
    <ele>19.4</ele>
    <time>2026-09-09T08:49:50Z</time>
   </trkpt>
   <trkpt lat="22.7262010" lon="120.3272680">
    <ele>19.5</ele>
    <time>2026-09-09T08:49:51Z</time>
   </trkpt>
   <trkpt lat="22.7262050" lon="120.3272680">
    <ele>19.5</ele>
    <time>2026-09-09T08:49:52Z</time>
   </trkpt>
   <trkpt lat="22.7262070" lon="120.3272690">
    <ele>19.5</ele>
    <time>2026-09-09T08:49:53Z</time>
   </trkpt>
   <trkpt lat="22.7262060" lon="120.3272710">
    <ele>19.5</ele>
    <time>2026-09-09T08:49:54Z</time>
   </trkpt>
   <trkpt lat="22.7262070" lon="120.3272740">
    <ele>19.5</ele>
    <time>2026-09-09T08:49:55Z</time>
   </trkpt>
   <trkpt lat="22.7262070" lon="120.3272740">
    <ele>19.5</ele>
    <time>2026-09-09T08:49:56Z</time>
   </trkpt>
   <trkpt lat="22.7262040" lon="120.3272720">
    <ele>19.5</ele>
    <time>2026-09-09T08:49:57Z</time>
   </trkpt>
   <trkpt lat="22.7262050" lon="120.3272720">
    <ele>19.5</ele>
    <time>2026-09-09T08:49:58Z</time>
   </trkpt>
   <trkpt lat="22.7261570" lon="120.3274040">
    <ele>19.8</ele>
    <time>2026-09-09T08:50:29Z</time>
   </trkpt>
   <trkpt lat="22.7261730" lon="120.3273690">
    <ele>19.9</ele>
    <time>2026-09-09T08:50:30Z</time>
   </trkpt>
   <trkpt lat="22.7261990" lon="120.3272670">
    <ele>20.1</ele>
    <time>2026-09-09T08:50:31Z</time>
   </trkpt>
   <trkpt lat="22.7262000" lon="120.3272670">
    <ele>20.1</ele>
    <time>2026-09-09T08:50:32Z</time>
   </trkpt>
   <trkpt lat="22.7261940" lon="120.3272680">
    <ele>20.1</ele>
    <time>2026-09-09T08:50:33Z</time>
   </trkpt>
   <trkpt lat="22.7261940" lon="120.3272680">
    <ele>20.1</ele>
    <time>2026-09-09T08:50:34Z</time>
   </trkpt>
   <trkpt lat="22.7261940" lon="120.3272680">
    <ele>20.1</ele>
    <time>2026-09-09T08:50:35Z</time>
   </trkpt>
   <trkpt lat="22.7262140" lon="120.3272570">
    <ele>20.2</ele>
    <time>2026-09-09T08:50:36Z</time>
   </trkpt>
   <trkpt lat="22.7262110" lon="120.3272570">
    <ele>20.2</ele>
    <time>2026-09-09T08:50:37Z</time>
   </trkpt>
   <trkpt lat="22.7262120" lon="120.3272460">
    <ele>20.2</ele>
    <time>2026-09-09T08:50:38Z</time>
   </trkpt>
   <trkpt lat="22.7263020" lon="120.3273550">
    <ele>20.5</ele>
    <time>2026-09-09T08:50:50Z</time>
   </trkpt>
   <trkpt lat="22.7263090" lon="120.3273420">
    <ele>20.6</ele>
    <time>2026-09-09T08:50:51Z</time>
   </trkpt>
   <trkpt lat="22.7263160" lon="120.3273220">
    <ele>20.6</ele>
    <time>2026-09-09T08:50:52Z</time>
   </trkpt>
   <trkpt lat="22.7263220" lon="120.3273180">
    <ele>20.6</ele>
    <time>2026-09-09T08:50:53Z</time>
   </trkpt>
   <trkpt lat="22.7263340" lon="120.3273200">
    <ele>20.7</ele>
    <time>2026-09-09T08:50:54Z</time>
   </trkpt>
   <trkpt lat="22.7263280" lon="120.3272930">
    <ele>20.7</ele>
    <time>2026-09-09T08:50:55Z</time>
   </trkpt>
   <trkpt lat="22.7263280" lon="120.3272910">
    <ele>20.7</ele>
    <time>2026-09-09T08:50:56Z</time>
   </trkpt>
   <trkpt lat="22.7263340" lon="120.3272900">
    <ele>20.8</ele>
    <time>2026-09-09T08:50:57Z</time>
   </trkpt>
   <trkpt lat="22.7263360" lon="120.3272920">
    <ele>20.8</ele>
    <time>2026-09-09T08:50:58Z</time>
   </trkpt>
   <trkpt lat="22.7263390" lon="120.3272900">
    <ele>20.8</ele>
    <time>2026-09-09T08:50:59Z</time>
   </trkpt>
   <trkpt lat="22.7263380" lon="120.3272800">
    <ele>20.8</ele>
    <time>2026-09-09T08:51:00Z</time>
   </trkpt>
   <trkpt lat="22.7263340" lon="120.3272770">
    <ele>20.8</ele>
    <time>2026-09-09T08:51:01Z</time>
   </trkpt>
   <trkpt lat="22.7263300" lon="120.3272750">
    <ele>20.8</ele>
    <time>2026-09-09T08:51:02Z</time>
   </trkpt>
   <trkpt lat="22.7263250" lon="120.3272790">
    <ele>20.8</ele>
    <time>2026-09-09T08:51:03Z</time>
   </trkpt>
   <trkpt lat="22.7263220" lon="120.3272800">
    <ele>20.9</ele>
    <time>2026-09-09T08:51:04Z</time>
   </trkpt>
   <trkpt lat="22.7263620" lon="120.3272650">
    <ele>21.0</ele>
    <time>2026-09-09T08:51:15Z</time>
   </trkpt>
   <trkpt lat="22.7263720" lon="120.3272680">
    <ele>21.0</ele>
    <time>2026-09-09T08:51:16Z</time>
   </trkpt>
   <trkpt lat="22.7263800" lon="120.3272570">
    <ele>21.0</ele>
    <time>2026-09-09T08:51:17Z</time>
   </trkpt>
   <trkpt lat="22.7263680" lon="120.3272720">
    <ele>21.1</ele>
    <time>2026-09-09T08:51:18Z</time>
   </trkpt>
   <trkpt lat="22.7263600" lon="120.3272690">
    <ele>21.1</ele>
    <time>2026-09-09T08:51:19Z</time>
   </trkpt>
   <trkpt lat="22.7263510" lon="120.3272740">
    <ele>21.1</ele>
    <time>2026-09-09T08:51:20Z</time>
   </trkpt>
   <trkpt lat="22.7263470" lon="120.3272810">
    <ele>21.1</ele>
    <time>2026-09-09T08:51:21Z</time>
   </trkpt>
   <trkpt lat="22.7263380" lon="120.3272810">
    <ele>21.2</ele>
    <time>2026-09-09T08:51:22Z</time>
   </trkpt>
   <trkpt lat="22.7262960" lon="120.3272680">
    <ele>21.3</ele>
    <time>2026-09-09T08:51:23Z</time>
   </trkpt>
   <trkpt lat="22.7262950" lon="120.3272740">
    <ele>21.3</ele>
    <time>2026-09-09T08:51:24Z</time>
   </trkpt>
   <trkpt lat="22.7263090" lon="120.3272980">
    <ele>21.4</ele>
    <time>2026-09-09T08:51:25Z</time>
   </trkpt>
   <trkpt lat="22.7263030" lon="120.3273090">
    <ele>21.4</ele>
    <time>2026-09-09T08:51:26Z</time>
   </trkpt>
   <trkpt lat="22.7263080" lon="120.3273250">
    <ele>21.5</ele>
    <time>2026-09-09T08:51:27Z</time>
   </trkpt>
   <trkpt lat="22.7263080" lon="120.3273220">
    <ele>21.5</ele>
    <time>2026-09-09T08:51:28Z</time>
   </trkpt>
   <trkpt lat="22.7263180" lon="120.3273320">
    <ele>21.5</ele>
    <time>2026-09-09T08:51:29Z</time>
   </trkpt>
   <trkpt lat="22.7263180" lon="120.3273320">
    <ele>21.5</ele>
    <time>2026-09-09T08:51:30Z</time>
   </trkpt>
   <trkpt lat="22.7263180" lon="120.3273320">
    <ele>21.5</ele>
    <time>2026-09-09T08:51:31Z</time>
   </trkpt>
   <trkpt lat="22.7263180" lon="120.3273320">
    <ele>21.5</ele>
    <time>2026-09-09T08:51:32Z</time>
   </trkpt>
   <trkpt lat="22.7263180" lon="120.3273320">
    <ele>21.5</ele>
    <time>2026-09-09T08:51:33Z</time>
   </trkpt>
   <trkpt lat="22.7263630" lon="120.3273390">
    <ele>21.6</ele>
    <time>2026-09-09T08:51:49Z</time>
   </trkpt>
   <trkpt lat="22.7263660" lon="120.3272990">
    <ele>21.7</ele>
    <time>2026-09-09T08:51:50Z</time>
   </trkpt>
   <trkpt lat="22.7263600" lon="120.3272510">
    <ele>21.8</ele>
    <time>2026-09-09T08:51:51Z</time>
   </trkpt>
   <trkpt lat="22.7263710" lon="120.3272170">
    <ele>21.9</ele>
    <time>2026-09-09T08:51:52Z</time>
   </trkpt>
   <trkpt lat="22.7263740" lon="120.3271690">
    <ele>22.1</ele>
    <time>2026-09-09T08:51:53Z</time>
   </trkpt>
   <trkpt lat="22.7263820" lon="120.3271290">
    <ele>22.2</ele>
    <time>2026-09-09T08:51:54Z</time>
   </trkpt>
   <trkpt lat="22.7263870" lon="120.3270990">
    <ele>22.2</ele>
    <time>2026-09-09T08:51:55Z</time>
   </trkpt>
   <trkpt lat="22.7263950" lon="120.3270800">
    <ele>22.3</ele>
    <time>2026-09-09T08:51:56Z</time>
   </trkpt>
   <trkpt lat="22.7263940" lon="120.3270430">
    <ele>22.4</ele>
    <time>2026-09-09T08:51:57Z</time>
   </trkpt>
   <trkpt lat="22.7264040" lon="120.3270220">
    <ele>22.4</ele>
    <time>2026-09-09T08:51:58Z</time>
   </trkpt>
   <trkpt lat="22.7264140" lon="120.3269990">
    <ele>22.5</ele>
    <time>2026-09-09T08:51:59Z</time>
   </trkpt>
   <trkpt lat="22.7264160" lon="120.3269920">
    <ele>22.5</ele>
    <time>2026-09-09T08:52:00Z</time>
   </trkpt>
   <trkpt lat="22.7264190" lon="120.3269710">
    <ele>22.6</ele>
    <time>2026-09-09T08:52:01Z</time>
   </trkpt>
   <trkpt lat="22.7264260" lon="120.3269440">
    <ele>22.6</ele>
    <time>2026-09-09T08:52:02Z</time>
   </trkpt>
   <trkpt lat="22.7264340" lon="120.3269210">
    <ele>22.7</ele>
    <time>2026-09-09T08:52:03Z</time>
   </trkpt>
   <trkpt lat="22.7264470" lon="120.3268960">
    <ele>22.8</ele>
    <time>2026-09-09T08:52:04Z</time>
   </trkpt>
   <trkpt lat="22.7264530" lon="120.3268690">
    <ele>22.8</ele>
    <time>2026-09-09T08:52:05Z</time>
   </trkpt>
   <trkpt lat="22.7264610" lon="120.3268490">
    <ele>22.9</ele>
    <time>2026-09-09T08:52:06Z</time>
   </trkpt>
   <trkpt lat="22.7264710" lon="120.3268230">
    <ele>23.0</ele>
    <time>2026-09-09T08:52:07Z</time>
   </trkpt>
   <trkpt lat="22.7264660" lon="120.3267910">
    <ele>23.1</ele>
    <time>2026-09-09T08:52:08Z</time>
   </trkpt>
   <trkpt lat="22.7264640" lon="120.3267550">
    <ele>23.1</ele>
    <time>2026-09-09T08:52:09Z</time>
   </trkpt>
   <trkpt lat="22.7264590" lon="120.3267320">
    <ele>23.2</ele>
    <time>2026-09-09T08:52:10Z</time>
   </trkpt>
   <trkpt lat="22.7264520" lon="120.3266920">
    <ele>23.2</ele>
    <time>2026-09-09T08:52:11Z</time>
   </trkpt>
   <trkpt lat="22.7264590" lon="120.3266460">
    <ele>23.3</ele>
    <time>2026-09-09T08:52:12Z</time>
   </trkpt>
   <trkpt lat="22.7264830" lon="120.3266100">
    <ele>23.4</ele>
    <time>2026-09-09T08:52:13Z</time>
   </trkpt>
   <trkpt lat="22.7264810" lon="120.3265610">
    <ele>23.4</ele>
    <time>2026-09-09T08:52:14Z</time>
   </trkpt>
   <trkpt lat="22.7264810" lon="120.3265100">
    <ele>23.5</ele>
    <time>2026-09-09T08:52:15Z</time>
   </trkpt>
   <trkpt lat="22.7264960" lon="120.3264350">
    <ele>23.7</ele>
    <time>2026-09-09T08:52:16Z</time>
   </trkpt>
   <trkpt lat="22.7265050" lon="120.3263660">
    <ele>23.8</ele>
    <time>2026-09-09T08:52:17Z</time>
   </trkpt>
   <trkpt lat="22.7265200" lon="120.3263280">
    <ele>23.8</ele>
    <time>2026-09-09T08:52:18Z</time>
   </trkpt>
   <trkpt lat="22.7265320" lon="120.3262960">
    <ele>23.9</ele>
    <time>2026-09-09T08:52:19Z</time>
   </trkpt>
   <trkpt lat="22.7264930" lon="120.3262660">
    <ele>24.0</ele>
    <time>2026-09-09T08:52:20Z</time>
   </trkpt>
   <trkpt lat="22.7264600" lon="120.3262540">
    <ele>24.0</ele>
    <time>2026-09-09T08:52:21Z</time>
   </trkpt>
   <trkpt lat="22.7264290" lon="120.3262330">
    <ele>24.0</ele>
    <time>2026-09-09T08:52:22Z</time>
   </trkpt>
   <trkpt lat="22.7264090" lon="120.3262250">
    <ele>24.0</ele>
    <time>2026-09-09T08:52:23Z</time>
   </trkpt>
   <trkpt lat="22.7263740" lon="120.3262170">
    <ele>24.0</ele>
    <time>2026-09-09T08:52:24Z</time>
   </trkpt>
   <trkpt lat="22.7263590" lon="120.3261900">
    <ele>24.0</ele>
    <time>2026-09-09T08:52:25Z</time>
   </trkpt>
   <trkpt lat="22.7263300" lon="120.3261900">
    <ele>24.0</ele>
    <time>2026-09-09T08:52:26Z</time>
   </trkpt>
   <trkpt lat="22.7263510" lon="120.3261420">
    <ele>24.1</ele>
    <time>2026-09-09T08:52:27Z</time>
   </trkpt>
   <trkpt lat="22.7263940" lon="120.3261030">
    <ele>24.1</ele>
    <time>2026-09-09T08:52:28Z</time>
   </trkpt>
   <trkpt lat="22.7264380" lon="120.3260490">
    <ele>24.0</ele>
    <time>2026-09-09T08:52:29Z</time>
   </trkpt>
   <trkpt lat="22.7264670" lon="120.3259750">
    <ele>24.0</ele>
    <time>2026-09-09T08:52:30Z</time>
   </trkpt>
   <trkpt lat="22.7264990" lon="120.3259260">
    <ele>23.7</ele>
    <time>2026-09-09T08:52:31Z</time>
   </trkpt>
   <trkpt lat="22.7265200" lon="120.3258750">
    <ele>23.6</ele>
    <time>2026-09-09T08:52:32Z</time>
   </trkpt>
   <trkpt lat="22.7265150" lon="120.3258280">
    <ele>23.6</ele>
    <time>2026-09-09T08:52:33Z</time>
   </trkpt>
   <trkpt lat="22.7265370" lon="120.3257810">
    <ele>23.5</ele>
    <time>2026-09-09T08:52:34Z</time>
   </trkpt>
   <trkpt lat="22.7265540" lon="120.3257410">
    <ele>23.4</ele>
    <time>2026-09-09T08:52:35Z</time>
   </trkpt>
   <trkpt lat="22.7265810" lon="120.3257430">
    <ele>23.4</ele>
    <time>2026-09-09T08:52:36Z</time>
   </trkpt>
   <trkpt lat="22.7266000" lon="120.3257490">
    <ele>23.3</ele>
    <time>2026-09-09T08:52:37Z</time>
   </trkpt>
   <trkpt lat="22.7266060" lon="120.3257700">
    <ele>23.3</ele>
    <time>2026-09-09T08:52:38Z</time>
   </trkpt>
   <trkpt lat="22.7266140" lon="120.3257500">
    <ele>23.3</ele>
    <time>2026-09-09T08:52:39Z</time>
   </trkpt>
   <trkpt lat="22.7266180" lon="120.3257590">
    <ele>23.2</ele>
    <time>2026-09-09T08:52:40Z</time>
   </trkpt>
   <trkpt lat="22.7266210" lon="120.3257590">
    <ele>23.2</ele>
    <time>2026-09-09T08:52:41Z</time>
   </trkpt>
   <trkpt lat="22.7266170" lon="120.3257640">
    <ele>23.2</ele>
    <time>2026-09-09T08:52:42Z</time>
   </trkpt>
   <trkpt lat="22.7266140" lon="120.3257600">
    <ele>23.2</ele>
    <time>2026-09-09T08:52:43Z</time>
   </trkpt>
   <trkpt lat="22.7266170" lon="120.3257550">
    <ele>23.2</ele>
    <time>2026-09-09T08:52:44Z</time>
   </trkpt>
   <trkpt lat="22.7266250" lon="120.3257470">
    <ele>23.2</ele>
    <time>2026-09-09T08:52:45Z</time>
   </trkpt>
   <trkpt lat="22.7266320" lon="120.3257450">
    <ele>23.2</ele>
    <time>2026-09-09T08:52:46Z</time>
   </trkpt>
   <trkpt lat="22.7266230" lon="120.3257660">
    <ele>23.1</ele>
    <time>2026-09-09T08:52:47Z</time>
   </trkpt>
   <trkpt lat="22.7266370" lon="120.3257600">
    <ele>23.1</ele>
    <time>2026-09-09T08:52:48Z</time>
   </trkpt>
   <trkpt lat="22.7266510" lon="120.3257430">
    <ele>23.0</ele>
    <time>2026-09-09T08:53:08Z</time>
   </trkpt>
   <trkpt lat="22.7266380" lon="120.3257340">
    <ele>23.0</ele>
    <time>2026-09-09T08:53:09Z</time>
   </trkpt>
   <trkpt lat="22.7266400" lon="120.3257300">
    <ele>23.0</ele>
    <time>2026-09-09T08:53:10Z</time>
   </trkpt>
   <trkpt lat="22.7266460" lon="120.3257270">
    <ele>23.0</ele>
    <time>2026-09-09T08:53:11Z</time>
   </trkpt>
   <trkpt lat="22.7266450" lon="120.3257110">
    <ele>23.0</ele>
    <time>2026-09-09T08:53:12Z</time>
   </trkpt>
   <trkpt lat="22.7266450" lon="120.3257070">
    <ele>23.0</ele>
    <time>2026-09-09T08:53:13Z</time>
   </trkpt>
   <trkpt lat="22.7266460" lon="120.3257070">
    <ele>23.0</ele>
    <time>2026-09-09T08:53:14Z</time>
   </trkpt>
   <trkpt lat="22.7266460" lon="120.3257070">
    <ele>23.0</ele>
    <time>2026-09-09T08:53:15Z</time>
   </trkpt>
   <trkpt lat="22.7266460" lon="120.3257070">
    <ele>23.0</ele>
    <time>2026-09-09T08:53:16Z</time>
   </trkpt>
   <trkpt lat="22.7266460" lon="120.3257070">
    <ele>23.0</ele>
    <time>2026-09-09T08:53:17Z</time>
   </trkpt>
   <trkpt lat="22.7266440" lon="120.3256900">
    <ele>22.9</ele>
    <time>2026-09-09T08:53:18Z</time>
   </trkpt>
   <trkpt lat="22.7265860" lon="120.3257890">
    <ele>22.7</ele>
    <time>2026-09-09T08:53:26Z</time>
   </trkpt>
   <trkpt lat="22.7266090" lon="120.3257840">
    <ele>22.7</ele>
    <time>2026-09-09T08:53:27Z</time>
   </trkpt>
   <trkpt lat="22.7266180" lon="120.3257860">
    <ele>22.7</ele>
    <time>2026-09-09T08:53:28Z</time>
   </trkpt>
   <trkpt lat="22.7266280" lon="120.3257900">
    <ele>22.6</ele>
    <time>2026-09-09T08:53:29Z</time>
   </trkpt>
   <trkpt lat="22.7266400" lon="120.3257860">
    <ele>22.6</ele>
    <time>2026-09-09T08:53:30Z</time>
   </trkpt>
   <trkpt lat="22.7266500" lon="120.3257860">
    <ele>22.6</ele>
    <time>2026-09-09T08:53:31Z</time>
   </trkpt>
   <trkpt lat="22.7266410" lon="120.3257580">
    <ele>22.5</ele>
    <time>2026-09-09T08:53:32Z</time>
   </trkpt>
   <trkpt lat="22.7266450" lon="120.3257580">
    <ele>22.5</ele>
    <time>2026-09-09T08:53:33Z</time>
   </trkpt>
   <trkpt lat="22.7266510" lon="120.3257630">
    <ele>22.5</ele>
    <time>2026-09-09T08:53:34Z</time>
   </trkpt>
   <trkpt lat="22.7266540" lon="120.3257490">
    <ele>22.5</ele>
    <time>2026-09-09T08:53:35Z</time>
   </trkpt>
   <trkpt lat="22.7266490" lon="120.3257390">
    <ele>22.5</ele>
    <time>2026-09-09T08:53:36Z</time>
   </trkpt>
   <trkpt lat="22.7266120" lon="120.3257340">
    <ele>22.4</ele>
    <time>2026-09-09T08:53:38Z</time>
   </trkpt>
   <trkpt lat="22.7266090" lon="120.3257510">
    <ele>22.4</ele>
    <time>2026-09-09T08:53:39Z</time>
   </trkpt>
   <trkpt lat="22.7266190" lon="120.3257780">
    <ele>22.3</ele>
    <time>2026-09-09T08:53:40Z</time>
   </trkpt>
   <trkpt lat="22.7266230" lon="120.3257870">
    <ele>22.3</ele>
    <time>2026-09-09T08:53:41Z</time>
   </trkpt>
   <trkpt lat="22.7266150" lon="120.3257890">
    <ele>22.3</ele>
    <time>2026-09-09T08:53:42Z</time>
   </trkpt>
   <trkpt lat="22.7266140" lon="120.3258110">
    <ele>22.2</ele>
    <time>2026-09-09T08:53:43Z</time>
   </trkpt>
   <trkpt lat="22.7266110" lon="120.3258360">
    <ele>22.2</ele>
    <time>2026-09-09T08:53:44Z</time>
   </trkpt>
   <trkpt lat="22.7266240" lon="120.3258340">
    <ele>22.2</ele>
    <time>2026-09-09T08:53:45Z</time>
   </trkpt>
   <trkpt lat="22.7266310" lon="120.3258370">
    <ele>22.2</ele>
    <time>2026-09-09T08:53:46Z</time>
   </trkpt>
   <trkpt lat="22.7266320" lon="120.3258300">
    <ele>22.1</ele>
    <time>2026-09-09T08:53:47Z</time>
   </trkpt>
   <trkpt lat="22.7266320" lon="120.3258300">
    <ele>22.1</ele>
    <time>2026-09-09T08:53:48Z</time>
   </trkpt>
   <trkpt lat="22.7266270" lon="120.3258280">
    <ele>22.1</ele>
    <time>2026-09-09T08:53:49Z</time>
   </trkpt>
   <trkpt lat="22.7266390" lon="120.3258150">
    <ele>22.1</ele>
    <time>2026-09-09T08:53:50Z</time>
   </trkpt>
   <trkpt lat="22.7266410" lon="120.3258130">
    <ele>22.1</ele>
    <time>2026-09-09T08:53:51Z</time>
   </trkpt>
   <trkpt lat="22.7266400" lon="120.3258040">
    <ele>22.1</ele>
    <time>2026-09-09T08:53:52Z</time>
   </trkpt>
   <trkpt lat="22.7266480" lon="120.3257960">
    <ele>22.1</ele>
    <time>2026-09-09T08:53:53Z</time>
   </trkpt>
   <trkpt lat="22.7266540" lon="120.3257920">
    <ele>22.0</ele>
    <time>2026-09-09T08:53:54Z</time>
   </trkpt>
   <trkpt lat="22.7266330" lon="120.3257420">
    <ele>21.9</ele>
    <time>2026-09-09T08:53:56Z</time>
   </trkpt>
   <trkpt lat="22.7266310" lon="120.3257310">
    <ele>21.9</ele>
    <time>2026-09-09T08:53:57Z</time>
   </trkpt>
   <trkpt lat="22.7266280" lon="120.3257210">
    <ele>21.9</ele>
    <time>2026-09-09T08:53:58Z</time>
   </trkpt>
   <trkpt lat="22.7266260" lon="120.3257100">
    <ele>21.9</ele>
    <time>2026-09-09T08:53:59Z</time>
   </trkpt>
   <trkpt lat="22.7266230" lon="120.3257000">
    <ele>21.9</ele>
    <time>2026-09-09T08:54:00Z</time>
   </trkpt>
   <trkpt lat="22.7266210" lon="120.3256890">
    <ele>21.8</ele>
    <time>2026-09-09T08:54:01Z</time>
   </trkpt>
   <trkpt lat="22.7266130" lon="120.3256700">
    <ele>21.8</ele>
    <time>2026-09-09T08:54:02Z</time>
   </trkpt>
   <trkpt lat="22.7266210" lon="120.3256800">
    <ele>21.8</ele>
    <time>2026-09-09T08:54:04Z</time>
   </trkpt>
   <trkpt lat="22.7266260" lon="120.3256950">
    <ele>21.7</ele>
    <time>2026-09-09T08:54:05Z</time>
   </trkpt>
   <trkpt lat="22.7266270" lon="120.3257080">
    <ele>21.7</ele>
    <time>2026-09-09T08:54:06Z</time>
   </trkpt>
   <trkpt lat="22.7266570" lon="120.3257180">
    <ele>21.7</ele>
    <time>2026-09-09T08:54:20Z</time>
   </trkpt>
   <trkpt lat="22.7266570" lon="120.3257050">
    <ele>21.6</ele>
    <time>2026-09-09T08:54:21Z</time>
   </trkpt>
   <trkpt lat="22.7266550" lon="120.3257030">
    <ele>21.6</ele>
    <time>2026-09-09T08:54:22Z</time>
   </trkpt>
   <trkpt lat="22.7266460" lon="120.3257130">
    <ele>21.6</ele>
    <time>2026-09-09T08:54:23Z</time>
   </trkpt>
   <trkpt lat="22.7266450" lon="120.3257170">
    <ele>21.6</ele>
    <time>2026-09-09T08:54:24Z</time>
   </trkpt>
   <trkpt lat="22.7266410" lon="120.3257150">
    <ele>21.6</ele>
    <time>2026-09-09T08:54:25Z</time>
   </trkpt>
   <trkpt lat="22.7266400" lon="120.3257150">
    <ele>21.6</ele>
    <time>2026-09-09T08:54:26Z</time>
   </trkpt>
   <trkpt lat="22.7266410" lon="120.3257230">
    <ele>21.6</ele>
    <time>2026-09-09T08:54:27Z</time>
   </trkpt>
   <trkpt lat="22.7266440" lon="120.3257260">
    <ele>21.6</ele>
    <time>2026-09-09T08:54:28Z</time>
   </trkpt>
   <trkpt lat="22.7266470" lon="120.3257330">
    <ele>21.5</ele>
    <time>2026-09-09T08:54:29Z</time>
   </trkpt>
   <trkpt lat="22.7266450" lon="120.3257420">
    <ele>21.5</ele>
    <time>2026-09-09T08:54:30Z</time>
   </trkpt>
   <trkpt lat="22.7266460" lon="120.3257430">
    <ele>21.5</ele>
    <time>2026-09-09T08:54:31Z</time>
   </trkpt>
   <trkpt lat="22.7266660" lon="120.3257990">
    <ele>21.4</ele>
    <time>2026-09-09T08:56:18Z</time>
   </trkpt>
   <trkpt lat="22.7266670" lon="120.3258120">
    <ele>21.4</ele>
    <time>2026-09-09T08:56:19Z</time>
   </trkpt>
   <trkpt lat="22.7266670" lon="120.3258130">
    <ele>21.4</ele>
    <time>2026-09-09T08:56:20Z</time>
   </trkpt>
   <trkpt lat="22.7266650" lon="120.3258090">
    <ele>21.4</ele>
    <time>2026-09-09T08:56:21Z</time>
   </trkpt>
   <trkpt lat="22.7266550" lon="120.3258120">
    <ele>21.4</ele>
    <time>2026-09-09T08:56:22Z</time>
   </trkpt>
   <trkpt lat="22.7266550" lon="120.3258160">
    <ele>21.4</ele>
    <time>2026-09-09T08:56:23Z</time>
   </trkpt>
   <trkpt lat="22.7266440" lon="120.3258000">
    <ele>21.3</ele>
    <time>2026-09-09T08:56:24Z</time>
   </trkpt>
   <trkpt lat="22.7266510" lon="120.3257990">
    <ele>21.3</ele>
    <time>2026-09-09T08:56:25Z</time>
   </trkpt>
   <trkpt lat="22.7266540" lon="120.3257860">
    <ele>21.3</ele>
    <time>2026-09-09T08:56:26Z</time>
   </trkpt>
   <trkpt lat="22.7267030" lon="120.3257560">
    <ele>21.2</ele>
    <time>2026-09-09T08:56:51Z</time>
   </trkpt>
   <trkpt lat="22.7267030" lon="120.3257570">
    <ele>21.2</ele>
    <time>2026-09-09T08:56:52Z</time>
   </trkpt>
   <trkpt lat="22.7266920" lon="120.3257600">
    <ele>21.1</ele>
    <time>2026-09-09T08:56:53Z</time>
   </trkpt>
   <trkpt lat="22.7266920" lon="120.3257600">
    <ele>21.1</ele>
    <time>2026-09-09T08:56:54Z</time>
   </trkpt>
   <trkpt lat="22.7266740" lon="120.3257580">
    <ele>21.1</ele>
    <time>2026-09-09T08:56:55Z</time>
   </trkpt>
   <trkpt lat="22.7266740" lon="120.3257580">
    <ele>21.1</ele>
    <time>2026-09-09T08:56:56Z</time>
   </trkpt>
   <trkpt lat="22.7266740" lon="120.3257580">
    <ele>21.1</ele>
    <time>2026-09-09T08:56:57Z</time>
   </trkpt>
   <trkpt lat="22.7266740" lon="120.3257580">
    <ele>21.1</ele>
    <time>2026-09-09T08:56:58Z</time>
   </trkpt>
   <trkpt lat="22.7266740" lon="120.3257580">
    <ele>21.1</ele>
    <time>2026-09-09T08:56:59Z</time>
   </trkpt>
   <trkpt lat="22.7266740" lon="120.3257580">
    <ele>21.1</ele>
    <time>2026-09-09T08:57:00Z</time>
   </trkpt>
   <trkpt lat="22.7266740" lon="120.3257580">
    <ele>21.1</ele>
    <time>2026-09-09T08:57:01Z</time>
   </trkpt>
   <trkpt lat="22.7266740" lon="120.3257580">
    <ele>21.1</ele>
    <time>2026-09-09T08:58:49Z</time>
   </trkpt>
   <trkpt lat="22.7266740" lon="120.3257580">
    <ele>21.1</ele>
    <time>2026-09-09T08:58:50Z</time>
   </trkpt>
   <trkpt lat="22.7266740" lon="120.3257580">
    <ele>21.1</ele>
    <time>2026-09-09T08:58:51Z</time>
   </trkpt>
   <trkpt lat="22.7266740" lon="120.3257580">
    <ele>21.1</ele>
    <time>2026-09-09T08:58:52Z</time>
   </trkpt>
   <trkpt lat="22.7266740" lon="120.3257580">
    <ele>21.1</ele>
    <time>2026-09-09T08:58:53Z</time>
   </trkpt>
   <trkpt lat="22.7266650" lon="120.3257420">
    <ele>21.1</ele>
    <time>2026-09-09T08:58:54Z</time>
   </trkpt>
   <trkpt lat="22.7266650" lon="120.3257420">
    <ele>21.1</ele>
    <time>2026-09-09T08:58:55Z</time>
   </trkpt>
   <trkpt lat="22.7266640" lon="120.3257420">
    <ele>21.1</ele>
    <time>2026-09-09T08:58:56Z</time>
   </trkpt>
   <trkpt lat="22.7266640" lon="120.3257410">
    <ele>21.1</ele>
    <time>2026-09-09T08:58:57Z</time>
   </trkpt>
   <trkpt lat="22.7266640" lon="120.3257410">
    <ele>21.1</ele>
    <time>2026-09-09T08:58:58Z</time>
   </trkpt>
   <trkpt lat="22.7266540" lon="120.3257230">
    <ele>21.0</ele>
    <time>2026-09-09T08:59:48Z</time>
   </trkpt>
   <trkpt lat="22.7266540" lon="120.3257230">
    <ele>21.0</ele>
    <time>2026-09-09T08:59:49Z</time>
   </trkpt>
   <trkpt lat="22.7266530" lon="120.3257220">
    <ele>21.0</ele>
    <time>2026-09-09T08:59:50Z</time>
   </trkpt>
   <trkpt lat="22.7266530" lon="120.3257220">
    <ele>21.0</ele>
    <time>2026-09-09T08:59:51Z</time>
   </trkpt>
   <trkpt lat="22.7266530" lon="120.3257220">
    <ele>21.0</ele>
    <time>2026-09-09T08:59:52Z</time>
   </trkpt>
   <trkpt lat="22.7266530" lon="120.3257210">
    <ele>21.0</ele>
    <time>2026-09-09T08:59:53Z</time>
   </trkpt>
   <trkpt lat="22.7266530" lon="120.3257210">
    <ele>21.0</ele>
    <time>2026-09-09T08:59:54Z</time>
   </trkpt>
   <trkpt lat="22.7266520" lon="120.3257210">
    <ele>21.0</ele>
    <time>2026-09-09T08:59:55Z</time>
   </trkpt>
   <trkpt lat="22.7266520" lon="120.3257200">
    <ele>21.0</ele>
    <time>2026-09-09T08:59:56Z</time>
   </trkpt>
   <trkpt lat="22.7266520" lon="120.3257200">
    <ele>21.0</ele>
    <time>2026-09-09T08:59:57Z</time>
   </trkpt>
   <trkpt lat="22.7266520" lon="120.3257200">
    <ele>21.0</ele>
    <time>2026-09-09T08:59:58Z</time>
   </trkpt>
   <trkpt lat="22.7266520" lon="120.3257200">
    <ele>21.0</ele>
    <time>2026-09-09T08:59:59Z</time>
   </trkpt>
   <trkpt lat="22.7266520" lon="120.3257200">
    <ele>21.0</ele>
    <time>2026-09-09T09:00:00Z</time>
   </trkpt>
   <trkpt lat="22.7266520" lon="120.3257200">
    <ele>21.0</ele>
    <time>2026-09-09T09:00:13Z</time>
   </trkpt>
   <trkpt lat="22.7266520" lon="120.3257200">
    <ele>21.0</ele>
    <time>2026-09-09T09:00:14Z</time>
   </trkpt>
   <trkpt lat="22.7266520" lon="120.3257200">
    <ele>21.0</ele>
    <time>2026-09-09T09:00:15Z</time>
   </trkpt>
   <trkpt lat="22.7266520" lon="120.3257200">
    <ele>21.0</ele>
    <time>2026-09-09T09:00:16Z</time>
   </trkpt>
   <trkpt lat="22.7266520" lon="120.3257200">
    <ele>21.0</ele>
    <time>2026-09-09T09:00:17Z</time>
   </trkpt>
   <trkpt lat="22.7266520" lon="120.3257200">
    <ele>21.0</ele>
    <time>2026-09-09T09:00:18Z</time>
   </trkpt>
   <trkpt lat="22.7266520" lon="120.3257200">
    <ele>21.0</ele>
    <time>2026-09-09T09:00:19Z</time>
   </trkpt>
   <trkpt lat="22.7266520" lon="120.3257200">
    <ele>21.0</ele>
    <time>2026-09-09T09:00:20Z</time>
   </trkpt>
   <trkpt lat="22.7266520" lon="120.3257200">
    <ele>21.0</ele>
    <time>2026-09-09T09:00:21Z</time>
   </trkpt>
   <trkpt lat="22.7266520" lon="120.3257200">
    <ele>21.0</ele>
    <time>2026-09-09T09:00:22Z</time>
   </trkpt>
   <trkpt lat="22.7266520" lon="120.3257200">
    <ele>21.0</ele>
    <time>2026-09-09T09:01:28Z</time>
   </trkpt>
   <trkpt lat="22.7266520" lon="120.3257200">
    <ele>21.0</ele>
    <time>2026-09-09T09:01:29Z</time>
   </trkpt>
   <trkpt lat="22.7266520" lon="120.3257200">
    <ele>21.0</ele>
    <time>2026-09-09T09:01:30Z</time>
   </trkpt>
   <trkpt lat="22.7266520" lon="120.3257200">
    <ele>21.0</ele>
    <time>2026-09-09T09:01:31Z</time>
   </trkpt>
   <trkpt lat="22.7266410" lon="120.3257010">
    <ele>21.0</ele>
    <time>2026-09-09T09:01:32Z</time>
   </trkpt>
   <trkpt lat="22.7266400" lon="120.3257000">
    <ele>21.0</ele>
    <time>2026-09-09T09:01:33Z</time>
   </trkpt>
   <trkpt lat="22.7266400" lon="120.3256990">
    <ele>21.0</ele>
    <time>2026-09-09T09:01:34Z</time>
   </trkpt>
   <trkpt lat="22.7266390" lon="120.3256980">
    <ele>21.0</ele>
    <time>2026-09-09T09:01:35Z</time>
   </trkpt>
   <trkpt lat="22.7266390" lon="120.3256970">
    <ele>21.0</ele>
    <time>2026-09-09T09:01:36Z</time>
   </trkpt>
   <trkpt lat="22.7266380" lon="120.3256960">
    <ele>21.0</ele>
    <time>2026-09-09T09:01:37Z</time>
   </trkpt>
   <trkpt lat="22.7266280" lon="120.3256780">
    <ele>20.9</ele>
    <time>2026-09-09T09:01:57Z</time>
   </trkpt>
   <trkpt lat="22.7266270" lon="120.3256770">
    <ele>20.9</ele>
    <time>2026-09-09T09:01:58Z</time>
   </trkpt>
   <trkpt lat="22.7266590" lon="120.3256990">
    <ele>20.8</ele>
    <time>2026-09-09T09:01:59Z</time>
   </trkpt>
   <trkpt lat="22.7266900" lon="120.3257210">
    <ele>20.8</ele>
    <time>2026-09-09T09:02:00Z</time>
   </trkpt>
   <trkpt lat="22.7266190" lon="120.3257010">
    <ele>20.6</ele>
    <time>2026-09-09T09:02:01Z</time>
   </trkpt>
   <trkpt lat="22.7266070" lon="120.3256930">
    <ele>20.6</ele>
    <time>2026-09-09T09:02:02Z</time>
   </trkpt>
   <trkpt lat="22.7266330" lon="120.3257220">
    <ele>20.5</ele>
    <time>2026-09-09T09:02:03Z</time>
   </trkpt>
   <trkpt lat="22.7266440" lon="120.3257970">
    <ele>20.3</ele>
    <time>2026-09-09T09:02:04Z</time>
   </trkpt>
   <trkpt lat="22.7266590" lon="120.3257900">
    <ele>20.3</ele>
    <time>2026-09-09T09:02:05Z</time>
   </trkpt>
   <trkpt lat="22.7266590" lon="120.3257740">
    <ele>20.3</ele>
    <time>2026-09-09T09:02:06Z</time>
   </trkpt>
   <trkpt lat="22.7266730" lon="120.3257590">
    <ele>20.2</ele>
    <time>2026-09-09T09:02:07Z</time>
   </trkpt>
   <trkpt lat="22.7266720" lon="120.3257700">
    <ele>20.2</ele>
    <time>2026-09-09T09:02:08Z</time>
   </trkpt>
   <trkpt lat="22.7266680" lon="120.3257730">
    <ele>20.2</ele>
    <time>2026-09-09T09:02:09Z</time>
   </trkpt>
   <trkpt lat="22.7266860" lon="120.3257960">
    <ele>20.1</ele>
    <time>2026-09-09T09:02:10Z</time>
   </trkpt>
   <trkpt lat="22.7267050" lon="120.3258200">
    <ele>20.1</ele>
    <time>2026-09-09T09:02:11Z</time>
   </trkpt>
   <trkpt lat="22.7266960" lon="120.3258240">
    <ele>20.0</ele>
    <time>2026-09-09T09:02:12Z</time>
   </trkpt>
   <trkpt lat="22.7266920" lon="120.3258150">
    <ele>20.0</ele>
    <time>2026-09-09T09:02:13Z</time>
   </trkpt>
   <trkpt lat="22.7266870" lon="120.3258230">
    <ele>20.0</ele>
    <time>2026-09-09T09:02:14Z</time>
   </trkpt>
   <trkpt lat="22.7266920" lon="120.3258260">
    <ele>20.0</ele>
    <time>2026-09-09T09:02:15Z</time>
   </trkpt>
   <trkpt lat="22.7266960" lon="120.3258220">
    <ele>20.0</ele>
    <time>2026-09-09T09:02:16Z</time>
   </trkpt>
   <trkpt lat="22.7266990" lon="120.3258220">
    <ele>20.0</ele>
    <time>2026-09-09T09:02:17Z</time>
   </trkpt>
   <trkpt lat="22.7266980" lon="120.3258140">
    <ele>20.0</ele>
    <time>2026-09-09T09:02:18Z</time>
   </trkpt>
   <trkpt lat="22.7267000" lon="120.3258220">
    <ele>19.9</ele>
    <time>2026-09-09T09:02:19Z</time>
   </trkpt>
   <trkpt lat="22.7267040" lon="120.3258280">
    <ele>19.9</ele>
    <time>2026-09-09T09:02:20Z</time>
   </trkpt>
   <trkpt lat="22.7267040" lon="120.3258270">
    <ele>19.9</ele>
    <time>2026-09-09T09:02:21Z</time>
   </trkpt>
   <trkpt lat="22.7267030" lon="120.3258180">
    <ele>19.9</ele>
    <time>2026-09-09T09:02:22Z</time>
   </trkpt>
   <trkpt lat="22.7267030" lon="120.3258170">
    <ele>19.9</ele>
    <time>2026-09-09T09:02:23Z</time>
   </trkpt>
   <trkpt lat="22.7267030" lon="120.3258170">
    <ele>19.9</ele>
    <time>2026-09-09T09:02:24Z</time>
   </trkpt>
   <trkpt lat="22.7266820" lon="120.3256190">
    <ele>19.5</ele>
    <time>2026-09-09T09:03:20Z</time>
   </trkpt>
   <trkpt lat="22.7266850" lon="120.3255870">
    <ele>19.5</ele>
    <time>2026-09-09T09:03:21Z</time>
   </trkpt>
   <trkpt lat="22.7266910" lon="120.3255710">
    <ele>19.4</ele>
    <time>2026-09-09T09:03:22Z</time>
   </trkpt>
   <trkpt lat="22.7266950" lon="120.3255500">
    <ele>19.4</ele>
    <time>2026-09-09T09:03:23Z</time>
   </trkpt>
   <trkpt lat="22.7267040" lon="120.3255640">
    <ele>19.4</ele>
    <time>2026-09-09T09:03:24Z</time>
   </trkpt>
   <trkpt lat="22.7267160" lon="120.3255350">
    <ele>19.3</ele>
    <time>2026-09-09T09:03:25Z</time>
   </trkpt>
   <trkpt lat="22.7267310" lon="120.3254790">
    <ele>19.2</ele>
    <time>2026-09-09T09:03:26Z</time>
   </trkpt>
   <trkpt lat="22.7266940" lon="120.3254220">
    <ele>19.1</ele>
    <time>2026-09-09T09:03:27Z</time>
   </trkpt>
   <trkpt lat="22.7266780" lon="120.3253680">
    <ele>19.0</ele>
    <time>2026-09-09T09:03:28Z</time>
   </trkpt>
   <trkpt lat="22.7266710" lon="120.3253120">
    <ele>18.9</ele>
    <time>2026-09-09T09:03:29Z</time>
   </trkpt>
   <trkpt lat="22.7266770" lon="120.3252740">
    <ele>18.8</ele>
    <time>2026-09-09T09:03:30Z</time>
   </trkpt>
   <trkpt lat="22.7266660" lon="120.3252380">
    <ele>18.8</ele>
    <time>2026-09-09T09:03:31Z</time>
   </trkpt>
   <trkpt lat="22.7266800" lon="120.3251950">
    <ele>18.7</ele>
    <time>2026-09-09T09:03:32Z</time>
   </trkpt>
   <trkpt lat="22.7266870" lon="120.3251610">
    <ele>18.6</ele>
    <time>2026-09-09T09:03:33Z</time>
   </trkpt>
   <trkpt lat="22.7267090" lon="120.3251150">
    <ele>18.6</ele>
    <time>2026-09-09T09:03:34Z</time>
   </trkpt>
   <trkpt lat="22.7267460" lon="120.3250850">
    <ele>18.5</ele>
    <time>2026-09-09T09:03:35Z</time>
   </trkpt>
   <trkpt lat="22.7267780" lon="120.3250960">
    <ele>18.3</ele>
    <time>2026-09-09T09:03:36Z</time>
   </trkpt>
   <trkpt lat="22.7267990" lon="120.3251020">
    <ele>18.3</ele>
    <time>2026-09-09T09:03:37Z</time>
   </trkpt>
   <trkpt lat="22.7268100" lon="120.3250990">
    <ele>18.3</ele>
    <time>2026-09-09T09:03:38Z</time>
   </trkpt>
   <trkpt lat="22.7268070" lon="120.3250940">
    <ele>18.3</ele>
    <time>2026-09-09T09:03:39Z</time>
   </trkpt>
   <trkpt lat="22.7268060" lon="120.3250990">
    <ele>18.3</ele>
    <time>2026-09-09T09:03:40Z</time>
   </trkpt>
   <trkpt lat="22.7268100" lon="120.3251010">
    <ele>18.3</ele>
    <time>2026-09-09T09:03:41Z</time>
   </trkpt>
   <trkpt lat="22.7268150" lon="120.3250950">
    <ele>18.3</ele>
    <time>2026-09-09T09:03:42Z</time>
   </trkpt>
   <trkpt lat="22.7268150" lon="120.3250950">
    <ele>18.3</ele>
    <time>2026-09-09T09:03:43Z</time>
   </trkpt>
   <trkpt lat="22.7268150" lon="120.3250950">
    <ele>18.3</ele>
    <time>2026-09-09T09:03:44Z</time>
   </trkpt>
   <trkpt lat="22.7268150" lon="120.3250950">
    <ele>18.3</ele>
    <time>2026-09-09T09:03:45Z</time>
   </trkpt>
   <trkpt lat="22.7268150" lon="120.3250950">
    <ele>18.3</ele>
    <time>2026-09-09T09:03:46Z</time>
   </trkpt>
   <trkpt lat="22.7268150" lon="120.3250950">
    <ele>18.3</ele>
    <time>2026-09-09T09:03:47Z</time>
   </trkpt>
   <trkpt lat="22.7269310" lon="120.3250980">
    <ele>18.3</ele>
    <time>2026-09-09T09:04:18Z</time>
   </trkpt>
   <trkpt lat="22.7269500" lon="120.3251260">
    <ele>18.3</ele>
    <time>2026-09-09T09:04:19Z</time>
   </trkpt>
   <trkpt lat="22.7269820" lon="120.3251540">
    <ele>18.3</ele>
    <time>2026-09-09T09:04:20Z</time>
   </trkpt>
   <trkpt lat="22.7270090" lon="120.3251880">
    <ele>18.2</ele>
    <time>2026-09-09T09:04:21Z</time>
   </trkpt>
   <trkpt lat="22.7270320" lon="120.3252370">
    <ele>18.2</ele>
    <time>2026-09-09T09:04:22Z</time>
   </trkpt>
   <trkpt lat="22.7270420" lon="120.3252960">
    <ele>18.1</ele>
    <time>2026-09-09T09:04:23Z</time>
   </trkpt>
   <trkpt lat="22.7270410" lon="120.3253600">
    <ele>18.0</ele>
    <time>2026-09-09T09:04:24Z</time>
   </trkpt>
   <trkpt lat="22.7270330" lon="120.3254350">
    <ele>18.0</ele>
    <time>2026-09-09T09:04:25Z</time>
   </trkpt>
   <trkpt lat="22.7270340" lon="120.3255060">
    <ele>17.9</ele>
    <time>2026-09-09T09:04:27Z</time>
   </trkpt>
   <trkpt lat="22.7270300" lon="120.3255660">
    <ele>17.9</ele>
    <time>2026-09-09T09:04:28Z</time>
   </trkpt>
   <trkpt lat="22.7270170" lon="120.3256540">
    <ele>17.8</ele>
    <time>2026-09-09T09:04:29Z</time>
   </trkpt>
   <trkpt lat="22.7270240" lon="120.3257240">
    <ele>17.8</ele>
    <time>2026-09-09T09:04:30Z</time>
   </trkpt>
   <trkpt lat="22.7270030" lon="120.3257970">
    <ele>17.8</ele>
    <time>2026-09-09T09:04:31Z</time>
   </trkpt>
   <trkpt lat="22.7269990" lon="120.3258600">
    <ele>17.8</ele>
    <time>2026-09-09T09:04:32Z</time>
   </trkpt>
   <trkpt lat="22.7269900" lon="120.3259100">
    <ele>17.8</ele>
    <time>2026-09-09T09:04:33Z</time>
   </trkpt>
   <trkpt lat="22.7269770" lon="120.3259630">
    <ele>17.8</ele>
    <time>2026-09-09T09:04:34Z</time>
   </trkpt>
   <trkpt lat="22.7269660" lon="120.3260170">
    <ele>17.9</ele>
    <time>2026-09-09T09:04:35Z</time>
   </trkpt>
   <trkpt lat="22.7269740" lon="120.3260980">
    <ele>17.9</ele>
    <time>2026-09-09T09:04:36Z</time>
   </trkpt>
   <trkpt lat="22.7269570" lon="120.3261350">
    <ele>17.9</ele>
    <time>2026-09-09T09:04:37Z</time>
   </trkpt>
   <trkpt lat="22.7269890" lon="120.3262150">
    <ele>17.9</ele>
    <time>2026-09-09T09:04:38Z</time>
   </trkpt>
   <trkpt lat="22.7269710" lon="120.3262820">
    <ele>17.9</ele>
    <time>2026-09-09T09:04:39Z</time>
   </trkpt>
   <trkpt lat="22.7269510" lon="120.3263490">
    <ele>17.9</ele>
    <time>2026-09-09T09:04:40Z</time>
   </trkpt>
   <trkpt lat="22.7269530" lon="120.3264030">
    <ele>17.9</ele>
    <time>2026-09-09T09:04:41Z</time>
   </trkpt>
   <trkpt lat="22.7269490" lon="120.3264620">
    <ele>17.9</ele>
    <time>2026-09-09T09:04:42Z</time>
   </trkpt>
   <trkpt lat="22.7269470" lon="120.3265280">
    <ele>17.9</ele>
    <time>2026-09-09T09:04:43Z</time>
   </trkpt>
   <trkpt lat="22.7269400" lon="120.3265770">
    <ele>17.9</ele>
    <time>2026-09-09T09:04:44Z</time>
   </trkpt>
   <trkpt lat="22.7269330" lon="120.3266310">
    <ele>17.9</ele>
    <time>2026-09-09T09:04:45Z</time>
   </trkpt>
   <trkpt lat="22.7269170" lon="120.3266890">
    <ele>17.9</ele>
    <time>2026-09-09T09:04:46Z</time>
   </trkpt>
   <trkpt lat="22.7269090" lon="120.3267340">
    <ele>17.9</ele>
    <time>2026-09-09T09:04:47Z</time>
   </trkpt>
   <trkpt lat="22.7269220" lon="120.3267790">
    <ele>17.9</ele>
    <time>2026-09-09T09:04:48Z</time>
   </trkpt>
   <trkpt lat="22.7269200" lon="120.3268080">
    <ele>18.0</ele>
    <time>2026-09-09T09:04:49Z</time>
   </trkpt>
   <trkpt lat="22.7269190" lon="120.3268360">
    <ele>18.0</ele>
    <time>2026-09-09T09:04:50Z</time>
   </trkpt>
   <trkpt lat="22.7269130" lon="120.3268700">
    <ele>18.0</ele>
    <time>2026-09-09T09:04:51Z</time>
   </trkpt>
   <trkpt lat="22.7269120" lon="120.3268890">
    <ele>18.0</ele>
    <time>2026-09-09T09:04:52Z</time>
   </trkpt>
   <trkpt lat="22.7268990" lon="120.3269010">
    <ele>18.0</ele>
    <time>2026-09-09T09:04:53Z</time>
   </trkpt>
   <trkpt lat="22.7269090" lon="120.3269170">
    <ele>18.0</ele>
    <time>2026-09-09T09:04:54Z</time>
   </trkpt>
   <trkpt lat="22.7269130" lon="120.3269460">
    <ele>18.0</ele>
    <time>2026-09-09T09:04:55Z</time>
   </trkpt>
   <trkpt lat="22.7269080" lon="120.3269480">
    <ele>18.0</ele>
    <time>2026-09-09T09:04:56Z</time>
   </trkpt>
   <trkpt lat="22.7269040" lon="120.3269540">
    <ele>18.0</ele>
    <time>2026-09-09T09:04:57Z</time>
   </trkpt>
   <trkpt lat="22.7269050" lon="120.3269600">
    <ele>18.0</ele>
    <time>2026-09-09T09:04:58Z</time>
   </trkpt>
   <trkpt lat="22.7269070" lon="120.3269570">
    <ele>18.0</ele>
    <time>2026-09-09T09:04:59Z</time>
   </trkpt>
   <trkpt lat="22.7269030" lon="120.3269610">
    <ele>18.0</ele>
    <time>2026-09-09T09:05:00Z</time>
   </trkpt>
   <trkpt lat="22.7269030" lon="120.3269610">
    <ele>18.0</ele>
    <time>2026-09-09T09:05:01Z</time>
   </trkpt>
   <trkpt lat="22.7269030" lon="120.3269610">
    <ele>18.0</ele>
    <time>2026-09-09T09:05:02Z</time>
   </trkpt>
   <trkpt lat="22.7269030" lon="120.3269610">
    <ele>18.0</ele>
    <time>2026-09-09T09:05:03Z</time>
   </trkpt>
   <trkpt lat="22.7269030" lon="120.3269610">
    <ele>18.0</ele>
    <time>2026-09-09T09:05:04Z</time>
   </trkpt>
   <trkpt lat="22.7269030" lon="120.3269610">
    <ele>18.0</ele>
    <time>2026-09-09T09:05:05Z</time>
   </trkpt>
   <trkpt lat="22.7269050" lon="120.3270290">
    <ele>18.1</ele>
    <time>2026-09-09T09:05:14Z</time>
   </trkpt>
   <trkpt lat="22.7268800" lon="120.3270510">
    <ele>18.4</ele>
    <time>2026-09-09T09:05:15Z</time>
   </trkpt>
   <trkpt lat="22.7268590" lon="120.3270520">
    <ele>18.8</ele>
    <time>2026-09-09T09:05:16Z</time>
   </trkpt>
   <trkpt lat="22.7268390" lon="120.3270480">
    <ele>19.0</ele>
    <time>2026-09-09T09:05:17Z</time>
   </trkpt>
   <trkpt lat="22.7268160" lon="120.3270450">
    <ele>19.2</ele>
    <time>2026-09-09T09:05:18Z</time>
   </trkpt>
   <trkpt lat="22.7267820" lon="120.3270390">
    <ele>19.4</ele>
    <time>2026-09-09T09:05:19Z</time>
   </trkpt>
   <trkpt lat="22.7267590" lon="120.3270220">
    <ele>19.6</ele>
    <time>2026-09-09T09:05:20Z</time>
   </trkpt>
   <trkpt lat="22.7267230" lon="120.3269930">
    <ele>19.9</ele>
    <time>2026-09-09T09:05:21Z</time>
   </trkpt>
   <trkpt lat="22.7265930" lon="120.3269590">
    <ele>20.9</ele>
    <time>2026-09-09T09:05:22Z</time>
   </trkpt>
   <trkpt lat="22.7265270" lon="120.3269340">
    <ele>21.4</ele>
    <time>2026-09-09T09:05:23Z</time>
   </trkpt>
   <trkpt lat="22.7264760" lon="120.3269190">
    <ele>21.8</ele>
    <time>2026-09-09T09:05:24Z</time>
   </trkpt>
   <trkpt lat="22.7264560" lon="120.3268380">
    <ele>22.5</ele>
    <time>2026-09-09T09:05:25Z</time>
   </trkpt>
   <trkpt lat="22.7264310" lon="120.3268040">
    <ele>22.9</ele>
    <time>2026-09-09T09:05:26Z</time>
   </trkpt>
   <trkpt lat="22.7264170" lon="120.3267730">
    <ele>23.1</ele>
    <time>2026-09-09T09:05:27Z</time>
   </trkpt>
   <trkpt lat="22.7263800" lon="120.3267440">
    <ele>23.3</ele>
    <time>2026-09-09T09:05:28Z</time>
   </trkpt>
   <trkpt lat="22.7263040" lon="120.3267020">
    <ele>23.6</ele>
    <time>2026-09-09T09:05:29Z</time>
   </trkpt>
   <trkpt lat="22.7262550" lon="120.3266840">
    <ele>23.7</ele>
    <time>2026-09-09T09:05:30Z</time>
   </trkpt>
   <trkpt lat="22.7262110" lon="120.3266630">
    <ele>23.9</ele>
    <time>2026-09-09T09:05:31Z</time>
   </trkpt>
   <trkpt lat="22.7261650" lon="120.3266300">
    <ele>24.1</ele>
    <time>2026-09-09T09:05:32Z</time>
   </trkpt>
   <trkpt lat="22.7261230" lon="120.3266020">
    <ele>24.2</ele>
    <time>2026-09-09T09:05:33Z</time>
   </trkpt>
   <trkpt lat="22.7260790" lon="120.3265540">
    <ele>24.4</ele>
    <time>2026-09-09T09:05:34Z</time>
   </trkpt>
   <trkpt lat="22.7260280" lon="120.3265170">
    <ele>24.5</ele>
    <time>2026-09-09T09:05:35Z</time>
   </trkpt>
   <trkpt lat="22.7259750" lon="120.3264820">
    <ele>24.6</ele>
    <time>2026-09-09T09:05:36Z</time>
   </trkpt>
   <trkpt lat="22.7259190" lon="120.3264590">
    <ele>24.7</ele>
    <time>2026-09-09T09:05:37Z</time>
   </trkpt>
   <trkpt lat="22.7258660" lon="120.3264410">
    <ele>24.8</ele>
    <time>2026-09-09T09:05:38Z</time>
   </trkpt>
   <trkpt lat="22.7258100" lon="120.3263880">
    <ele>24.9</ele>
    <time>2026-09-09T09:05:39Z</time>
   </trkpt>
   <trkpt lat="22.7257700" lon="120.3263590">
    <ele>24.9</ele>
    <time>2026-09-09T09:05:40Z</time>
   </trkpt>
   <trkpt lat="22.7257270" lon="120.3263200">
    <ele>24.9</ele>
    <time>2026-09-09T09:05:41Z</time>
   </trkpt>
   <trkpt lat="22.7256770" lon="120.3262750">
    <ele>24.9</ele>
    <time>2026-09-09T09:05:42Z</time>
   </trkpt>
   <trkpt lat="22.7256200" lon="120.3262360">
    <ele>24.9</ele>
    <time>2026-09-09T09:05:43Z</time>
   </trkpt>
   <trkpt lat="22.7255690" lon="120.3262080">
    <ele>24.4</ele>
    <time>2026-09-09T09:05:44Z</time>
   </trkpt>
   <trkpt lat="22.7255210" lon="120.3261760">
    <ele>23.9</ele>
    <time>2026-09-09T09:05:45Z</time>
   </trkpt>
   <trkpt lat="22.7254740" lon="120.3261480">
    <ele>23.5</ele>
    <time>2026-09-09T09:05:46Z</time>
   </trkpt>
   <trkpt lat="22.7254330" lon="120.3261180">
    <ele>23.1</ele>
    <time>2026-09-09T09:05:47Z</time>
   </trkpt>
   <trkpt lat="22.7254020" lon="120.3260940">
    <ele>22.8</ele>
    <time>2026-09-09T09:05:48Z</time>
   </trkpt>
   <trkpt lat="22.7253810" lon="120.3260740">
    <ele>22.5</ele>
    <time>2026-09-09T09:05:49Z</time>
   </trkpt>
   <trkpt lat="22.7253750" lon="120.3260340">
    <ele>22.1</ele>
    <time>2026-09-09T09:05:50Z</time>
   </trkpt>
   <trkpt lat="22.7253820" lon="120.3260000">
    <ele>21.8</ele>
    <time>2026-09-09T09:05:51Z</time>
   </trkpt>
   <trkpt lat="22.7254080" lon="120.3259620">
    <ele>21.7</ele>
    <time>2026-09-09T09:05:52Z</time>
   </trkpt>
   <trkpt lat="22.7254390" lon="120.3259140">
    <ele>21.6</ele>
    <time>2026-09-09T09:05:53Z</time>
   </trkpt>
   <trkpt lat="22.7254590" lon="120.3258530">
    <ele>21.5</ele>
    <time>2026-09-09T09:05:54Z</time>
   </trkpt>
   <trkpt lat="22.7254880" lon="120.3257890">
    <ele>21.4</ele>
    <time>2026-09-09T09:05:55Z</time>
   </trkpt>
   <trkpt lat="22.7255240" lon="120.3257200">
    <ele>21.2</ele>
    <time>2026-09-09T09:05:56Z</time>
   </trkpt>
   <trkpt lat="22.7255650" lon="120.3256570">
    <ele>21.0</ele>
    <time>2026-09-09T09:05:57Z</time>
   </trkpt>
   <trkpt lat="22.7256090" lon="120.3255890">
    <ele>20.7</ele>
    <time>2026-09-09T09:05:58Z</time>
   </trkpt>
   <trkpt lat="22.7256510" lon="120.3255190">
    <ele>20.5</ele>
    <time>2026-09-09T09:05:59Z</time>
   </trkpt>
   <trkpt lat="22.7256860" lon="120.3254420">
    <ele>20.2</ele>
    <time>2026-09-09T09:06:00Z</time>
   </trkpt>
   <trkpt lat="22.7257210" lon="120.3253800">
    <ele>19.9</ele>
    <time>2026-09-09T09:06:01Z</time>
   </trkpt>
   <trkpt lat="22.7257750" lon="120.3253180">
    <ele>19.6</ele>
    <time>2026-09-09T09:06:02Z</time>
   </trkpt>
   <trkpt lat="22.7258040" lon="120.3252750">
    <ele>19.4</ele>
    <time>2026-09-09T09:06:03Z</time>
   </trkpt>
   <trkpt lat="22.7258480" lon="120.3252260">
    <ele>19.2</ele>
    <time>2026-09-09T09:06:04Z</time>
   </trkpt>
   <trkpt lat="22.7258270" lon="120.3251790">
    <ele>19.3</ele>
    <time>2026-09-09T09:06:05Z</time>
   </trkpt>
   <trkpt lat="22.7257760" lon="120.3251450">
    <ele>19.4</ele>
    <time>2026-09-09T09:06:06Z</time>
   </trkpt>
   <trkpt lat="22.7257400" lon="120.3251310">
    <ele>19.5</ele>
    <time>2026-09-09T09:06:07Z</time>
   </trkpt>
   <trkpt lat="22.7257090" lon="120.3251160">
    <ele>19.6</ele>
    <time>2026-09-09T09:06:08Z</time>
   </trkpt>
   <trkpt lat="22.7256850" lon="120.3250860">
    <ele>19.6</ele>
    <time>2026-09-09T09:06:09Z</time>
   </trkpt>
   <trkpt lat="22.7256520" lon="120.3250730">
    <ele>19.7</ele>
    <time>2026-09-09T09:06:10Z</time>
   </trkpt>
   <trkpt lat="22.7256090" lon="120.3250510">
    <ele>19.8</ele>
    <time>2026-09-09T09:06:11Z</time>
   </trkpt>
   <trkpt lat="22.7255570" lon="120.3250300">
    <ele>20.0</ele>
    <time>2026-09-09T09:06:12Z</time>
   </trkpt>
   <trkpt lat="22.7255080" lon="120.3250120">
    <ele>20.1</ele>
    <time>2026-09-09T09:06:13Z</time>
   </trkpt>
   <trkpt lat="22.7254520" lon="120.3249930">
    <ele>20.3</ele>
    <time>2026-09-09T09:06:14Z</time>
   </trkpt>
   <trkpt lat="22.7253980" lon="120.3249810">
    <ele>20.4</ele>
    <time>2026-09-09T09:06:15Z</time>
   </trkpt>
   <trkpt lat="22.7253500" lon="120.3249360">
    <ele>20.6</ele>
    <time>2026-09-09T09:06:16Z</time>
   </trkpt>
   <trkpt lat="22.7252960" lon="120.3249010">
    <ele>20.8</ele>
    <time>2026-09-09T09:06:17Z</time>
   </trkpt>
   <trkpt lat="22.7252380" lon="120.3248500">
    <ele>20.5</ele>
    <time>2026-09-09T09:06:18Z</time>
   </trkpt>
   <trkpt lat="22.7251950" lon="120.3247990">
    <ele>20.0</ele>
    <time>2026-09-09T09:06:19Z</time>
   </trkpt>
   <trkpt lat="22.7251490" lon="120.3247470">
    <ele>19.5</ele>
    <time>2026-09-09T09:06:20Z</time>
   </trkpt>
   <trkpt lat="22.7251020" lon="120.3247150">
    <ele>19.1</ele>
    <time>2026-09-09T09:06:21Z</time>
   </trkpt>
   <trkpt lat="22.7250890" lon="120.3246620">
    <ele>18.7</ele>
    <time>2026-09-09T09:06:22Z</time>
   </trkpt>
   <trkpt lat="22.7250680" lon="120.3246380">
    <ele>18.5</ele>
    <time>2026-09-09T09:06:23Z</time>
   </trkpt>
   <trkpt lat="22.7250700" lon="120.3246000">
    <ele>18.1</ele>
    <time>2026-09-09T09:06:24Z</time>
   </trkpt>
   <trkpt lat="22.7250850" lon="120.3246030">
    <ele>18.1</ele>
    <time>2026-09-09T09:06:25Z</time>
   </trkpt>
   <trkpt lat="22.7250890" lon="120.3246180">
    <ele>18.1</ele>
    <time>2026-09-09T09:06:26Z</time>
   </trkpt>
   <trkpt lat="22.7250860" lon="120.3246120">
    <ele>18.1</ele>
    <time>2026-09-09T09:06:27Z</time>
   </trkpt>
   <trkpt lat="22.7250810" lon="120.3245870">
    <ele>18.1</ele>
    <time>2026-09-09T09:06:28Z</time>
   </trkpt>
   <trkpt lat="22.7250880" lon="120.3245540">
    <ele>18.1</ele>
    <time>2026-09-09T09:06:29Z</time>
   </trkpt>
   <trkpt lat="22.7251060" lon="120.3245110">
    <ele>18.1</ele>
    <time>2026-09-09T09:06:30Z</time>
   </trkpt>
   <trkpt lat="22.7251270" lon="120.3244480">
    <ele>18.2</ele>
    <time>2026-09-09T09:06:31Z</time>
   </trkpt>
   <trkpt lat="22.7251510" lon="120.3243990">
    <ele>18.2</ele>
    <time>2026-09-09T09:06:32Z</time>
   </trkpt>
   <trkpt lat="22.7251770" lon="120.3243660">
    <ele>18.3</ele>
    <time>2026-09-09T09:06:33Z</time>
   </trkpt>
   <trkpt lat="22.7251990" lon="120.3243370">
    <ele>18.3</ele>
    <time>2026-09-09T09:06:34Z</time>
   </trkpt>
   <trkpt lat="22.7252120" lon="120.3243260">
    <ele>18.3</ele>
    <time>2026-09-09T09:06:35Z</time>
   </trkpt>
   <trkpt lat="22.7252130" lon="120.3243190">
    <ele>18.3</ele>
    <time>2026-09-09T09:06:36Z</time>
   </trkpt>
   <trkpt lat="22.7252130" lon="120.3243200">
    <ele>18.3</ele>
    <time>2026-09-09T09:06:37Z</time>
   </trkpt>
   <trkpt lat="22.7252130" lon="120.3243240">
    <ele>18.3</ele>
    <time>2026-09-09T09:06:38Z</time>
   </trkpt>
   <trkpt lat="22.7252130" lon="120.3243240">
    <ele>18.3</ele>
    <time>2026-09-09T09:06:39Z</time>
   </trkpt>
   <trkpt lat="22.7252130" lon="120.3243240">
    <ele>18.3</ele>
    <time>2026-09-09T09:06:40Z</time>
   </trkpt>
   <trkpt lat="22.7252130" lon="120.3243240">
    <ele>18.3</ele>
    <time>2026-09-09T09:06:41Z</time>
   </trkpt>
   <trkpt lat="22.7252130" lon="120.3243240">
    <ele>18.3</ele>
    <time>2026-09-09T09:06:42Z</time>
   </trkpt>
   <trkpt lat="22.7252130" lon="120.3243240">
    <ele>18.3</ele>
    <time>2026-09-09T09:06:43Z</time>
   </trkpt>
   <trkpt lat="22.7252110" lon="120.3243270">
    <ele>18.3</ele>
    <time>2026-09-09T09:06:44Z</time>
   </trkpt>
   <trkpt lat="22.7252110" lon="120.3243280">
    <ele>18.3</ele>
    <time>2026-09-09T09:06:45Z</time>
   </trkpt>
   <trkpt lat="22.7252110" lon="120.3243280">
    <ele>18.3</ele>
    <time>2026-09-09T09:06:46Z</time>
   </trkpt>
   <trkpt lat="22.7251990" lon="120.3242700">
    <ele>18.0</ele>
    <time>2026-09-09T09:06:53Z</time>
   </trkpt>
   <trkpt lat="22.7251660" lon="120.3242470">
    <ele>17.9</ele>
    <time>2026-09-09T09:06:54Z</time>
   </trkpt>
   <trkpt lat="22.7251190" lon="120.3242340">
    <ele>17.8</ele>
    <time>2026-09-09T09:06:55Z</time>
   </trkpt>
   <trkpt lat="22.7250640" lon="120.3242220">
    <ele>17.7</ele>
    <time>2026-09-09T09:06:56Z</time>
   </trkpt>
   <trkpt lat="22.7250140" lon="120.3242060">
    <ele>17.6</ele>
    <time>2026-09-09T09:06:57Z</time>
   </trkpt>
   <trkpt lat="22.7249610" lon="120.3241980">
    <ele>17.5</ele>
    <time>2026-09-09T09:06:58Z</time>
   </trkpt>
   <trkpt lat="22.7249020" lon="120.3241880">
    <ele>17.4</ele>
    <time>2026-09-09T09:06:59Z</time>
   </trkpt>
   <trkpt lat="22.7248440" lon="120.3241850">
    <ele>17.3</ele>
    <time>2026-09-09T09:07:00Z</time>
   </trkpt>
   <trkpt lat="22.7247940" lon="120.3241860">
    <ele>17.2</ele>
    <time>2026-09-09T09:07:01Z</time>
   </trkpt>
   <trkpt lat="22.7247380" lon="120.3241730">
    <ele>17.1</ele>
    <time>2026-09-09T09:07:02Z</time>
   </trkpt>
   <trkpt lat="22.7246870" lon="120.3241760">
    <ele>17.0</ele>
    <time>2026-09-09T09:07:03Z</time>
   </trkpt>
   <trkpt lat="22.7246450" lon="120.3241840">
    <ele>17.0</ele>
    <time>2026-09-09T09:07:04Z</time>
   </trkpt>
   <trkpt lat="22.7246100" lon="120.3241870">
    <ele>16.9</ele>
    <time>2026-09-09T09:07:05Z</time>
   </trkpt>
   <trkpt lat="22.7245660" lon="120.3241910">
    <ele>16.8</ele>
    <time>2026-09-09T09:07:06Z</time>
   </trkpt>
   <trkpt lat="22.7245200" lon="120.3241810">
    <ele>16.7</ele>
    <time>2026-09-09T09:07:07Z</time>
   </trkpt>
   <trkpt lat="22.7244820" lon="120.3241800">
    <ele>16.7</ele>
    <time>2026-09-09T09:07:08Z</time>
   </trkpt>
   <trkpt lat="22.7244420" lon="120.3241860">
    <ele>16.6</ele>
    <time>2026-09-09T09:07:09Z</time>
   </trkpt>
   <trkpt lat="22.7243990" lon="120.3241910">
    <ele>16.5</ele>
    <time>2026-09-09T09:07:10Z</time>
   </trkpt>
   <trkpt lat="22.7243810" lon="120.3242050">
    <ele>16.5</ele>
    <time>2026-09-09T09:07:11Z</time>
   </trkpt>
   <trkpt lat="22.7243560" lon="120.3242450">
    <ele>16.4</ele>
    <time>2026-09-09T09:07:12Z</time>
   </trkpt>
   <trkpt lat="22.7243340" lon="120.3242830">
    <ele>16.3</ele>
    <time>2026-09-09T09:07:13Z</time>
   </trkpt>
   <trkpt lat="22.7243260" lon="120.3243180">
    <ele>16.3</ele>
    <time>2026-09-09T09:07:14Z</time>
   </trkpt>
   <trkpt lat="22.7243150" lon="120.3243450">
    <ele>16.2</ele>
    <time>2026-09-09T09:07:15Z</time>
   </trkpt>
   <trkpt lat="22.7243100" lon="120.3243700">
    <ele>16.2</ele>
    <time>2026-09-09T09:07:16Z</time>
   </trkpt>
   <trkpt lat="22.7242820" lon="120.3244010">
    <ele>16.1</ele>
    <time>2026-09-09T09:07:17Z</time>
   </trkpt>
   <trkpt lat="22.7242670" lon="120.3244160">
    <ele>16.1</ele>
    <time>2026-09-09T09:07:18Z</time>
   </trkpt>
   <trkpt lat="22.7242590" lon="120.3244510">
    <ele>16.0</ele>
    <time>2026-09-09T09:07:19Z</time>
   </trkpt>
   <trkpt lat="22.7242420" lon="120.3244670">
    <ele>16.0</ele>
    <time>2026-09-09T09:07:20Z</time>
   </trkpt>
   <trkpt lat="22.7242210" lon="120.3244930">
    <ele>15.9</ele>
    <time>2026-09-09T09:07:21Z</time>
   </trkpt>
   <trkpt lat="22.7242090" lon="120.3245140">
    <ele>15.9</ele>
    <time>2026-09-09T09:07:22Z</time>
   </trkpt>
   <trkpt lat="22.7242000" lon="120.3245310">
    <ele>15.8</ele>
    <time>2026-09-09T09:07:23Z</time>
   </trkpt>
   <trkpt lat="22.7241700" lon="120.3245100">
    <ele>15.8</ele>
    <time>2026-09-09T09:07:24Z</time>
   </trkpt>
   <trkpt lat="22.7241630" lon="120.3245080">
    <ele>15.8</ele>
    <time>2026-09-09T09:07:25Z</time>
   </trkpt>
   <trkpt lat="22.7241620" lon="120.3245100">
    <ele>15.8</ele>
    <time>2026-09-09T09:07:26Z</time>
   </trkpt>
   <trkpt lat="22.7241600" lon="120.3245130">
    <ele>15.8</ele>
    <time>2026-09-09T09:07:27Z</time>
   </trkpt>
   <trkpt lat="22.7241540" lon="120.3245170">
    <ele>15.7</ele>
    <time>2026-09-09T09:07:28Z</time>
   </trkpt>
   <trkpt lat="22.7241590" lon="120.3245150">
    <ele>15.7</ele>
    <time>2026-09-09T09:07:29Z</time>
   </trkpt>
   <trkpt lat="22.7241550" lon="120.3245160">
    <ele>15.7</ele>
    <time>2026-09-09T09:07:30Z</time>
   </trkpt>
   <trkpt lat="22.7241550" lon="120.3245110">
    <ele>15.7</ele>
    <time>2026-09-09T09:07:31Z</time>
   </trkpt>
   <trkpt lat="22.7241520" lon="120.3245040">
    <ele>15.7</ele>
    <time>2026-09-09T09:07:32Z</time>
   </trkpt>
   <trkpt lat="22.7241530" lon="120.3245030">
    <ele>15.7</ele>
    <time>2026-09-09T09:07:33Z</time>
   </trkpt>
  </trkseg>
 </trk>
</gpx>
