<?xml version="1.0" encoding="UTF-8"?>
<gpx creator="StravaGPX" version="1.1" xmlns="http://www.topografix.com/GPX/1/1" xmlns:xsi="http://www.w3.org/2001/XMLSchema-instance" xsi:schemaLocation="http://www.topografix.com/GPX/1/1 http://www.topografix.com/GPX/1/1/gpx.xsd">
 <metadata>
  <time>2026-09-13T12:47:33Z</time>
 </metadata>
 <trk>
  <name>傍晚電動自行車騎乘</name>
  <type>ebikeride</type>
  <trkseg>
   <trkpt lat="22.7297170" lon="120.3309710">
    <ele>20.9</ele>
    <time>2026-09-13T12:47:33Z</time>
   </trkpt>
   <trkpt lat="22.7296350" lon="120.3309190">
    <ele>21.4</ele>
    <time>2026-09-13T12:47:37Z</time>
   </trkpt>
   <trkpt lat="22.7296140" lon="120.3309060">
    <ele>21.6</ele>
    <time>2026-09-13T12:47:38Z</time>
   </trkpt>
   <trkpt lat="22.7296150" lon="120.3309100">
    <ele>21.6</ele>
    <time>2026-09-13T12:47:39Z</time>
   </trkpt>
   <trkpt lat="22.7296140" lon="120.3309100">
    <ele>21.6</ele>
    <time>2026-09-13T12:47:40Z</time>
   </trkpt>
   <trkpt lat="22.7296130" lon="120.3309100">
    <ele>21.6</ele>
    <time>2026-09-13T12:47:41Z</time>
   </trkpt>
   <trkpt lat="22.7296110" lon="120.3309090">
    <ele>21.6</ele>
    <time>2026-09-13T12:47:42Z</time>
   </trkpt>
   <trkpt lat="22.7296130" lon="120.3309110">
    <ele>21.6</ele>
    <time>2026-09-13T12:47:43Z</time>
   </trkpt>
   <trkpt lat="22.7297360" lon="120.3306270">
    <ele>23.0</ele>
    <time>2026-09-13T12:47:54Z</time>
   </trkpt>
   <trkpt lat="22.7296850" lon="120.3305450">
    <ele>23.5</ele>
    <time>2026-09-13T12:47:55Z</time>
   </trkpt>
   <trkpt lat="22.7296910" lon="120.3305150">
    <ele>23.7</ele>
    <time>2026-09-13T12:47:56Z</time>
   </trkpt>
   <trkpt lat="22.7296660" lon="120.3304810">
    <ele>23.9</ele>
    <time>2026-09-13T12:47:57Z</time>
   </trkpt>
   <trkpt lat="22.7297130" lon="120.3305270">
    <ele>24.3</ele>
    <time>2026-09-13T12:47:58Z</time>
   </trkpt>
   <trkpt lat="22.7296990" lon="120.3304970">
    <ele>24.5</ele>
    <time>2026-09-13T12:47:59Z</time>
   </trkpt>
   <trkpt lat="22.7296860" lon="120.3304720">
    <ele>24.7</ele>
    <time>2026-09-13T12:48:00Z</time>
   </trkpt>
   <trkpt lat="22.7296800" lon="120.3304600">
    <ele>24.7</ele>
    <time>2026-09-13T12:48:01Z</time>
   </trkpt>
   <trkpt lat="22.7296720" lon="120.3304540">
    <ele>24.8</ele>
    <time>2026-09-13T12:48:02Z</time>
   </trkpt>
   <trkpt lat="22.7296440" lon="120.3304880">
    <ele>25.1</ele>
    <time>2026-09-13T12:48:03Z</time>
   </trkpt>
   <trkpt lat="22.7296120" lon="120.3304660">
    <ele>25.1</ele>
    <time>2026-09-13T12:48:04Z</time>
   </trkpt>
   <trkpt lat="22.7297630" lon="120.3307030">
    <ele>24.7</ele>
    <time>2026-09-13T12:48:05Z</time>
   </trkpt>
   <trkpt lat="22.7298060" lon="120.3307350">
    <ele>24.6</ele>
    <time>2026-09-13T12:48:07Z</time>
   </trkpt>
   <trkpt lat="22.7298270" lon="120.3307520">
    <ele>24.5</ele>
    <time>2026-09-13T12:48:08Z</time>
   </trkpt>
   <trkpt lat="22.7298490" lon="120.3307680">
    <ele>24.5</ele>
    <time>2026-09-13T12:48:09Z</time>
   </trkpt>
   <trkpt lat="22.7298700" lon="120.3307840">
    <ele>24.4</ele>
    <time>2026-09-13T12:48:10Z</time>
   </trkpt>
   <trkpt lat="22.7298920" lon="120.3308000">
    <ele>24.4</ele>
    <time>2026-09-13T12:48:11Z</time>
   </trkpt>
   <trkpt lat="22.7299130" lon="120.3308170">
    <ele>24.3</ele>
    <time>2026-09-13T12:48:12Z</time>
   </trkpt>
   <trkpt lat="22.7299350" lon="120.3308330">
    <ele>24.3</ele>
    <time>2026-09-13T12:48:13Z</time>
   </trkpt>
   <trkpt lat="22.7299560" lon="120.3308490">
    <ele>24.2</ele>
    <time>2026-09-13T12:48:14Z</time>
   </trkpt>
   <trkpt lat="22.7299510" lon="120.3308580">
    <ele>24.2</ele>
    <time>2026-09-13T12:48:15Z</time>
   </trkpt>
   <trkpt lat="22.7299730" lon="120.3308700">
    <ele>24.2</ele>
    <time>2026-09-13T12:48:16Z</time>
   </trkpt>
   <trkpt lat="22.7299670" lon="120.3308700">
    <ele>24.2</ele>
    <time>2026-09-13T12:48:17Z</time>
   </trkpt>
   <trkpt lat="22.7299880" lon="120.3308800">
    <ele>24.1</ele>
    <time>2026-09-13T12:48:18Z</time>
   </trkpt>
   <trkpt lat="22.7300080" lon="120.3309010">
    <ele>24.1</ele>
    <time>2026-09-13T12:48:19Z</time>
   </trkpt>
   <trkpt lat="22.7300270" lon="120.3309180">
    <ele>24.0</ele>
    <time>2026-09-13T12:48:20Z</time>
   </trkpt>
   <trkpt lat="22.7300470" lon="120.3309360">
    <ele>24.0</ele>
    <time>2026-09-13T12:48:21Z</time>
   </trkpt>
   <trkpt lat="22.7300390" lon="120.3309350">
    <ele>24.0</ele>
    <time>2026-09-13T12:48:22Z</time>
   </trkpt>
   <trkpt lat="22.7300310" lon="120.3309330">
    <ele>24.0</ele>
    <time>2026-09-13T12:48:23Z</time>
   </trkpt>
   <trkpt lat="22.7300220" lon="120.3309320">
    <ele>24.0</ele>
    <time>2026-09-13T12:48:24Z</time>
   </trkpt>
   <trkpt lat="22.7300140" lon="120.3309300">
    <ele>23.9</ele>
    <time>2026-09-13T12:48:25Z</time>
   </trkpt>
   <trkpt lat="22.7300060" lon="120.3309290">
    <ele>23.9</ele>
    <time>2026-09-13T12:48:26Z</time>
   </trkpt>
   <trkpt lat="22.7299910" lon="120.3309080">
    <ele>23.9</ele>
    <time>2026-09-13T12:48:27Z</time>
   </trkpt>
   <trkpt lat="22.7299840" lon="120.3309000">
    <ele>23.9</ele>
    <time>2026-09-13T12:48:28Z</time>
   </trkpt>
   <trkpt lat="22.7299810" lon="120.3308900">
    <ele>23.9</ele>
    <time>2026-09-13T12:48:29Z</time>
   </trkpt>
   <trkpt lat="22.7299830" lon="120.3308810">
    <ele>23.8</ele>
    <time>2026-09-13T12:48:30Z</time>
   </trkpt>
   <trkpt lat="22.7299830" lon="120.3308680">
    <ele>23.8</ele>
    <time>2026-09-13T12:48:31Z</time>
   </trkpt>
   <trkpt lat="22.7299780" lon="120.3308540">
    <ele>23.8</ele>
    <time>2026-09-13T12:48:32Z</time>
   </trkpt>
   <trkpt lat="22.7299490" lon="120.3308650">
    <ele>23.7</ele>
    <time>2026-09-13T12:48:33Z</time>
   </trkpt>
   <trkpt lat="22.7299280" lon="120.3307940">
    <ele>23.6</ele>
    <time>2026-09-13T12:48:35Z</time>
   </trkpt>
   <trkpt lat="22.7298310" lon="120.3309170">
    <ele>23.4</ele>
    <time>2026-09-13T12:48:36Z</time>
   </trkpt>
   <trkpt lat="22.7298020" lon="120.3308940">
    <ele>23.3</ele>
    <time>2026-09-13T12:48:37Z</time>
   </trkpt>
   <trkpt lat="22.7298660" lon="120.3308000">
    <ele>23.1</ele>
    <time>2026-09-13T12:48:38Z</time>
   </trkpt>
   <trkpt lat="22.7298470" lon="120.3308020">
    <ele>23.1</ele>
    <time>2026-09-13T12:48:39Z</time>
   </trkpt>
   <trkpt lat="22.7298070" lon="120.3307520">
    <ele>23.0</ele>
    <time>2026-09-13T12:48:40Z</time>
   </trkpt>
   <trkpt lat="22.7296910" lon="120.3305680">
    <ele>22.7</ele>
    <time>2026-09-13T12:48:41Z</time>
   </trkpt>
   <trkpt lat="22.7297360" lon="120.3306330">
    <ele>22.6</ele>
    <time>2026-09-13T12:48:42Z</time>
   </trkpt>
   <trkpt lat="22.7296970" lon="120.3306240">
    <ele>22.6</ele>
    <time>2026-09-13T12:48:43Z</time>
   </trkpt>
   <trkpt lat="22.7296220" lon="120.3305750">
    <ele>22.4</ele>
    <time>2026-09-13T12:48:44Z</time>
   </trkpt>
   <trkpt lat="22.7296350" lon="120.3306350">
    <ele>22.4</ele>
    <time>2026-09-13T12:48:45Z</time>
   </trkpt>
   <trkpt lat="22.7296110" lon="120.3308130">
    <ele>22.1</ele>
    <time>2026-09-13T12:48:46Z</time>
   </trkpt>
   <trkpt lat="22.7296040" lon="120.3309090">
    <ele>22.0</ele>
    <time>2026-09-13T12:48:47Z</time>
   </trkpt>
   <trkpt lat="22.7295810" lon="120.3309190">
    <ele>22.0</ele>
    <time>2026-09-13T12:48:48Z</time>
   </trkpt>
   <trkpt lat="22.7295620" lon="120.3309340">
    <ele>21.9</ele>
    <time>2026-09-13T12:48:49Z</time>
   </trkpt>
   <trkpt lat="22.7295420" lon="120.3309160">
    <ele>21.9</ele>
    <time>2026-09-13T12:48:50Z</time>
   </trkpt>
   <trkpt lat="22.7295390" lon="120.3309020">
    <ele>21.9</ele>
    <time>2026-09-13T12:48:51Z</time>
   </trkpt>
   <trkpt lat="22.7295360" lon="120.3309430">
    <ele>20.1</ele>
    <time>2026-09-13T12:48:52Z</time>
   </trkpt>
   <trkpt lat="22.7295590" lon="120.3308940">
    <ele>20.1</ele>
    <time>2026-09-13T12:48:53Z</time>
   </trkpt>
   <trkpt lat="22.7296790" lon="120.3307840">
    <ele>20.2</ele>
    <time>2026-09-13T12:48:54Z</time>
   </trkpt>
   <trkpt lat="22.7296960" lon="120.3307040">
    <ele>20.2</ele>
    <time>2026-09-13T12:48:55Z</time>
   </trkpt>
   <trkpt lat="22.7296990" lon="120.3306600">
    <ele>20.3</ele>
    <time>2026-09-13T12:48:56Z</time>
   </trkpt>
   <trkpt lat="22.7297740" lon="120.3306800">
    <ele>20.3</ele>
    <time>2026-09-13T12:48:57Z</time>
   </trkpt>
   <trkpt lat="22.7297940" lon="120.3307480">
    <ele>20.3</ele>
    <time>2026-09-13T12:48:58Z</time>
   </trkpt>
   <trkpt lat="22.7297950" lon="120.3307520">
    <ele>20.3</ele>
    <time>2026-09-13T12:48:59Z</time>
   </trkpt>
   <trkpt lat="22.7297960" lon="120.3307560">
    <ele>20.3</ele>
    <time>2026-09-13T12:49:00Z</time>
   </trkpt>
   <trkpt lat="22.7300380" lon="120.3307400">
    <ele>20.4</ele>
    <time>2026-09-13T12:49:07Z</time>
   </trkpt>
   <trkpt lat="22.7300730" lon="120.3307200">
    <ele>20.4</ele>
    <time>2026-09-13T12:49:08Z</time>
   </trkpt>
   <trkpt lat="22.7300800" lon="120.3307250">
    <ele>20.4</ele>
    <time>2026-09-13T12:49:09Z</time>
   </trkpt>
   <trkpt lat="22.7300720" lon="120.3307310">
    <ele>20.4</ele>
    <time>2026-09-13T12:49:10Z</time>
   </trkpt>
   <trkpt lat="22.7300440" lon="120.3307270">
    <ele>20.4</ele>
    <time>2026-09-13T12:49:11Z</time>
   </trkpt>
   <trkpt lat="22.7300630" lon="120.3307650">
    <ele>20.4</ele>
    <time>2026-09-13T12:49:12Z</time>
   </trkpt>
   <trkpt lat="22.7300090" lon="120.3307300">
    <ele>20.4</ele>
    <time>2026-09-13T12:49:13Z</time>
   </trkpt>
   <trkpt lat="22.7299840" lon="120.3307070">
    <ele>20.4</ele>
    <time>2026-09-13T12:49:14Z</time>
   </trkpt>
   <trkpt lat="22.7299590" lon="120.3306840">
    <ele>20.4</ele>
    <time>2026-09-13T12:49:15Z</time>
   </trkpt>
   <trkpt lat="22.7296790" lon="120.3308160">
    <ele>20.4</ele>
    <time>2026-09-13T12:49:16Z</time>
   </trkpt>
   <trkpt lat="22.7299420" lon="120.3310580">
    <ele>20.3</ele>
    <time>2026-09-13T12:49:19Z</time>
   </trkpt>
   <trkpt lat="22.7299440" lon="120.3310480">
    <ele>20.3</ele>
    <time>2026-09-13T12:49:20Z</time>
   </trkpt>
   <trkpt lat="22.7299820" lon="120.3310290">
    <ele>20.3</ele>
    <time>2026-09-13T12:49:21Z</time>
   </trkpt>
   <trkpt lat="22.7299830" lon="120.3310220">
    <ele>20.3</ele>
    <time>2026-09-13T12:49:22Z</time>
   </trkpt>
   <trkpt lat="22.7299810" lon="120.3310130">
    <ele>20.3</ele>
    <time>2026-09-13T12:49:23Z</time>
   </trkpt>
   <trkpt lat="22.7299700" lon="120.3309870">
    <ele>20.3</ele>
    <time>2026-09-13T12:49:24Z</time>
   </trkpt>
   <trkpt lat="22.7298900" lon="120.3308590">
    <ele>20.3</ele>
    <time>2026-09-13T12:49:25Z</time>
   </trkpt>
   <trkpt lat="22.7296340" lon="120.3309430">
    <ele>20.1</ele>
    <time>2026-09-13T12:49:26Z</time>
   </trkpt>
   <trkpt lat="22.7295860" lon="120.3309800">
    <ele>20.0</ele>
    <time>2026-09-13T12:49:27Z</time>
   </trkpt>
   <trkpt lat="22.7295560" lon="120.3309740">
    <ele>20.0</ele>
    <time>2026-09-13T12:49:28Z</time>
   </trkpt>
   <trkpt lat="22.7295130" lon="120.3309280">
    <ele>19.9</ele>
    <time>2026-09-13T12:49:29Z</time>
   </trkpt>
   <trkpt lat="22.7296450" lon="120.3308530">
    <ele>20.1</ele>
    <time>2026-09-13T12:49:30Z</time>
   </trkpt>
   <trkpt lat="22.7297450" lon="120.3307670">
    <ele>20.2</ele>
    <time>2026-09-13T12:49:31Z</time>
   </trkpt>
   <trkpt lat="22.7297140" lon="120.3307790">
    <ele>20.2</ele>
    <time>2026-09-13T12:49:32Z</time>
   </trkpt>
   <trkpt lat="22.7297420" lon="120.3307730">
    <ele>20.2</ele>
    <time>2026-09-13T12:49:33Z</time>
   </trkpt>
   <trkpt lat="22.7297310" lon="120.3307820">
    <ele>20.2</ele>
    <time>2026-09-13T12:49:34Z</time>
   </trkpt>
   <trkpt lat="22.7297400" lon="120.3307820">
    <ele>20.2</ele>
    <time>2026-09-13T12:49:35Z</time>
   </trkpt>
   <trkpt lat="22.7297460" lon="120.3307970">
    <ele>20.2</ele>
    <time>2026-09-13T12:49:36Z</time>
   </trkpt>
   <trkpt lat="22.7297490" lon="120.3308140">
    <ele>20.2</ele>
    <time>2026-09-13T12:49:37Z</time>
   </trkpt>
   <trkpt lat="22.7297500" lon="120.3308270">
    <ele>20.2</ele>
    <time>2026-09-13T12:49:38Z</time>
   </trkpt>
   <trkpt lat="22.7297380" lon="120.3308400">
    <ele>20.2</ele>
    <time>2026-09-13T12:49:39Z</time>
   </trkpt>
   <trkpt lat="22.7297440" lon="120.3308510">
    <ele>20.2</ele>
    <time>2026-09-13T12:49:40Z</time>
   </trkpt>
   <trkpt lat="22.7297530" lon="120.3308550">
    <ele>20.2</ele>
    <time>2026-09-13T12:49:41Z</time>
   </trkpt>
   <trkpt lat="22.7297640" lon="120.3308450">
    <ele>20.2</ele>
    <time>2026-09-13T12:49:42Z</time>
   </trkpt>
   <trkpt lat="22.7297710" lon="120.3308550">
    <ele>20.2</ele>
    <time>2026-09-13T12:49:43Z</time>
   </trkpt>
   <trkpt lat="22.7297980" lon="120.3308450">
    <ele>20.2</ele>
    <time>2026-09-13T12:49:44Z</time>
   </trkpt>
   <trkpt lat="22.7298000" lon="120.3308640">
    <ele>20.2</ele>
    <time>2026-09-13T12:49:45Z</time>
   </trkpt>
   <trkpt lat="22.7297980" lon="120.3308760">
    <ele>20.2</ele>
    <time>2026-09-13T12:49:46Z</time>
   </trkpt>
   <trkpt lat="22.7297990" lon="120.3308840">
    <ele>20.2</ele>
    <time>2026-09-13T12:49:47Z</time>
   </trkpt>
   <trkpt lat="22.7297930" lon="120.3309060">
    <ele>20.3</ele>
    <time>2026-09-13T12:49:48Z</time>
   </trkpt>
   <trkpt lat="22.7297830" lon="120.3309220">
    <ele>20.3</ele>
    <time>2026-09-13T12:49:49Z</time>
   </trkpt>
   <trkpt lat="22.7297850" lon="120.3309260">
    <ele>20.3</ele>
    <time>2026-09-13T12:49:50Z</time>
   </trkpt>
   <trkpt lat="22.7297960" lon="120.3309110">
    <ele>20.3</ele>
    <time>2026-09-13T12:49:51Z</time>
   </trkpt>
   <trkpt lat="22.7297930" lon="120.3309100">
    <ele>20.3</ele>
    <time>2026-09-13T12:49:52Z</time>
   </trkpt>
   <trkpt lat="22.7297890" lon="120.3309220">
    <ele>20.3</ele>
    <time>2026-09-13T12:49:53Z</time>
   </trkpt>
   <trkpt lat="22.7297840" lon="120.3309180">
    <ele>20.3</ele>
    <time>2026-09-13T12:49:54Z</time>
   </trkpt>
   <trkpt lat="22.7297830" lon="120.3309300">
    <ele>20.3</ele>
    <time>2026-09-13T12:49:55Z</time>
   </trkpt>
   <trkpt lat="22.7297420" lon="120.3309560">
    <ele>20.3</ele>
    <time>2026-09-13T12:50:09Z</time>
   </trkpt>
   <trkpt lat="22.7297380" lon="120.3309440">
    <ele>20.3</ele>
    <time>2026-09-13T12:50:10Z</time>
   </trkpt>
   <trkpt lat="22.7297320" lon="120.3309410">
    <ele>20.3</ele>
    <time>2026-09-13T12:50:11Z</time>
   </trkpt>
   <trkpt lat="22.7297350" lon="120.3309380">
    <ele>20.3</ele>
    <time>2026-09-13T12:50:12Z</time>
   </trkpt>
   <trkpt lat="22.7297360" lon="120.3309340">
    <ele>20.3</ele>
    <time>2026-09-13T12:50:13Z</time>
   </trkpt>
   <trkpt lat="22.7297340" lon="120.3309440">
    <ele>20.3</ele>
    <time>2026-09-13T12:50:14Z</time>
   </trkpt>
   <trkpt lat="22.7297370" lon="120.3309410">
    <ele>20.3</ele>
    <time>2026-09-13T12:50:15Z</time>
   </trkpt>
   <trkpt lat="22.7297320" lon="120.3309440">
    <ele>20.3</ele>
    <time>2026-09-13T12:50:16Z</time>
   </trkpt>
   <trkpt lat="22.7297230" lon="120.3309470">
    <ele>20.3</ele>
    <time>2026-09-13T12:50:17Z</time>
   </trkpt>
   <trkpt lat="22.7297240" lon="120.3309370">
    <ele>20.3</ele>
    <time>2026-09-13T12:50:18Z</time>
   </trkpt>
   <trkpt lat="22.7297300" lon="120.3309340">
    <ele>20.3</ele>
    <time>2026-09-13T12:50:19Z</time>
   </trkpt>
   <trkpt lat="22.7297400" lon="120.3309450">
    <ele>20.3</ele>
    <time>2026-09-13T12:50:20Z</time>
   </trkpt>
   <trkpt lat="22.7297480" lon="120.3309840">
    <ele>20.3</ele>
    <time>2026-09-13T12:50:21Z</time>
   </trkpt>
   <trkpt lat="22.7297060" lon="120.3310370">
    <ele>20.3</ele>
    <time>2026-09-13T12:50:22Z</time>
   </trkpt>
   <trkpt lat="22.7297290" lon="120.3310350">
    <ele>20.3</ele>
    <time>2026-09-13T12:50:23Z</time>
   </trkpt>
   <trkpt lat="22.7297530" lon="120.3310440">
    <ele>20.3</ele>
    <time>2026-09-13T12:50:24Z</time>
   </trkpt>
   <trkpt lat="22.7297560" lon="120.3310720">
    <ele>20.3</ele>
    <time>2026-09-13T12:50:25Z</time>
   </trkpt>
   <trkpt lat="22.7297720" lon="120.3311140">
    <ele>20.3</ele>
    <time>2026-09-13T12:50:26Z</time>
   </trkpt>
   <trkpt lat="22.7297800" lon="120.3311570">
    <ele>20.3</ele>
    <time>2026-09-13T12:50:28Z</time>
   </trkpt>
   <trkpt lat="22.7297830" lon="120.3311870">
    <ele>20.4</ele>
    <time>2026-09-13T12:50:29Z</time>
   </trkpt>
   <trkpt lat="22.7298010" lon="120.3311960">
    <ele>20.4</ele>
    <time>2026-09-13T12:50:30Z</time>
   </trkpt>
   <trkpt lat="22.7298150" lon="120.3311940">
    <ele>20.4</ele>
    <time>2026-09-13T12:50:31Z</time>
   </trkpt>
   <trkpt lat="22.7298300" lon="120.3311500">
    <ele>20.4</ele>
    <time>2026-09-13T12:50:32Z</time>
   </trkpt>
   <trkpt lat="22.7298290" lon="120.3311170">
    <ele>20.4</ele>
    <time>2026-09-13T12:50:33Z</time>
   </trkpt>
   <trkpt lat="22.7298270" lon="120.3310890">
    <ele>20.4</ele>
    <time>2026-09-13T12:50:34Z</time>
   </trkpt>
   <trkpt lat="22.7298500" lon="120.3310570">
    <ele>20.4</ele>
    <time>2026-09-13T12:50:35Z</time>
   </trkpt>
   <trkpt lat="22.7298990" lon="120.3310260">
    <ele>20.4</ele>
    <time>2026-09-13T12:50:36Z</time>
   </trkpt>
   <trkpt lat="22.7299490" lon="120.3310010">
    <ele>20.4</ele>
    <time>2026-09-13T12:50:37Z</time>
   </trkpt>
   <trkpt lat="22.7300020" lon="120.3309550">
    <ele>20.4</ele>
    <time>2026-09-13T12:50:38Z</time>
   </trkpt>
   <trkpt lat="22.7300550" lon="120.3309210">
    <ele>20.4</ele>
    <time>2026-09-13T12:50:39Z</time>
   </trkpt>
   <trkpt lat="22.7300750" lon="120.3309050">
    <ele>20.4</ele>
    <time>2026-09-13T12:50:40Z</time>
   </trkpt>
   <trkpt lat="22.7301150" lon="120.3308880">
    <ele>20.4</ele>
    <time>2026-09-13T12:50:41Z</time>
   </trkpt>
   <trkpt lat="22.7301520" lon="120.3308270">
    <ele>20.5</ele>
    <time>2026-09-13T12:50:42Z</time>
   </trkpt>
   <trkpt lat="22.7301970" lon="120.3307890">
    <ele>20.5</ele>
    <time>2026-09-13T12:50:43Z</time>
   </trkpt>
   <trkpt lat="22.7302310" lon="120.3307520">
    <ele>20.5</ele>
    <time>2026-09-13T12:50:44Z</time>
   </trkpt>
   <trkpt lat="22.7302670" lon="120.3307210">
    <ele>20.5</ele>
    <time>2026-09-13T12:50:45Z</time>
   </trkpt>
   <trkpt lat="22.7302880" lon="120.3307070">
    <ele>20.5</ele>
    <time>2026-09-13T12:50:46Z</time>
   </trkpt>
   <trkpt lat="22.7303140" lon="120.3307090">
    <ele>20.5</ele>
    <time>2026-09-13T12:50:47Z</time>
   </trkpt>
   <trkpt lat="22.7303100" lon="120.3307330">
    <ele>20.5</ele>
    <time>2026-09-13T12:50:48Z</time>
   </trkpt>
   <trkpt lat="22.7303040" lon="120.3307230">
    <ele>20.5</ele>
    <time>2026-09-13T12:50:49Z</time>
   </trkpt>
   <trkpt lat="22.7303130" lon="120.3307220">
    <ele>20.5</ele>
    <time>2026-09-13T12:50:50Z</time>
   </trkpt>
   <trkpt lat="22.7303100" lon="120.3307220">
    <ele>20.5</ele>
    <time>2026-09-13T12:50:51Z</time>
   </trkpt>
   <trkpt lat="22.7303130" lon="120.3307250">
    <ele>20.5</ele>
    <time>2026-09-13T12:50:52Z</time>
   </trkpt>
   <trkpt lat="22.7302920" lon="120.3307020">
    <ele>20.5</ele>
    <time>2026-09-13T12:50:53Z</time>
   </trkpt>
   <trkpt lat="22.7302860" lon="120.3307010">
    <ele>20.5</ele>
    <time>2026-09-13T12:50:54Z</time>
   </trkpt>
   <trkpt lat="22.7302800" lon="120.3306960">
    <ele>20.5</ele>
    <time>2026-09-13T12:50:55Z</time>
   </trkpt>
   <trkpt lat="22.7302670" lon="120.3306840">
    <ele>20.5</ele>
    <time>2026-09-13T12:50:56Z</time>
   </trkpt>
   <trkpt lat="22.7302740" lon="120.3307040">
    <ele>20.5</ele>
    <time>2026-09-13T12:50:57Z</time>
   </trkpt>
   <trkpt lat="22.7302660" lon="120.3306270">
    <ele>20.5</ele>
    <time>2026-09-13T12:52:18Z</time>
   </trkpt>
   <trkpt lat="22.7302670" lon="120.3306280">
    <ele>20.5</ele>
    <time>2026-09-13T12:52:19Z</time>
   </trkpt>
   <trkpt lat="22.7302730" lon="120.3306160">
    <ele>20.5</ele>
    <time>2026-09-13T12:52:20Z</time>
   </trkpt>
   <trkpt lat="22.7302380" lon="120.3305950">
    <ele>20.5</ele>
    <time>2026-09-13T12:52:21Z</time>
   </trkpt>
   <trkpt lat="22.7302260" lon="120.3306080">
    <ele>20.5</ele>
    <time>2026-09-13T12:52:23Z</time>
   </trkpt>
   <trkpt lat="22.7302170" lon="120.3305800">
    <ele>20.5</ele>
    <time>2026-09-13T12:52:24Z</time>
   </trkpt>
   <trkpt lat="22.7302170" lon="120.3305800">
    <ele>20.5</ele>
    <time>2026-09-13T12:52:25Z</time>
   </trkpt>
   <trkpt lat="22.7302170" lon="120.3305800">
    <ele>20.5</ele>
    <time>2026-09-13T12:52:26Z</time>
   </trkpt>
   <trkpt lat="22.7302170" lon="120.3305800">
    <ele>20.5</ele>
    <time>2026-09-13T12:52:27Z</time>
   </trkpt>
   <trkpt lat="22.7302170" lon="120.3305800">
    <ele>20.5</ele>
    <time>2026-09-13T12:52:28Z</time>
   </trkpt>
   <trkpt lat="22.7302170" lon="120.3305800">
    <ele>20.5</ele>
    <time>2026-09-13T12:52:29Z</time>
   </trkpt>
   <trkpt lat="22.7302170" lon="120.3305800">
    <ele>20.5</ele>
    <time>2026-09-13T12:52:30Z</time>
   </trkpt>
   <trkpt lat="22.7302190" lon="120.3305900">
    <ele>20.5</ele>
    <time>2026-09-13T12:52:31Z</time>
   </trkpt>
   <trkpt lat="22.7302210" lon="120.3306030">
    <ele>20.5</ele>
    <time>2026-09-13T12:52:47Z</time>
   </trkpt>
   <trkpt lat="22.7302210" lon="120.3306040">
    <ele>20.5</ele>
    <time>2026-09-13T12:52:48Z</time>
   </trkpt>
   <trkpt lat="22.7302220" lon="120.3306050">
    <ele>20.5</ele>
    <time>2026-09-13T12:52:49Z</time>
   </trkpt>
   <trkpt lat="22.7302220" lon="120.3306050">
    <ele>20.5</ele>
    <time>2026-09-13T12:52:50Z</time>
   </trkpt>
   <trkpt lat="22.7302220" lon="120.3306060">
    <ele>20.5</ele>
    <time>2026-09-13T12:52:51Z</time>
   </trkpt>
   <trkpt lat="22.7302220" lon="120.3306070">
    <ele>20.5</ele>
    <time>2026-09-13T12:52:52Z</time>
   </trkpt>
   <trkpt lat="22.7301620" lon="120.3306170">
    <ele>20.5</ele>
    <time>2026-09-13T12:52:53Z</time>
   </trkpt>
   <trkpt lat="22.7301040" lon="120.3306460">
    <ele>20.5</ele>
    <time>2026-09-13T12:52:54Z</time>
   </trkpt>
   <trkpt lat="22.7300540" lon="120.3306660">
    <ele>20.4</ele>
    <time>2026-09-13T12:52:55Z</time>
   </trkpt>
   <trkpt lat="22.7300240" lon="120.3307120">
    <ele>20.4</ele>
    <time>2026-09-13T12:52:56Z</time>
   </trkpt>
   <trkpt lat="22.7299950" lon="120.3307630">
    <ele>20.4</ele>
    <time>2026-09-13T12:52:57Z</time>
   </trkpt>
   <trkpt lat="22.7299540" lon="120.3308070">
    <ele>20.3</ele>
    <time>2026-09-13T12:52:58Z</time>
   </trkpt>
   <trkpt lat="22.7299070" lon="120.3308250">
    <ele>20.3</ele>
    <time>2026-09-13T12:52:59Z</time>
   </trkpt>
   <trkpt lat="22.7298560" lon="120.3308520">
    <ele>20.3</ele>
    <time>2026-09-13T12:53:00Z</time>
   </trkpt>
   <trkpt lat="22.7298190" lon="120.3308830">
    <ele>20.2</ele>
    <time>2026-09-13T12:53:01Z</time>
   </trkpt>
   <trkpt lat="22.7297900" lon="120.3309040">
    <ele>20.2</ele>
    <time>2026-09-13T12:53:02Z</time>
   </trkpt>
   <trkpt lat="22.7297750" lon="120.3309470">
    <ele>20.2</ele>
    <time>2026-09-13T12:53:03Z</time>
   </trkpt>
   <trkpt lat="22.7297710" lon="120.3309650">
    <ele>20.2</ele>
    <time>2026-09-13T12:53:04Z</time>
   </trkpt>
   <trkpt lat="22.7297600" lon="120.3309760">
    <ele>20.1</ele>
    <time>2026-09-13T12:53:05Z</time>
   </trkpt>
   <trkpt lat="22.7297490" lon="120.3310040">
    <ele>20.1</ele>
    <time>2026-09-13T12:53:06Z</time>
   </trkpt>
   <trkpt lat="22.7297460" lon="120.3310150">
    <ele>20.1</ele>
    <time>2026-09-13T12:53:07Z</time>
   </trkpt>
   <trkpt lat="22.7297320" lon="120.3310320">
    <ele>20.1</ele>
    <time>2026-09-13T12:53:08Z</time>
   </trkpt>
   <trkpt lat="22.7297310" lon="120.3310400">
    <ele>20.1</ele>
    <time>2026-09-13T12:53:09Z</time>
   </trkpt>
   <trkpt lat="22.7297390" lon="120.3310620">
    <ele>20.5</ele>
    <time>2026-09-13T12:53:10Z</time>
   </trkpt>
   <trkpt lat="22.7297420" lon="120.3310890">
    <ele>21.1</ele>
    <time>2026-09-13T12:53:11Z</time>
   </trkpt>
   <trkpt lat="22.7297750" lon="120.3311370">
    <ele>22.2</ele>
    <time>2026-09-13T12:53:12Z</time>
   </trkpt>
   <trkpt lat="22.7297700" lon="120.3311840">
    <ele>23.2</ele>
    <time>2026-09-13T12:53:13Z</time>
   </trkpt>
  </trkseg>
 </trk>
</gpx>
