<?xml version="1.0" encoding="UTF-8"?>
<gpx creator="StravaGPX" version="1.1" xmlns="http://www.topografix.com/GPX/1/1" xmlns:xsi="http://www.w3.org/2001/XMLSchema-instance" xsi:schemaLocation="http://www.topografix.com/GPX/1/1 http://www.topografix.com/GPX/1/1/gpx.xsd">
 <metadata>
  <time>2026-09-14T08:08:31Z</time>
 </metadata>
 <trk>
  <name>午後騎乘</name>
  <type>cycling</type>
  <trkseg>
   <trkpt lat="22.7280140" lon="120.3058900">
    <ele>15.7</ele>
    <time>2026-09-14T08:08:31Z</time>
   </trkpt>
   <trkpt lat="22.7280060" lon="120.3059020">
    <ele>15.7</ele>
    <time>2026-09-14T08:08:32Z</time>
   </trkpt>
   <trkpt lat="22.7279980" lon="120.3059070">
    <ele>15.7</ele>
    <time>2026-09-14T08:08:33Z</time>
   </trkpt>
   <trkpt lat="22.7279760" lon="120.3058960">
    <ele>15.7</ele>
    <time>2026-09-14T08:08:34Z</time>
   </trkpt>
   <trkpt lat="22.7279520" lon="120.3059130">
    <ele>15.7</ele>
    <time>2026-09-14T08:08:35Z</time>
   </trkpt>
   <trkpt lat="22.7279310" lon="120.3059150">
    <ele>15.7</ele>
    <time>2026-09-14T08:08:36Z</time>
   </trkpt>
   <trkpt lat="22.7279220" lon="120.3059150">
    <ele>15.7</ele>
    <time>2026-09-14T08:08:37Z</time>
   </trkpt>
   <trkpt lat="22.7279020" lon="120.3059190">
    <ele>15.7</ele>
    <time>2026-09-14T08:08:38Z</time>
   </trkpt>
   <trkpt lat="22.7278480" lon="120.3059290">
    <ele>15.8</ele>
    <time>2026-09-14T08:08:39Z</time>
   </trkpt>
   <trkpt lat="22.7278090" lon="120.3059270">
    <ele>15.8</ele>
    <time>2026-09-14T08:08:40Z</time>
   </trkpt>
   <trkpt lat="22.7277730" lon="120.3059190">
    <ele>15.8</ele>
    <time>2026-09-14T08:08:41Z</time>
   </trkpt>
   <trkpt lat="22.7277390" lon="120.3059040">
    <ele>15.9</ele>
    <time>2026-09-14T08:08:42Z</time>
   </trkpt>
   <trkpt lat="22.7277020" lon="120.3058830">
    <ele>15.9</ele>
    <time>2026-09-14T08:08:44Z</time>
   </trkpt>
   <trkpt lat="22.7276550" lon="120.3058680">
    <ele>16.0</ele>
    <time>2026-09-14T08:08:45Z</time>
   </trkpt>
   <trkpt lat="22.7276110" lon="120.3058400">
    <ele>16.0</ele>
    <time>2026-09-14T08:08:46Z</time>
   </trkpt>
   <trkpt lat="22.7275640" lon="120.3058110">
    <ele>16.1</ele>
    <time>2026-09-14T08:08:47Z</time>
   </trkpt>
   <trkpt lat="22.7275110" lon="120.3057810">
    <ele>16.1</ele>
    <time>2026-09-14T08:08:48Z</time>
   </trkpt>
   <trkpt lat="22.7274540" lon="120.3057550">
    <ele>16.2</ele>
    <time>2026-09-14T08:08:49Z</time>
   </trkpt>
   <trkpt lat="22.7273970" lon="120.3057210">
    <ele>16.2</ele>
    <time>2026-09-14T08:08:50Z</time>
   </trkpt>
   <trkpt lat="22.7273640" lon="120.3056970">
    <ele>16.3</ele>
    <time>2026-09-14T08:08:51Z</time>
   </trkpt>
   <trkpt lat="22.7273270" lon="120.3056850">
    <ele>16.3</ele>
    <time>2026-09-14T08:08:52Z</time>
   </trkpt>
   <trkpt lat="22.7272760" lon="120.3056680">
    <ele>16.4</ele>
    <time>2026-09-14T08:08:53Z</time>
   </trkpt>
   <trkpt lat="22.7272700" lon="120.3056780">
    <ele>16.4</ele>
    <time>2026-09-14T08:08:54Z</time>
   </trkpt>
   <trkpt lat="22.7272360" lon="120.3056660">
    <ele>16.4</ele>
    <time>2026-09-14T08:08:55Z</time>
   </trkpt>
   <trkpt lat="22.7271960" lon="120.3056480">
    <ele>16.5</ele>
    <time>2026-09-14T08:08:56Z</time>
   </trkpt>
   <trkpt lat="22.7271570" lon="120.3056410">
    <ele>16.5</ele>
    <time>2026-09-14T08:08:57Z</time>
   </trkpt>
   <trkpt lat="22.7272150" lon="120.3056690">
    <ele>16.6</ele>
    <time>2026-09-14T08:08:58Z</time>
   </trkpt>
   <trkpt lat="22.7272550" lon="120.3057060">
    <ele>16.5</ele>
    <time>2026-09-14T08:08:59Z</time>
   </trkpt>
   <trkpt lat="22.7273800" lon="120.3057280">
    <ele>16.3</ele>
    <time>2026-09-14T08:09:00Z</time>
   </trkpt>
   <trkpt lat="22.7274990" lon="120.3057740">
    <ele>16.2</ele>
    <time>2026-09-14T08:09:01Z</time>
   </trkpt>
   <trkpt lat="22.7275200" lon="120.3057830">
    <ele>16.1</ele>
    <time>2026-09-14T08:09:02Z</time>
   </trkpt>
   <trkpt lat="22.7275330" lon="120.3058010">
    <ele>16.1</ele>
    <time>2026-09-14T08:09:03Z</time>
   </trkpt>
   <trkpt lat="22.7275570" lon="120.3058330">
    <ele>16.1</ele>
    <time>2026-09-14T08:09:04Z</time>
   </trkpt>
   <trkpt lat="22.7277070" lon="120.3058720">
    <ele>15.9</ele>
    <time>2026-09-14T08:09:05Z</time>
   </trkpt>
   <trkpt lat="22.7276710" lon="120.3058350">
    <ele>15.9</ele>
    <time>2026-09-14T08:09:06Z</time>
   </trkpt>
   <trkpt lat="22.7277710" lon="120.3058580">
    <ele>15.8</ele>
    <time>2026-09-14T08:09:07Z</time>
   </trkpt>
   <trkpt lat="22.7278230" lon="120.3059190">
    <ele>15.8</ele>
    <time>2026-09-14T08:09:08Z</time>
   </trkpt>
   <trkpt lat="22.7278930" lon="120.3059320">
    <ele>15.8</ele>
    <time>2026-09-14T08:09:09Z</time>
   </trkpt>
   <trkpt lat="22.7279490" lon="120.3059360">
    <ele>15.7</ele>
    <time>2026-09-14T08:09:10Z</time>
   </trkpt>
   <trkpt lat="22.7279360" lon="120.3059190">
    <ele>15.7</ele>
    <time>2026-09-14T08:09:11Z</time>
   </trkpt>
   <trkpt lat="22.7279580" lon="120.3059240">
    <ele>15.7</ele>
    <time>2026-09-14T08:09:12Z</time>
   </trkpt>
   <trkpt lat="22.7279730" lon="120.3059370">
    <ele>15.7</ele>
    <time>2026-09-14T08:09:13Z</time>
   </trkpt>
   <trkpt lat="22.7279680" lon="120.3059170">
    <ele>15.7</ele>
    <time>2026-09-14T08:09:14Z</time>
   </trkpt>
   <trkpt lat="22.7280010" lon="120.3059470">
    <ele>15.7</ele>
    <time>2026-09-14T08:09:15Z</time>
   </trkpt>
   <trkpt lat="22.7279970" lon="120.3059860">
    <ele>15.7</ele>
    <time>2026-09-14T08:09:16Z</time>
   </trkpt>
   <trkpt lat="22.7279950" lon="120.3060220">
    <ele>15.7</ele>
    <time>2026-09-14T08:09:17Z</time>
   </trkpt>
   <trkpt lat="22.7279900" lon="120.3060430">
    <ele>15.7</ele>
    <time>2026-09-14T08:09:18Z</time>
   </trkpt>
   <trkpt lat="22.7279910" lon="120.3060670">
    <ele>15.7</ele>
    <time>2026-09-14T08:09:19Z</time>
   </trkpt>
   <trkpt lat="22.7279950" lon="120.3060790">
    <ele>15.7</ele>
    <time>2026-09-14T08:09:20Z</time>
   </trkpt>
   <trkpt lat="22.7280040" lon="120.3060780">
    <ele>15.6</ele>
    <time>2026-09-14T08:09:21Z</time>
   </trkpt>
   <trkpt lat="22.7280160" lon="120.3060800">
    <ele>15.6</ele>
    <time>2026-09-14T08:09:22Z</time>
   </trkpt>
   <trkpt lat="22.7280400" lon="120.3060870">
    <ele>15.6</ele>
    <time>2026-09-14T08:09:23Z</time>
   </trkpt>
   <trkpt lat="22.7280640" lon="120.3060940">
    <ele>15.5</ele>
    <time>2026-09-14T08:09:24Z</time>
   </trkpt>
   <trkpt lat="22.7280770" lon="120.3061090">
    <ele>15.5</ele>
    <time>2026-09-14T08:09:25Z</time>
   </trkpt>
   <trkpt lat="22.7280990" lon="120.3061130">
    <ele>15.4</ele>
    <time>2026-09-14T08:09:26Z</time>
   </trkpt>
   <trkpt lat="22.7281180" lon="120.3061160">
    <ele>15.4</ele>
    <time>2026-09-14T08:09:27Z</time>
   </trkpt>
   <trkpt lat="22.7281320" lon="120.3061190">
    <ele>15.3</ele>
    <time>2026-09-14T08:09:28Z</time>
   </trkpt>
   <trkpt lat="22.7281530" lon="120.3061170">
    <ele>15.3</ele>
    <time>2026-09-14T08:09:29Z</time>
   </trkpt>
   <trkpt lat="22.7281670" lon="120.3061190">
    <ele>15.3</ele>
    <time>2026-09-14T08:09:30Z</time>
   </trkpt>
   <trkpt lat="22.7281760" lon="120.3061130">
    <ele>15.2</ele>
    <time>2026-09-14T08:09:31Z</time>
   </trkpt>
   <trkpt lat="22.7281790" lon="120.3061120">
    <ele>15.2</ele>
    <time>2026-09-14T08:09:32Z</time>
   </trkpt>
   <trkpt lat="22.7281790" lon="120.3061120">
    <ele>15.2</ele>
    <time>2026-09-14T08:09:33Z</time>
   </trkpt>
   <trkpt lat="22.7281820" lon="120.3060990">
    <ele>15.2</ele>
    <time>2026-09-14T08:09:34Z</time>
   </trkpt>
   <trkpt lat="22.7281860" lon="120.3060740">
    <ele>15.1</ele>
    <time>2026-09-14T08:09:35Z</time>
   </trkpt>
   <trkpt lat="22.7281980" lon="120.3060890">
    <ele>15.1</ele>
    <time>2026-09-14T08:09:36Z</time>
   </trkpt>
   <trkpt lat="22.7282010" lon="120.3060870">
    <ele>15.1</ele>
    <time>2026-09-14T08:09:37Z</time>
   </trkpt>
   <trkpt lat="22.7281960" lon="120.3060880">
    <ele>15.2</ele>
    <time>2026-09-14T08:09:38Z</time>
   </trkpt>
   <trkpt lat="22.7281770" lon="120.3060670">
    <ele>15.5</ele>
    <time>2026-09-14T08:09:39Z</time>
   </trkpt>
   <trkpt lat="22.7281730" lon="120.3060380">
    <ele>15.8</ele>
    <time>2026-09-14T08:09:40Z</time>
   </trkpt>
   <trkpt lat="22.7281600" lon="120.3060150">
    <ele>16.0</ele>
    <time>2026-09-14T08:09:41Z</time>
   </trkpt>
   <trkpt lat="22.7281640" lon="120.3060070">
    <ele>16.1</ele>
    <time>2026-09-14T08:09:42Z</time>
   </trkpt>
   <trkpt lat="22.7281690" lon="120.3060000">
    <ele>16.2</ele>
    <time>2026-09-14T08:09:43Z</time>
   </trkpt>
   <trkpt lat="22.7281670" lon="120.3059880">
    <ele>16.3</ele>
    <time>2026-09-14T08:09:44Z</time>
   </trkpt>
   <trkpt lat="22.7281670" lon="120.3059810">
    <ele>16.4</ele>
    <time>2026-09-14T08:09:45Z</time>
   </trkpt>
   <trkpt lat="22.7281720" lon="120.3059680">
    <ele>16.6</ele>
    <time>2026-09-14T08:09:46Z</time>
   </trkpt>
   <trkpt lat="22.7281810" lon="120.3059480">
    <ele>16.8</ele>
    <time>2026-09-14T08:09:47Z</time>
   </trkpt>
   <trkpt lat="22.7281830" lon="120.3059350">
    <ele>16.9</ele>
    <time>2026-09-14T08:09:48Z</time>
   </trkpt>
   <trkpt lat="22.7281840" lon="120.3059130">
    <ele>17.2</ele>
    <time>2026-09-14T08:09:49Z</time>
   </trkpt>
   <trkpt lat="22.7281910" lon="120.3058680">
    <ele>17.6</ele>
    <time>2026-09-14T08:09:50Z</time>
   </trkpt>
   <trkpt lat="22.7281920" lon="120.3058450">
    <ele>17.9</ele>
    <time>2026-09-14T08:09:51Z</time>
   </trkpt>
   <trkpt lat="22.7281900" lon="120.3058000">
    <ele>18.4</ele>
    <time>2026-09-14T08:09:52Z</time>
   </trkpt>
   <trkpt lat="22.7281990" lon="120.3057770">
    <ele>18.6</ele>
    <time>2026-09-14T08:09:53Z</time>
   </trkpt>
   <trkpt lat="22.7282070" lon="120.3057620">
    <ele>18.8</ele>
    <time>2026-09-14T08:09:54Z</time>
   </trkpt>
   <trkpt lat="22.7282190" lon="120.3057630">
    <ele>19.0</ele>
    <time>2026-09-14T08:09:55Z</time>
   </trkpt>
   <trkpt lat="22.7281990" lon="120.3057970">
    <ele>18.7</ele>
    <time>2026-09-14T08:09:56Z</time>
   </trkpt>
   <trkpt lat="22.7282320" lon="120.3058080">
    <ele>18.6</ele>
    <time>2026-09-14T08:09:57Z</time>
   </trkpt>
   <trkpt lat="22.7282400" lon="120.3058420">
    <ele>18.4</ele>
    <time>2026-09-14T08:09:58Z</time>
   </trkpt>
   <trkpt lat="22.7282380" lon="120.3058620">
    <ele>18.3</ele>
    <time>2026-09-14T08:09:59Z</time>
   </trkpt>
   <trkpt lat="22.7281970" lon="120.3058680">
    <ele>18.0</ele>
    <time>2026-09-14T08:10:00Z</time>
   </trkpt>
   <trkpt lat="22.7281260" lon="120.3058900">
    <ele>17.6</ele>
    <time>2026-09-14T08:10:01Z</time>
   </trkpt>
   <trkpt lat="22.7280720" lon="120.3058910">
    <ele>17.3</ele>
    <time>2026-09-14T08:10:02Z</time>
   </trkpt>
   <trkpt lat="22.7280790" lon="120.3059430">
    <ele>17.0</ele>
    <time>2026-09-14T08:10:04Z</time>
   </trkpt>
   <trkpt lat="22.7280920" lon="120.3060300">
    <ele>16.6</ele>
    <time>2026-09-14T08:10:05Z</time>
   </trkpt>
   <trkpt lat="22.7281050" lon="120.3061170">
    <ele>16.2</ele>
    <time>2026-09-14T08:10:06Z</time>
   </trkpt>
   <trkpt lat="22.7281420" lon="120.3061180">
    <ele>16.0</ele>
    <time>2026-09-14T08:10:07Z</time>
   </trkpt>
   <trkpt lat="22.7282510" lon="120.3061250">
    <ele>15.4</ele>
    <time>2026-09-14T08:10:08Z</time>
   </trkpt>
   <trkpt lat="22.7282610" lon="120.3061530">
    <ele>15.2</ele>
    <time>2026-09-14T08:10:09Z</time>
   </trkpt>
   <trkpt lat="22.7282710" lon="120.3061810">
    <ele>15.1</ele>
    <time>2026-09-14T08:10:10Z</time>
   </trkpt>
   <trkpt lat="22.7282470" lon="120.3061930">
    <ele>15.1</ele>
    <time>2026-09-14T08:10:11Z</time>
   </trkpt>
   <trkpt lat="22.7282390" lon="120.3061900">
    <ele>15.1</ele>
    <time>2026-09-14T08:10:12Z</time>
   </trkpt>
   <trkpt lat="22.7282020" lon="120.3061970">
    <ele>15.2</ele>
    <time>2026-09-14T08:10:13Z</time>
   </trkpt>
   <trkpt lat="22.7282030" lon="120.3061900">
    <ele>15.2</ele>
    <time>2026-09-14T08:10:14Z</time>
   </trkpt>
   <trkpt lat="22.7281930" lon="120.3062000">
    <ele>15.2</ele>
    <time>2026-09-14T08:10:15Z</time>
   </trkpt>
   <trkpt lat="22.7281560" lon="120.3061970">
    <ele>15.2</ele>
    <time>2026-09-14T08:10:16Z</time>
   </trkpt>
   <trkpt lat="22.7281430" lon="120.3062050">
    <ele>15.2</ele>
    <time>2026-09-14T08:10:17Z</time>
   </trkpt>
   <trkpt lat="22.7281810" lon="120.3062270">
    <ele>15.2</ele>
    <time>2026-09-14T08:10:18Z</time>
   </trkpt>
   <trkpt lat="22.7281810" lon="120.3062400">
    <ele>15.2</ele>
    <time>2026-09-14T08:10:19Z</time>
   </trkpt>
   <trkpt lat="22.7282100" lon="120.3062480">
    <ele>15.2</ele>
    <time>2026-09-14T08:10:20Z</time>
   </trkpt>
   <trkpt lat="22.7281810" lon="120.3062730">
    <ele>15.2</ele>
    <time>2026-09-14T08:10:21Z</time>
   </trkpt>
   <trkpt lat="22.7282060" lon="120.3062430">
    <ele>15.2</ele>
    <time>2026-09-14T08:10:22Z</time>
   </trkpt>
   <trkpt lat="22.7282200" lon="120.3062580">
    <ele>15.2</ele>
    <time>2026-09-14T08:10:23Z</time>
   </trkpt>
   <trkpt lat="22.7282180" lon="120.3062560">
    <ele>15.2</ele>
    <time>2026-09-14T08:10:24Z</time>
   </trkpt>
   <trkpt lat="22.7282110" lon="120.3062530">
    <ele>15.2</ele>
    <time>2026-09-14T08:10:25Z</time>
   </trkpt>
   <trkpt lat="22.7282150" lon="120.3062390">
    <ele>15.2</ele>
    <time>2026-09-14T08:10:26Z</time>
   </trkpt>
   <trkpt lat="22.7282140" lon="120.3062340">
    <ele>15.2</ele>
    <time>2026-09-14T08:10:27Z</time>
   </trkpt>
   <trkpt lat="22.7282200" lon="120.3062190">
    <ele>15.2</ele>
    <time>2026-09-14T08:10:28Z</time>
   </trkpt>
   <trkpt lat="22.7282240" lon="120.3062100">
    <ele>15.2</ele>
    <time>2026-09-14T08:10:29Z</time>
   </trkpt>
   <trkpt lat="22.7282270" lon="120.3062090">
    <ele>15.2</ele>
    <time>2026-09-14T08:10:30Z</time>
   </trkpt>
   <trkpt lat="22.7282130" lon="120.3061890">
    <ele>15.2</ele>
    <time>2026-09-14T08:10:31Z</time>
   </trkpt>
   <trkpt lat="22.7282170" lon="120.3061760">
    <ele>15.2</ele>
    <time>2026-09-14T08:10:32Z</time>
   </trkpt>
   <trkpt lat="22.7282120" lon="120.3061780">
    <ele>15.2</ele>
    <time>2026-09-14T08:10:33Z</time>
   </trkpt>
   <trkpt lat="22.7282130" lon="120.3061640">
    <ele>15.2</ele>
    <time>2026-09-14T08:10:34Z</time>
   </trkpt>
   <trkpt lat="22.7282210" lon="120.3061570">
    <ele>15.2</ele>
    <time>2026-09-14T08:10:35Z</time>
   </trkpt>
   <trkpt lat="22.7282210" lon="120.3061570">
    <ele>15.2</ele>
    <time>2026-09-14T08:10:36Z</time>
   </trkpt>
   <trkpt lat="22.7282040" lon="120.3061620">
    <ele>15.2</ele>
    <time>2026-09-14T08:10:37Z</time>
   </trkpt>
   <trkpt lat="22.7282030" lon="120.3061520">
    <ele>15.2</ele>
    <time>2026-09-14T08:10:38Z</time>
   </trkpt>
   <trkpt lat="22.7281810" lon="120.3061700">
    <ele>15.3</ele>
    <time>2026-09-14T08:10:39Z</time>
   </trkpt>
   <trkpt lat="22.7281620" lon="120.3061750">
    <ele>15.3</ele>
    <time>2026-09-14T08:10:40Z</time>
   </trkpt>
   <trkpt lat="22.7281600" lon="120.3062250">
    <ele>15.3</ele>
    <time>2026-09-14T08:10:41Z</time>
   </trkpt>
   <trkpt lat="22.7281930" lon="120.3062630">
    <ele>15.3</ele>
    <time>2026-09-14T08:10:42Z</time>
   </trkpt>
   <trkpt lat="22.7281590" lon="120.3062790">
    <ele>15.3</ele>
    <time>2026-09-14T08:10:43Z</time>
   </trkpt>
   <trkpt lat="22.7281240" lon="120.3062950">
    <ele>15.3</ele>
    <time>2026-09-14T08:10:44Z</time>
   </trkpt>
   <trkpt lat="22.7281010" lon="120.3063010">
    <ele>15.3</ele>
    <time>2026-09-14T08:10:45Z</time>
   </trkpt>
   <trkpt lat="22.7281120" lon="120.3062410">
    <ele>15.3</ele>
    <time>2026-09-14T08:10:46Z</time>
   </trkpt>
   <trkpt lat="22.7280590" lon="120.3062610">
    <ele>15.3</ele>
    <time>2026-09-14T08:10:47Z</time>
   </trkpt>
   <trkpt lat="22.7281440" lon="120.3062390">
    <ele>15.4</ele>
    <time>2026-09-14T08:10:48Z</time>
   </trkpt>
   <trkpt lat="22.7282030" lon="120.3061690">
    <ele>15.2</ele>
    <time>2026-09-14T08:10:49Z</time>
   </trkpt>
   <trkpt lat="22.7282380" lon="120.3061820">
    <ele>15.1</ele>
    <time>2026-09-14T08:10:50Z</time>
   </trkpt>
   <trkpt lat="22.7282660" lon="120.3061490">
    <ele>15.1</ele>
    <time>2026-09-14T08:10:51Z</time>
   </trkpt>
   <trkpt lat="22.7282800" lon="120.3061800">
    <ele>15.1</ele>
    <time>2026-09-14T08:10:52Z</time>
   </trkpt>
   <trkpt lat="22.7282820" lon="120.3061710">
    <ele>15.1</ele>
    <time>2026-09-14T08:10:53Z</time>
   </trkpt>
   <trkpt lat="22.7282770" lon="120.3061830">
    <ele>15.1</ele>
    <time>2026-09-14T08:10:54Z</time>
   </trkpt>
   <trkpt lat="22.7282840" lon="120.3061840">
    <ele>15.1</ele>
    <time>2026-09-14T08:10:55Z</time>
   </trkpt>
   <trkpt lat="22.7282900" lon="120.3061780">
    <ele>15.1</ele>
    <time>2026-09-14T08:10:56Z</time>
   </trkpt>
   <trkpt lat="22.7282780" lon="120.3061620">
    <ele>15.1</ele>
    <time>2026-09-14T08:10:57Z</time>
   </trkpt>
   <trkpt lat="22.7282760" lon="120.3061460">
    <ele>15.1</ele>
    <time>2026-09-14T08:10:58Z</time>
   </trkpt>
   <trkpt lat="22.7282720" lon="120.3061430">
    <ele>15.1</ele>
    <time>2026-09-14T08:10:59Z</time>
   </trkpt>
   <trkpt lat="22.7282710" lon="120.3061290">
    <ele>15.1</ele>
    <time>2026-09-14T08:11:00Z</time>
   </trkpt>
   <trkpt lat="22.7282680" lon="120.3061320">
    <ele>15.1</ele>
    <time>2026-09-14T08:11:01Z</time>
   </trkpt>
   <trkpt lat="22.7282810" lon="120.3061170">
    <ele>15.1</ele>
    <time>2026-09-14T08:11:02Z</time>
   </trkpt>
   <trkpt lat="22.7282820" lon="120.3061090">
    <ele>15.1</ele>
    <time>2026-09-14T08:11:03Z</time>
   </trkpt>
   <trkpt lat="22.7282820" lon="120.3061100">
    <ele>15.1</ele>
    <time>2026-09-14T08:11:04Z</time>
   </trkpt>
   <trkpt lat="22.7283150" lon="120.3061110">
    <ele>15.1</ele>
    <time>2026-09-14T08:11:06Z</time>
   </trkpt>
   <trkpt lat="22.7283050" lon="120.3060600">
    <ele>15.1</ele>
    <time>2026-09-14T08:11:07Z</time>
   </trkpt>
   <trkpt lat="22.7283040" lon="120.3060380">
    <ele>15.1</ele>
    <time>2026-09-14T08:11:08Z</time>
   </trkpt>
   <trkpt lat="22.7283060" lon="120.3060600">
    <ele>15.1</ele>
    <time>2026-09-14T08:11:09Z</time>
   </trkpt>
   <trkpt lat="22.7283060" lon="120.3060600">
    <ele>15.1</ele>
    <time>2026-09-14T08:11:10Z</time>
   </trkpt>
   <trkpt lat="22.7283060" lon="120.3060600">
    <ele>15.1</ele>
    <time>2026-09-14T08:11:11Z</time>
   </trkpt>
   <trkpt lat="22.7283070" lon="120.3060730">
    <ele>15.0</ele>
    <time>2026-09-14T08:11:12Z</time>
   </trkpt>
   <trkpt lat="22.7283090" lon="120.3060850">
    <ele>15.0</ele>
    <time>2026-09-14T08:11:13Z</time>
   </trkpt>
   <trkpt lat="22.7283100" lon="120.3060980">
    <ele>15.0</ele>
    <time>2026-09-14T08:11:14Z</time>
   </trkpt>
   <trkpt lat="22.7283140" lon="120.3061150">
    <ele>15.0</ele>
    <time>2026-09-14T08:11:15Z</time>
   </trkpt>
   <trkpt lat="22.7283110" lon="120.3061410">
    <ele>15.0</ele>
    <time>2026-09-14T08:11:16Z</time>
   </trkpt>
   <trkpt lat="22.7283100" lon="120.3061410">
    <ele>15.0</ele>
    <time>2026-09-14T08:11:17Z</time>
   </trkpt>
   <trkpt lat="22.7282870" lon="120.3061250">
    <ele>15.0</ele>
    <time>2026-09-14T08:11:18Z</time>
   </trkpt>
   <trkpt lat="22.7282840" lon="120.3060950">
    <ele>15.0</ele>
    <time>2026-09-14T08:11:19Z</time>
   </trkpt>
   <trkpt lat="22.7282900" lon="120.3060840">
    <ele>15.0</ele>
    <time>2026-09-14T08:11:20Z</time>
   </trkpt>
   <trkpt lat="22.7282870" lon="120.3060830">
    <ele>15.0</ele>
    <time>2026-09-14T08:11:21Z</time>
   </trkpt>
   <trkpt lat="22.7282970" lon="120.3060840">
    <ele>15.0</ele>
    <time>2026-09-14T08:11:22Z</time>
   </trkpt>
   <trkpt lat="22.7283240" lon="120.3060830">
    <ele>15.0</ele>
    <time>2026-09-14T08:11:23Z</time>
   </trkpt>
   <trkpt lat="22.7282840" lon="120.3060560">
    <ele>15.0</ele>
    <time>2026-09-14T08:11:24Z</time>
   </trkpt>
   <trkpt lat="22.7282450" lon="120.3060290">
    <ele>15.1</ele>
    <time>2026-09-14T08:11:25Z</time>
   </trkpt>
   <trkpt lat="22.7282050" lon="120.3060020">
    <ele>15.1</ele>
    <time>2026-09-14T08:11:26Z</time>
   </trkpt>
   <trkpt lat="22.7282030" lon="120.3059190">
    <ele>16.4</ele>
    <time>2026-09-14T08:11:27Z</time>
   </trkpt>
   <trkpt lat="22.7282350" lon="120.3058740">
    <ele>16.4</ele>
    <time>2026-09-14T08:11:28Z</time>
   </trkpt>
   <trkpt lat="22.7282310" lon="120.3058530">
    <ele>16.4</ele>
    <time>2026-09-14T08:11:29Z</time>
   </trkpt>
   <trkpt lat="22.7282470" lon="120.3059520">
    <ele>16.4</ele>
    <time>2026-09-14T08:11:30Z</time>
   </trkpt>
   <trkpt lat="22.7282630" lon="120.3060510">
    <ele>15.1</ele>
    <time>2026-09-14T08:11:31Z</time>
   </trkpt>
   <trkpt lat="22.7282750" lon="120.3060510">
    <ele>15.1</ele>
    <time>2026-09-14T08:11:32Z</time>
   </trkpt>
   <trkpt lat="22.7282870" lon="120.3060520">
    <ele>15.1</ele>
    <time>2026-09-14T08:11:33Z</time>
   </trkpt>
   <trkpt lat="22.7282910" lon="120.3060530">
    <ele>15.1</ele>
    <time>2026-09-14T08:11:34Z</time>
   </trkpt>
   <trkpt lat="22.7282860" lon="120.3060530">
    <ele>15.1</ele>
    <time>2026-09-14T08:11:35Z</time>
   </trkpt>
   <trkpt lat="22.7282930" lon="120.3060540">
    <ele>15.1</ele>
    <time>2026-09-14T08:11:36Z</time>
   </trkpt>
   <trkpt lat="22.7282920" lon="120.3060540">
    <ele>15.1</ele>
    <time>2026-09-14T08:11:37Z</time>
   </trkpt>
   <trkpt lat="22.7282910" lon="120.3060630">
    <ele>15.1</ele>
    <time>2026-09-14T08:11:38Z</time>
   </trkpt>
   <trkpt lat="22.7281100" lon="120.3060760">
    <ele>15.4</ele>
    <time>2026-09-14T08:12:56Z</time>
   </trkpt>
   <trkpt lat="22.7281130" lon="120.3060720">
    <ele>15.4</ele>
    <time>2026-09-14T08:12:57Z</time>
   </trkpt>
   <trkpt lat="22.7281130" lon="120.3060720">
    <ele>15.4</ele>
    <time>2026-09-14T08:12:58Z</time>
   </trkpt>
   <trkpt lat="22.7281160" lon="120.3060670">
    <ele>15.4</ele>
    <time>2026-09-14T08:12:59Z</time>
   </trkpt>
   <trkpt lat="22.7281200" lon="120.3060660">
    <ele>15.4</ele>
    <time>2026-09-14T08:13:00Z</time>
   </trkpt>
   <trkpt lat="22.7281200" lon="120.3060640">
    <ele>15.4</ele>
    <time>2026-09-14T08:13:01Z</time>
   </trkpt>
   <trkpt lat="22.7281180" lon="120.3060620">
    <ele>15.4</ele>
    <time>2026-09-14T08:13:02Z</time>
   </trkpt>
   <trkpt lat="22.7281190" lon="120.3060620">
    <ele>15.4</ele>
    <time>2026-09-14T08:13:03Z</time>
   </trkpt>
   <trkpt lat="22.7281200" lon="120.3060610">
    <ele>15.4</ele>
    <time>2026-09-14T08:13:04Z</time>
   </trkpt>
   <trkpt lat="22.7281190" lon="120.3060600">
    <ele>15.4</ele>
    <time>2026-09-14T08:13:05Z</time>
   </trkpt>
   <trkpt lat="22.7282940" lon="120.3060450">
    <ele>15.0</ele>
    <time>2026-09-14T08:13:48Z</time>
   </trkpt>
   <trkpt lat="22.7283060" lon="120.3060400">
    <ele>15.0</ele>
    <time>2026-09-14T08:13:49Z</time>
   </trkpt>
   <trkpt lat="22.7283270" lon="120.3060460">
    <ele>15.0</ele>
    <time>2026-09-14T08:13:50Z</time>
   </trkpt>
   <trkpt lat="22.7283400" lon="120.3060540">
    <ele>15.0</ele>
    <time>2026-09-14T08:13:51Z</time>
   </trkpt>
   <trkpt lat="22.7283380" lon="120.3060650">
    <ele>15.0</ele>
    <time>2026-09-14T08:13:52Z</time>
   </trkpt>
   <trkpt lat="22.7283420" lon="120.3060730">
    <ele>15.0</ele>
    <time>2026-09-14T08:13:53Z</time>
   </trkpt>
   <trkpt lat="22.7283450" lon="120.3060780">
    <ele>15.0</ele>
    <time>2026-09-14T08:13:54Z</time>
   </trkpt>
   <trkpt lat="22.7283740" lon="120.3060780">
    <ele>15.0</ele>
    <time>2026-09-14T08:13:55Z</time>
   </trkpt>
   <trkpt lat="22.7283820" lon="120.3060700">
    <ele>15.0</ele>
    <time>2026-09-14T08:13:56Z</time>
   </trkpt>
   <trkpt lat="22.7283920" lon="120.3060630">
    <ele>15.0</ele>
    <time>2026-09-14T08:13:57Z</time>
   </trkpt>
   <trkpt lat="22.7284020" lon="120.3060570">
    <ele>15.0</ele>
    <time>2026-09-14T08:13:58Z</time>
   </trkpt>
   <trkpt lat="22.7284200" lon="120.3060470">
    <ele>15.0</ele>
    <time>2026-09-14T08:13:59Z</time>
   </trkpt>
   <trkpt lat="22.7284390" lon="120.3060380">
    <ele>14.9</ele>
    <time>2026-09-14T08:14:00Z</time>
   </trkpt>
   <trkpt lat="22.7284770" lon="120.3060210">
    <ele>14.9</ele>
    <time>2026-09-14T08:14:01Z</time>
   </trkpt>
   <trkpt lat="22.7285010" lon="120.3060050">
    <ele>14.9</ele>
    <time>2026-09-14T08:14:02Z</time>
   </trkpt>
   <trkpt lat="22.7285190" lon="120.3059950">
    <ele>14.9</ele>
    <time>2026-09-14T08:14:03Z</time>
   </trkpt>
   <trkpt lat="22.7285410" lon="120.3060040">
    <ele>14.9</ele>
    <time>2026-09-14T08:14:04Z</time>
   </trkpt>
   <trkpt lat="22.7285420" lon="120.3060200">
    <ele>14.9</ele>
    <time>2026-09-14T08:14:05Z</time>
   </trkpt>
   <trkpt lat="22.7285310" lon="120.3060430">
    <ele>14.9</ele>
    <time>2026-09-14T08:14:06Z</time>
   </trkpt>
   <trkpt lat="22.7285130" lon="120.3060580">
    <ele>14.9</ele>
    <time>2026-09-14T08:14:07Z</time>
   </trkpt>
   <trkpt lat="22.7285110" lon="120.3060680">
    <ele>14.9</ele>
    <time>2026-09-14T08:14:08Z</time>
   </trkpt>
   <trkpt lat="22.7285130" lon="120.3060600">
    <ele>14.9</ele>
    <time>2026-09-14T08:14:09Z</time>
   </trkpt>
   <trkpt lat="22.7285120" lon="120.3060540">
    <ele>14.9</ele>
    <time>2026-09-14T08:14:10Z</time>
   </trkpt>
   <trkpt lat="22.7285100" lon="120.3060560">
    <ele>14.9</ele>
    <time>2026-09-14T08:14:11Z</time>
   </trkpt>
   <trkpt lat="22.7285000" lon="120.3060640">
    <ele>14.9</ele>
    <time>2026-09-14T08:14:12Z</time>
   </trkpt>
   <trkpt lat="22.7285160" lon="120.3060640">
    <ele>14.8</ele>
    <time>2026-09-14T08:14:13Z</time>
   </trkpt>
   <trkpt lat="22.7285320" lon="120.3060660">
    <ele>14.8</ele>
    <time>2026-09-14T08:14:14Z</time>
   </trkpt>
   <trkpt lat="22.7285430" lon="120.3060660">
    <ele>14.8</ele>
    <time>2026-09-14T08:14:15Z</time>
   </trkpt>
   <trkpt lat="22.7285400" lon="120.3060670">
    <ele>14.8</ele>
    <time>2026-09-14T08:14:16Z</time>
   </trkpt>
   <trkpt lat="22.7285360" lon="120.3060750">
    <ele>14.8</ele>
    <time>2026-09-14T08:14:17Z</time>
   </trkpt>
   <trkpt lat="22.7285350" lon="120.3060780">
    <ele>14.8</ele>
    <time>2026-09-14T08:14:18Z</time>
   </trkpt>
   <trkpt lat="22.7285360" lon="120.3060740">
    <ele>14.8</ele>
    <time>2026-09-14T08:14:19Z</time>
   </trkpt>
   <trkpt lat="22.7285450" lon="120.3060670">
    <ele>14.8</ele>
    <time>2026-09-14T08:14:20Z</time>
   </trkpt>
   <trkpt lat="22.7285410" lon="120.3060590">
    <ele>14.8</ele>
    <time>2026-09-14T08:14:21Z</time>
   </trkpt>
   <trkpt lat="22.7285470" lon="120.3060370">
    <ele>14.8</ele>
    <time>2026-09-14T08:14:22Z</time>
   </trkpt>
   <trkpt lat="22.7285720" lon="120.3060280">
    <ele>14.8</ele>
    <time>2026-09-14T08:14:23Z</time>
   </trkpt>
   <trkpt lat="22.7285800" lon="120.3060220">
    <ele>14.8</ele>
    <time>2026-09-14T08:14:24Z</time>
   </trkpt>
   <trkpt lat="22.7285770" lon="120.3060320">
    <ele>14.8</ele>
    <time>2026-09-14T08:14:25Z</time>
   </trkpt>
   <trkpt lat="22.7285780" lon="120.3060410">
    <ele>14.8</ele>
    <time>2026-09-14T08:14:26Z</time>
   </trkpt>
   <trkpt lat="22.7285940" lon="120.3060360">
    <ele>14.8</ele>
    <time>2026-09-14T08:14:27Z</time>
   </trkpt>
   <trkpt lat="22.7286090" lon="120.3060290">
    <ele>14.8</ele>
    <time>2026-09-14T08:14:28Z</time>
   </trkpt>
   <trkpt lat="22.7286160" lon="120.3060290">
    <ele>14.8</ele>
    <time>2026-09-14T08:14:29Z</time>
   </trkpt>
   <trkpt lat="22.7286240" lon="120.3060210">
    <ele>14.8</ele>
    <time>2026-09-14T08:14:30Z</time>
   </trkpt>
   <trkpt lat="22.7286210" lon="120.3060210">
    <ele>14.8</ele>
    <time>2026-09-14T08:14:31Z</time>
   </trkpt>
   <trkpt lat="22.7286240" lon="120.3060420">
    <ele>14.8</ele>
    <time>2026-09-14T08:14:32Z</time>
   </trkpt>
   <trkpt lat="22.7286130" lon="120.3060570">
    <ele>14.7</ele>
    <time>2026-09-14T08:14:33Z</time>
   </trkpt>
   <trkpt lat="22.7286130" lon="120.3060490">
    <ele>14.7</ele>
    <time>2026-09-14T08:14:34Z</time>
   </trkpt>
   <trkpt lat="22.7286150" lon="120.3060410">
    <ele>14.7</ele>
    <time>2026-09-14T08:14:35Z</time>
   </trkpt>
   <trkpt lat="22.7286160" lon="120.3060480">
    <ele>14.7</ele>
    <time>2026-09-14T08:14:36Z</time>
   </trkpt>
   <trkpt lat="22.7286240" lon="120.3060520">
    <ele>14.7</ele>
    <time>2026-09-14T08:14:37Z</time>
   </trkpt>
   <trkpt lat="22.7286320" lon="120.3060490">
    <ele>14.7</ele>
    <time>2026-09-14T08:14:38Z</time>
   </trkpt>
   <trkpt lat="22.7286430" lon="120.3060480">
    <ele>14.7</ele>
    <time>2026-09-14T08:14:39Z</time>
   </trkpt>
   <trkpt lat="22.7286580" lon="120.3060550">
    <ele>14.7</ele>
    <time>2026-09-14T08:14:40Z</time>
   </trkpt>
   <trkpt lat="22.7286590" lon="120.3060770">
    <ele>14.7</ele>
    <time>2026-09-14T08:14:41Z</time>
   </trkpt>
   <trkpt lat="22.7286530" lon="120.3061000">
    <ele>14.7</ele>
    <time>2026-09-14T08:14:42Z</time>
   </trkpt>
   <trkpt lat="22.7286540" lon="120.3061080">
    <ele>14.7</ele>
    <time>2026-09-14T08:14:43Z</time>
   </trkpt>
   <trkpt lat="22.7286550" lon="120.3061140">
    <ele>14.7</ele>
    <time>2026-09-14T08:14:44Z</time>
   </trkpt>
   <trkpt lat="22.7286560" lon="120.3061070">
    <ele>14.7</ele>
    <time>2026-09-14T08:14:45Z</time>
   </trkpt>
   <trkpt lat="22.7286690" lon="120.3060980">
    <ele>14.6</ele>
    <time>2026-09-14T08:14:46Z</time>
   </trkpt>
   <trkpt lat="22.7286740" lon="120.3060940">
    <ele>14.6</ele>
    <time>2026-09-14T08:14:47Z</time>
   </trkpt>
   <trkpt lat="22.7286770" lon="120.3060880">
    <ele>14.6</ele>
    <time>2026-09-14T08:14:48Z</time>
   </trkpt>
   <trkpt lat="22.7286900" lon="120.3060940">
    <ele>14.6</ele>
    <time>2026-09-14T08:14:49Z</time>
   </trkpt>
   <trkpt lat="22.7286960" lon="120.3060980">
    <ele>14.6</ele>
    <time>2026-09-14T08:14:50Z</time>
   </trkpt>
   <trkpt lat="22.7286940" lon="120.3061070">
    <ele>14.6</ele>
    <time>2026-09-14T08:14:51Z</time>
   </trkpt>
   <trkpt lat="22.7286940" lon="120.3061130">
    <ele>14.6</ele>
    <time>2026-09-14T08:14:52Z</time>
   </trkpt>
   <trkpt lat="22.7286930" lon="120.3061240">
    <ele>14.6</ele>
    <time>2026-09-14T08:14:53Z</time>
   </trkpt>
   <trkpt lat="22.7286870" lon="120.3061330">
    <ele>14.6</ele>
    <time>2026-09-14T08:14:54Z</time>
   </trkpt>
   <trkpt lat="22.7286950" lon="120.3061330">
    <ele>14.6</ele>
    <time>2026-09-14T08:14:55Z</time>
   </trkpt>
   <trkpt lat="22.7287040" lon="120.3061200">
    <ele>14.6</ele>
    <time>2026-09-14T08:14:56Z</time>
   </trkpt>
   <trkpt lat="22.7287200" lon="120.3060980">
    <ele>14.6</ele>
    <time>2026-09-14T08:14:57Z</time>
   </trkpt>
   <trkpt lat="22.7287310" lon="120.3060950">
    <ele>14.5</ele>
    <time>2026-09-14T08:14:58Z</time>
   </trkpt>
   <trkpt lat="22.7287460" lon="120.3061000">
    <ele>14.5</ele>
    <time>2026-09-14T08:14:59Z</time>
   </trkpt>
   <trkpt lat="22.7287600" lon="120.3060980">
    <ele>14.5</ele>
    <time>2026-09-14T08:15:00Z</time>
   </trkpt>
   <trkpt lat="22.7287640" lon="120.3060900">
    <ele>14.5</ele>
    <time>2026-09-14T08:15:01Z</time>
   </trkpt>
   <trkpt lat="22.7287750" lon="120.3060900">
    <ele>14.5</ele>
    <time>2026-09-14T08:15:02Z</time>
   </trkpt>
   <trkpt lat="22.7287860" lon="120.3060860">
    <ele>14.5</ele>
    <time>2026-09-14T08:15:03Z</time>
   </trkpt>
   <trkpt lat="22.7287970" lon="120.3060880">
    <ele>14.5</ele>
    <time>2026-09-14T08:15:04Z</time>
   </trkpt>
   <trkpt lat="22.7288130" lon="120.3060960">
    <ele>14.4</ele>
    <time>2026-09-14T08:15:05Z</time>
   </trkpt>
   <trkpt lat="22.7288290" lon="120.3061000">
    <ele>14.4</ele>
    <time>2026-09-14T08:15:06Z</time>
   </trkpt>
   <trkpt lat="22.7288520" lon="120.3061030">
    <ele>14.3</ele>
    <time>2026-09-14T08:15:07Z</time>
   </trkpt>
   <trkpt lat="22.7288620" lon="120.3061050">
    <ele>14.3</ele>
    <time>2026-09-14T08:15:08Z</time>
   </trkpt>
   <trkpt lat="22.7288740" lon="120.3061000">
    <ele>14.2</ele>
    <time>2026-09-14T08:15:09Z</time>
   </trkpt>
   <trkpt lat="22.7288880" lon="120.3061000">
    <ele>14.2</ele>
    <time>2026-09-14T08:15:10Z</time>
   </trkpt>
   <trkpt lat="22.7289010" lon="120.3061010">
    <ele>14.1</ele>
    <time>2026-09-14T08:15:11Z</time>
   </trkpt>
   <trkpt lat="22.7289140" lon="120.3061010">
    <ele>14.1</ele>
    <time>2026-09-14T08:15:12Z</time>
   </trkpt>
   <trkpt lat="22.7289300" lon="120.3061010">
    <ele>14.0</ele>
    <time>2026-09-14T08:15:13Z</time>
   </trkpt>
   <trkpt lat="22.7289430" lon="120.3061000">
    <ele>14.0</ele>
    <time>2026-09-14T08:15:14Z</time>
   </trkpt>
   <trkpt lat="22.7289570" lon="120.3061000">
    <ele>14.0</ele>
    <time>2026-09-14T08:15:15Z</time>
   </trkpt>
   <trkpt lat="22.7289690" lon="120.3060940">
    <ele>13.9</ele>
    <time>2026-09-14T08:15:16Z</time>
   </trkpt>
   <trkpt lat="22.7289840" lon="120.3060850">
    <ele>13.9</ele>
    <time>2026-09-14T08:15:17Z</time>
   </trkpt>
   <trkpt lat="22.7289980" lon="120.3060720">
    <ele>13.8</ele>
    <time>2026-09-14T08:15:18Z</time>
   </trkpt>
   <trkpt lat="22.7290130" lon="120.3060690">
    <ele>13.8</ele>
    <time>2026-09-14T08:15:19Z</time>
   </trkpt>
   <trkpt lat="22.7290250" lon="120.3060520">
    <ele>13.7</ele>
    <time>2026-09-14T08:15:20Z</time>
   </trkpt>
   <trkpt lat="22.7290360" lon="120.3060390">
    <ele>13.7</ele>
    <time>2026-09-14T08:15:21Z</time>
   </trkpt>
   <trkpt lat="22.7290500" lon="120.3060420">
    <ele>13.6</ele>
    <time>2026-09-14T08:15:22Z</time>
   </trkpt>
   <trkpt lat="22.7290640" lon="120.3060530">
    <ele>13.6</ele>
    <time>2026-09-14T08:15:23Z</time>
   </trkpt>
   <trkpt lat="22.7290760" lon="120.3060640">
    <ele>13.5</ele>
    <time>2026-09-14T08:15:24Z</time>
   </trkpt>
   <trkpt lat="22.7290880" lon="120.3060780">
    <ele>13.5</ele>
    <time>2026-09-14T08:15:25Z</time>
   </trkpt>
   <trkpt lat="22.7290970" lon="120.3060890">
    <ele>13.4</ele>
    <time>2026-09-14T08:15:26Z</time>
   </trkpt>
   <trkpt lat="22.7291090" lon="120.3060950">
    <ele>13.4</ele>
    <time>2026-09-14T08:15:27Z</time>
   </trkpt>
   <trkpt lat="22.7291220" lon="120.3061000">
    <ele>13.4</ele>
    <time>2026-09-14T08:15:28Z</time>
   </trkpt>
   <trkpt lat="22.7291270" lon="120.3061050">
    <ele>13.3</ele>
    <time>2026-09-14T08:15:29Z</time>
   </trkpt>
   <trkpt lat="22.7291290" lon="120.3061040">
    <ele>13.3</ele>
    <time>2026-09-14T08:15:30Z</time>
   </trkpt>
   <trkpt lat="22.7291210" lon="120.3061100">
    <ele>13.3</ele>
    <time>2026-09-14T08:15:31Z</time>
   </trkpt>
   <trkpt lat="22.7291230" lon="120.3061120">
    <ele>13.3</ele>
    <time>2026-09-14T08:15:32Z</time>
   </trkpt>
   <trkpt lat="22.7291250" lon="120.3061160">
    <ele>13.3</ele>
    <time>2026-09-14T08:15:33Z</time>
   </trkpt>
   <trkpt lat="22.7291380" lon="120.3061040">
    <ele>13.2</ele>
    <time>2026-09-14T08:15:34Z</time>
   </trkpt>
   <trkpt lat="22.7291610" lon="120.3060980">
    <ele>13.2</ele>
    <time>2026-09-14T08:15:35Z</time>
   </trkpt>
   <trkpt lat="22.7291680" lon="120.3060990">
    <ele>13.2</ele>
    <time>2026-09-14T08:15:36Z</time>
   </trkpt>
   <trkpt lat="22.7291690" lon="120.3061000">
    <ele>13.2</ele>
    <time>2026-09-14T08:15:37Z</time>
   </trkpt>
   <trkpt lat="22.7291860" lon="120.3060870">
    <ele>13.2</ele>
    <time>2026-09-14T08:15:38Z</time>
   </trkpt>
   <trkpt lat="22.7292030" lon="120.3060880">
    <ele>13.1</ele>
    <time>2026-09-14T08:15:39Z</time>
   </trkpt>
   <trkpt lat="22.7292580" lon="120.3060940">
    <ele>13.1</ele>
    <time>2026-09-14T08:15:41Z</time>
   </trkpt>
   <trkpt lat="22.7292390" lon="120.3060940">
    <ele>13.0</ele>
    <time>2026-09-14T08:15:42Z</time>
   </trkpt>
   <trkpt lat="22.7292060" lon="120.3060870">
    <ele>13.0</ele>
    <time>2026-09-14T08:15:43Z</time>
   </trkpt>
   <trkpt lat="22.7291840" lon="120.3060790">
    <ele>13.0</ele>
    <time>2026-09-14T08:15:44Z</time>
   </trkpt>
   <trkpt lat="22.7291520" lon="120.3060890">
    <ele>13.1</ele>
    <time>2026-09-14T08:15:45Z</time>
   </trkpt>
   <trkpt lat="22.7291290" lon="120.3060910">
    <ele>13.1</ele>
    <time>2026-09-14T08:15:46Z</time>
   </trkpt>
   <trkpt lat="22.7291230" lon="120.3060950">
    <ele>13.1</ele>
    <time>2026-09-14T08:15:47Z</time>
   </trkpt>
   <trkpt lat="22.7291250" lon="120.3061040">
    <ele>13.2</ele>
    <time>2026-09-14T08:15:48Z</time>
   </trkpt>
   <trkpt lat="22.7291380" lon="120.3061300">
    <ele>13.2</ele>
    <time>2026-09-14T08:15:49Z</time>
   </trkpt>
   <trkpt lat="22.7291370" lon="120.3061300">
    <ele>13.2</ele>
    <time>2026-09-14T08:15:50Z</time>
   </trkpt>
   <trkpt lat="22.7291360" lon="120.3061300">
    <ele>13.2</ele>
    <time>2026-09-14T08:15:51Z</time>
   </trkpt>
   <trkpt lat="22.7290130" lon="120.3061440">
    <ele>13.5</ele>
    <time>2026-09-14T08:18:20Z</time>
   </trkpt>
   <trkpt lat="22.7290120" lon="120.3061440">
    <ele>13.5</ele>
    <time>2026-09-14T08:18:21Z</time>
   </trkpt>
   <trkpt lat="22.7290250" lon="120.3061890">
    <ele>13.6</ele>
    <time>2026-09-14T08:18:22Z</time>
   </trkpt>
   <trkpt lat="22.7290320" lon="120.3062110">
    <ele>13.6</ele>
    <time>2026-09-14T08:18:23Z</time>
   </trkpt>
   <trkpt lat="22.7290110" lon="120.3062230">
    <ele>13.7</ele>
    <time>2026-09-14T08:18:24Z</time>
   </trkpt>
   <trkpt lat="22.7289650" lon="120.3061950">
    <ele>13.8</ele>
    <time>2026-09-14T08:18:25Z</time>
   </trkpt>
   <trkpt lat="22.7289260" lon="120.3061820">
    <ele>13.9</ele>
    <time>2026-09-14T08:18:26Z</time>
   </trkpt>
   <trkpt lat="22.7289130" lon="120.3061750">
    <ele>14.0</ele>
    <time>2026-09-14T08:18:27Z</time>
   </trkpt>
   <trkpt lat="22.7289040" lon="120.3061430">
    <ele>14.0</ele>
    <time>2026-09-14T08:18:28Z</time>
   </trkpt>
   <trkpt lat="22.7289090" lon="120.3061460">
    <ele>14.0</ele>
    <time>2026-09-14T08:18:29Z</time>
   </trkpt>
   <trkpt lat="22.7288810" lon="120.3061310">
    <ele>14.1</ele>
    <time>2026-09-14T08:18:30Z</time>
   </trkpt>
   <trkpt lat="22.7288610" lon="120.3061240">
    <ele>14.2</ele>
    <time>2026-09-14T08:18:31Z</time>
   </trkpt>
   <trkpt lat="22.7288490" lon="120.3061100">
    <ele>14.2</ele>
    <time>2026-09-14T08:18:32Z</time>
   </trkpt>
   <trkpt lat="22.7288320" lon="120.3061010">
    <ele>14.3</ele>
    <time>2026-09-14T08:18:33Z</time>
   </trkpt>
   <trkpt lat="22.7288220" lon="120.3060820">
    <ele>14.3</ele>
    <time>2026-09-14T08:18:34Z</time>
   </trkpt>
   <trkpt lat="22.7288140" lon="120.3060680">
    <ele>14.3</ele>
    <time>2026-09-14T08:18:35Z</time>
   </trkpt>
   <trkpt lat="22.7288050" lon="120.3060560">
    <ele>14.4</ele>
    <time>2026-09-14T08:18:36Z</time>
   </trkpt>
   <trkpt lat="22.7287950" lon="120.3060430">
    <ele>14.4</ele>
    <time>2026-09-14T08:18:37Z</time>
   </trkpt>
   <trkpt lat="22.7287920" lon="120.3060190">
    <ele>14.5</ele>
    <time>2026-09-14T08:18:38Z</time>
   </trkpt>
   <trkpt lat="22.7287990" lon="120.3059890">
    <ele>15.8</ele>
    <time>2026-09-14T08:18:39Z</time>
   </trkpt>
   <trkpt lat="22.7288050" lon="120.3059690">
    <ele>16.7</ele>
    <time>2026-09-14T08:18:40Z</time>
   </trkpt>
   <trkpt lat="22.7288080" lon="120.3059510">
    <ele>17.4</ele>
    <time>2026-09-14T08:18:41Z</time>
   </trkpt>
   <trkpt lat="22.7288060" lon="120.3059330">
    <ele>18.2</ele>
    <time>2026-09-14T08:18:42Z</time>
   </trkpt>
   <trkpt lat="22.7288070" lon="120.3059140">
    <ele>19.0</ele>
    <time>2026-09-14T08:18:43Z</time>
   </trkpt>
   <trkpt lat="22.7288090" lon="120.3058950">
    <ele>19.8</ele>
    <time>2026-09-14T08:18:44Z</time>
   </trkpt>
   <trkpt lat="22.7288170" lon="120.3058770">
    <ele>20.6</ele>
    <time>2026-09-14T08:18:45Z</time>
   </trkpt>
   <trkpt lat="22.7288220" lon="120.3058590">
    <ele>21.4</ele>
    <time>2026-09-14T08:18:46Z</time>
   </trkpt>
   <trkpt lat="22.7288280" lon="120.3058420">
    <ele>22.1</ele>
    <time>2026-09-14T08:18:47Z</time>
   </trkpt>
   <trkpt lat="22.7288400" lon="120.3058260">
    <ele>23.0</ele>
    <time>2026-09-14T08:18:48Z</time>
   </trkpt>
   <trkpt lat="22.7288480" lon="120.3058100">
    <ele>23.8</ele>
    <time>2026-09-14T08:18:49Z</time>
   </trkpt>
   <trkpt lat="22.7288370" lon="120.3057960">
    <ele>24.5</ele>
    <time>2026-09-14T08:18:50Z</time>
   </trkpt>
   <trkpt lat="22.7288210" lon="120.3057810">
    <ele>25.5</ele>
    <time>2026-09-14T08:18:51Z</time>
   </trkpt>
   <trkpt lat="22.7288110" lon="120.3057650">
    <ele>26.3</ele>
    <time>2026-09-14T08:18:52Z</time>
   </trkpt>
   <trkpt lat="22.7288060" lon="120.3057460">
    <ele>27.1</ele>
    <time>2026-09-14T08:18:53Z</time>
   </trkpt>
   <trkpt lat="22.7287950" lon="120.3057310">
    <ele>27.9</ele>
    <time>2026-09-14T08:18:54Z</time>
   </trkpt>
   <trkpt lat="22.7287920" lon="120.3057150">
    <ele>28.0</ele>
    <time>2026-09-14T08:18:55Z</time>
   </trkpt>
   <trkpt lat="22.7287890" lon="120.3057000">
    <ele>28.0</ele>
    <time>2026-09-14T08:18:56Z</time>
   </trkpt>
   <trkpt lat="22.7287900" lon="120.3056870">
    <ele>28.0</ele>
    <time>2026-09-14T08:18:57Z</time>
   </trkpt>
   <trkpt lat="22.7288000" lon="120.3056680">
    <ele>28.0</ele>
    <time>2026-09-14T08:18:58Z</time>
   </trkpt>
   <trkpt lat="22.7287960" lon="120.3056520">
    <ele>28.0</ele>
    <time>2026-09-14T08:18:59Z</time>
   </trkpt>
   <trkpt lat="22.7287880" lon="120.3056390">
    <ele>28.0</ele>
    <time>2026-09-14T08:19:00Z</time>
   </trkpt>
   <trkpt lat="22.7288010" lon="120.3056170">
    <ele>28.0</ele>
    <time>2026-09-14T08:19:01Z</time>
   </trkpt>
   <trkpt lat="22.7288000" lon="120.3056050">
    <ele>28.0</ele>
    <time>2026-09-14T08:19:02Z</time>
   </trkpt>
   <trkpt lat="22.7287950" lon="120.3056150">
    <ele>28.0</ele>
    <time>2026-09-14T08:19:03Z</time>
   </trkpt>
   <trkpt lat="22.7287870" lon="120.3056160">
    <ele>28.0</ele>
    <time>2026-09-14T08:19:04Z</time>
   </trkpt>
   <trkpt lat="22.7287810" lon="120.3056120">
    <ele>28.0</ele>
    <time>2026-09-14T08:19:05Z</time>
   </trkpt>
   <trkpt lat="22.7287800" lon="120.3056090">
    <ele>28.0</ele>
    <time>2026-09-14T08:19:06Z</time>
   </trkpt>
   <trkpt lat="22.7287840" lon="120.3056120">
    <ele>28.0</ele>
    <time>2026-09-14T08:19:07Z</time>
   </trkpt>
   <trkpt lat="22.7287930" lon="120.3056210">
    <ele>28.0</ele>
    <time>2026-09-14T08:19:08Z</time>
   </trkpt>
   <trkpt lat="22.7287940" lon="120.3056210">
    <ele>28.0</ele>
    <time>2026-09-14T08:19:09Z</time>
   </trkpt>
   <trkpt lat="22.7288090" lon="120.3056210">
    <ele>28.0</ele>
    <time>2026-09-14T08:19:10Z</time>
   </trkpt>
   <trkpt lat="22.7287950" lon="120.3056190">
    <ele>28.0</ele>
    <time>2026-09-14T08:19:11Z</time>
   </trkpt>
   <trkpt lat="22.7287910" lon="120.3056120">
    <ele>28.0</ele>
    <time>2026-09-14T08:19:12Z</time>
   </trkpt>
   <trkpt lat="22.7288020" lon="120.3056060">
    <ele>28.0</ele>
    <time>2026-09-14T08:19:13Z</time>
   </trkpt>
   <trkpt lat="22.7288030" lon="120.3056000">
    <ele>28.0</ele>
    <time>2026-09-14T08:19:14Z</time>
   </trkpt>
   <trkpt lat="22.7287950" lon="120.3055790">
    <ele>28.0</ele>
    <time>2026-09-14T08:19:15Z</time>
   </trkpt>
   <trkpt lat="22.7288420" lon="120.3055640">
    <ele>28.0</ele>
    <time>2026-09-14T08:19:16Z</time>
   </trkpt>
   <trkpt lat="22.7288490" lon="120.3055510">
    <ele>28.0</ele>
    <time>2026-09-14T08:19:17Z</time>
   </trkpt>
   <trkpt lat="22.7288440" lon="120.3055460">
    <ele>28.0</ele>
    <time>2026-09-14T08:19:18Z</time>
   </trkpt>
   <trkpt lat="22.7288540" lon="120.3055760">
    <ele>28.0</ele>
    <time>2026-09-14T08:19:19Z</time>
   </trkpt>
   <trkpt lat="22.7288610" lon="120.3056040">
    <ele>28.0</ele>
    <time>2026-09-14T08:19:20Z</time>
   </trkpt>
   <trkpt lat="22.7288770" lon="120.3056380">
    <ele>28.0</ele>
    <time>2026-09-14T08:19:21Z</time>
   </trkpt>
   <trkpt lat="22.7288900" lon="120.3056640">
    <ele>28.0</ele>
    <time>2026-09-14T08:19:22Z</time>
   </trkpt>
   <trkpt lat="22.7288840" lon="120.3056370">
    <ele>28.0</ele>
    <time>2026-09-14T08:19:23Z</time>
   </trkpt>
   <trkpt lat="22.7288770" lon="120.3056100">
    <ele>28.0</ele>
    <time>2026-09-14T08:19:24Z</time>
   </trkpt>
   <trkpt lat="22.7288640" lon="120.3055550">
    <ele>28.0</ele>
    <time>2026-09-14T08:19:26Z</time>
   </trkpt>
   <trkpt lat="22.7288580" lon="120.3055280">
    <ele>28.0</ele>
    <time>2026-09-14T08:19:27Z</time>
   </trkpt>
   <trkpt lat="22.7288540" lon="120.3055020">
    <ele>28.0</ele>
    <time>2026-09-14T08:19:28Z</time>
   </trkpt>
   <trkpt lat="22.7288550" lon="120.3054970">
    <ele>28.0</ele>
    <time>2026-09-14T08:19:29Z</time>
   </trkpt>
   <trkpt lat="22.7288740" lon="120.3055040">
    <ele>28.0</ele>
    <time>2026-09-14T08:19:30Z</time>
   </trkpt>
   <trkpt lat="22.7288540" lon="120.3055410">
    <ele>28.0</ele>
    <time>2026-09-14T08:19:31Z</time>
   </trkpt>
   <trkpt lat="22.7288040" lon="120.3055880">
    <ele>28.0</ele>
    <time>2026-09-14T08:19:32Z</time>
   </trkpt>
   <trkpt lat="22.7288020" lon="120.3056270">
    <ele>28.0</ele>
    <time>2026-09-14T08:19:33Z</time>
   </trkpt>
   <trkpt lat="22.7287850" lon="120.3056270">
    <ele>28.0</ele>
    <time>2026-09-14T08:19:34Z</time>
   </trkpt>
   <trkpt lat="22.7287660" lon="120.3055960">
    <ele>28.0</ele>
    <time>2026-09-14T08:19:35Z</time>
   </trkpt>
   <trkpt lat="22.7287220" lon="120.3056140">
    <ele>28.0</ele>
    <time>2026-09-14T08:19:36Z</time>
   </trkpt>
   <trkpt lat="22.7286780" lon="120.3056330">
    <ele>28.0</ele>
    <time>2026-09-14T08:19:37Z</time>
   </trkpt>
   <trkpt lat="22.7287480" lon="120.3056380">
    <ele>28.0</ele>
    <time>2026-09-14T08:19:38Z</time>
   </trkpt>
   <trkpt lat="22.7288050" lon="120.3056120">
    <ele>28.0</ele>
    <time>2026-09-14T08:19:39Z</time>
   </trkpt>
   <trkpt lat="22.7288200" lon="120.3056270">
    <ele>28.0</ele>
    <time>2026-09-14T08:19:40Z</time>
   </trkpt>
   <trkpt lat="22.7288310" lon="120.3056390">
    <ele>28.0</ele>
    <time>2026-09-14T08:19:41Z</time>
   </trkpt>
   <trkpt lat="22.7288420" lon="120.3056430">
    <ele>28.0</ele>
    <time>2026-09-14T08:19:42Z</time>
   </trkpt>
   <trkpt lat="22.7288600" lon="120.3056440">
    <ele>28.0</ele>
    <time>2026-09-14T08:19:43Z</time>
   </trkpt>
   <trkpt lat="22.7288570" lon="120.3056620">
    <ele>28.0</ele>
    <time>2026-09-14T08:19:44Z</time>
   </trkpt>
   <trkpt lat="22.7288760" lon="120.3056670">
    <ele>28.0</ele>
    <time>2026-09-14T08:19:45Z</time>
   </trkpt>
   <trkpt lat="22.7288880" lon="120.3056820">
    <ele>28.0</ele>
    <time>2026-09-14T08:19:46Z</time>
   </trkpt>
   <trkpt lat="22.7289000" lon="120.3056880">
    <ele>28.0</ele>
    <time>2026-09-14T08:19:47Z</time>
   </trkpt>
   <trkpt lat="22.7289020" lon="120.3057040">
    <ele>28.0</ele>
    <time>2026-09-14T08:19:48Z</time>
   </trkpt>
   <trkpt lat="22.7289030" lon="120.3057170">
    <ele>28.0</ele>
    <time>2026-09-14T08:19:49Z</time>
   </trkpt>
   <trkpt lat="22.7288980" lon="120.3057290">
    <ele>28.0</ele>
    <time>2026-09-14T08:19:50Z</time>
   </trkpt>
   <trkpt lat="22.7288990" lon="120.3057470">
    <ele>28.0</ele>
    <time>2026-09-14T08:19:51Z</time>
   </trkpt>
   <trkpt lat="22.7289040" lon="120.3057600">
    <ele>28.0</ele>
    <time>2026-09-14T08:19:52Z</time>
   </trkpt>
  </trkseg>
 </trk>
</gpx>
