<?xml version="1.0" encoding="UTF-8"?>
<gpx creator="StravaGPX" version="1.1" xmlns="http://www.topografix.com/GPX/1/1" xmlns:xsi="http://www.w3.org/2001/XMLSchema-instance" xsi:schemaLocation="http://www.topografix.com/GPX/1/1 http://www.topografix.com/GPX/1/1/gpx.xsd">
 <metadata>
  <time>2026-09-16T11:32:51Z</time>
 </metadata>
 <trk>
  <name>0916_Justin</name>
  <type>running</type>
  <trkseg>
   <trkpt lat="22.7299280" lon="120.3383620">
    <ele>21.9</ele>
    <time>2026-09-16T11:32:51Z</time>
   </trkpt>
   <trkpt lat="22.7299280" lon="120.3383620">
    <ele>21.9</ele>
    <time>2026-09-16T11:32:52Z</time>
   </trkpt>
   <trkpt lat="22.7299280" lon="120.3383620">
    <ele>21.9</ele>
    <time>2026-09-16T11:32:53Z</time>
   </trkpt>
   <trkpt lat="22.7299280" lon="120.3383620">
    <ele>21.9</ele>
    <time>2026-09-16T11:32:54Z</time>
   </trkpt>
   <trkpt lat="22.7299360" lon="120.3383670">
    <ele>21.9</ele>
    <time>2026-09-16T11:32:55Z</time>
   </trkpt>
   <trkpt lat="22.7299490" lon="120.3383680">
    <ele>21.9</ele>
    <time>2026-09-16T11:32:56Z</time>
   </trkpt>
   <trkpt lat="22.7299850" lon="120.3383500">
    <ele>21.9</ele>
    <time>2026-09-16T11:32:58Z</time>
   </trkpt>
   <trkpt lat="22.7300010" lon="120.3383350">
    <ele>21.9</ele>
    <time>2026-09-16T11:32:59Z</time>
   </trkpt>
   <trkpt lat="22.7300460" lon="120.3383080">
    <ele>22.0</ele>
    <time>2026-09-16T11:33:01Z</time>
   </trkpt>
   <trkpt lat="22.7300700" lon="120.3382960">
    <ele>22.0</ele>
    <time>2026-09-16T11:33:02Z</time>
   </trkpt>
   <trkpt lat="22.7301000" lon="120.3382900">
    <ele>22.0</ele>
    <time>2026-09-16T11:33:03Z</time>
   </trkpt>
   <trkpt lat="22.7301230" lon="120.3382800">
    <ele>22.0</ele>
    <time>2026-09-16T11:33:04Z</time>
   </trkpt>
   <trkpt lat="22.7301490" lon="120.3382660">
    <ele>22.0</ele>
    <time>2026-09-16T11:33:05Z</time>
   </trkpt>
   <trkpt lat="22.7301800" lon="120.3382440">
    <ele>22.0</ele>
    <time>2026-09-16T11:33:06Z</time>
   </trkpt>
   <trkpt lat="22.7302070" lon="120.3382230">
    <ele>22.0</ele>
    <time>2026-09-16T11:33:07Z</time>
   </trkpt>
   <trkpt lat="22.7302330" lon="120.3382070">
    <ele>22.0</ele>
    <time>2026-09-16T11:33:08Z</time>
   </trkpt>
   <trkpt lat="22.7302640" lon="120.3381850">
    <ele>22.1</ele>
    <time>2026-09-16T11:33:09Z</time>
   </trkpt>
   <trkpt lat="22.7302990" lon="120.3381730">
    <ele>22.1</ele>
    <time>2026-09-16T11:33:10Z</time>
   </trkpt>
   <trkpt lat="22.7303300" lon="120.3381570">
    <ele>22.1</ele>
    <time>2026-09-16T11:33:11Z</time>
   </trkpt>
   <trkpt lat="22.7303670" lon="120.3381430">
    <ele>22.1</ele>
    <time>2026-09-16T11:33:12Z</time>
   </trkpt>
   <trkpt lat="22.7304040" lon="120.3381230">
    <ele>22.1</ele>
    <time>2026-09-16T11:33:13Z</time>
   </trkpt>
   <trkpt lat="22.7304420" lon="120.3381010">
    <ele>22.2</ele>
    <time>2026-09-16T11:33:14Z</time>
   </trkpt>
   <trkpt lat="22.7304740" lon="120.3380800">
    <ele>22.2</ele>
    <time>2026-09-16T11:33:15Z</time>
   </trkpt>
   <trkpt lat="22.7305240" lon="120.3380640">
    <ele>22.2</ele>
    <time>2026-09-16T11:33:16Z</time>
   </trkpt>
   <trkpt lat="22.7305530" lon="120.3380420">
    <ele>22.2</ele>
    <time>2026-09-16T11:33:17Z</time>
   </trkpt>
   <trkpt lat="22.7305850" lon="120.3380260">
    <ele>22.2</ele>
    <time>2026-09-16T11:33:18Z</time>
   </trkpt>
   <trkpt lat="22.7306100" lon="120.3380100">
    <ele>22.2</ele>
    <time>2026-09-16T11:33:19Z</time>
   </trkpt>
   <trkpt lat="22.7306460" lon="120.3379920">
    <ele>22.3</ele>
    <time>2026-09-16T11:33:20Z</time>
   </trkpt>
   <trkpt lat="22.7306760" lon="120.3379750">
    <ele>22.3</ele>
    <time>2026-09-16T11:33:21Z</time>
   </trkpt>
   <trkpt lat="22.7306970" lon="120.3379660">
    <ele>22.3</ele>
    <time>2026-09-16T11:33:22Z</time>
   </trkpt>
   <trkpt lat="22.7307100" lon="120.3379750">
    <ele>22.3</ele>
    <time>2026-09-16T11:33:23Z</time>
   </trkpt>
   <trkpt lat="22.7307360" lon="120.3380050">
    <ele>22.4</ele>
    <time>2026-09-16T11:33:24Z</time>
   </trkpt>
   <trkpt lat="22.7307380" lon="120.3380250">
    <ele>22.4</ele>
    <time>2026-09-16T11:33:25Z</time>
   </trkpt>
   <trkpt lat="22.7307530" lon="120.3380640">
    <ele>22.4</ele>
    <time>2026-09-16T11:33:26Z</time>
   </trkpt>
   <trkpt lat="22.7307640" lon="120.3380990">
    <ele>22.5</ele>
    <time>2026-09-16T11:33:27Z</time>
   </trkpt>
   <trkpt lat="22.7307770" lon="120.3381390">
    <ele>22.6</ele>
    <time>2026-09-16T11:33:28Z</time>
   </trkpt>
   <trkpt lat="22.7307860" lon="120.3381770">
    <ele>22.6</ele>
    <time>2026-09-16T11:33:29Z</time>
   </trkpt>
   <trkpt lat="22.7307930" lon="120.3382180">
    <ele>22.7</ele>
    <time>2026-09-16T11:33:30Z</time>
   </trkpt>
   <trkpt lat="22.7308080" lon="120.3382570">
    <ele>22.7</ele>
    <time>2026-09-16T11:33:31Z</time>
   </trkpt>
   <trkpt lat="22.7308420" lon="120.3382850">
    <ele>22.8</ele>
    <time>2026-09-16T11:33:32Z</time>
   </trkpt>
   <trkpt lat="22.7308660" lon="120.3383240">
    <ele>22.6</ele>
    <time>2026-09-16T11:33:33Z</time>
   </trkpt>
   <trkpt lat="22.7308860" lon="120.3383700">
    <ele>22.3</ele>
    <time>2026-09-16T11:33:34Z</time>
   </trkpt>
   <trkpt lat="22.7308910" lon="120.3384120">
    <ele>22.0</ele>
    <time>2026-09-16T11:33:35Z</time>
   </trkpt>
   <trkpt lat="22.7309070" lon="120.3384610">
    <ele>21.7</ele>
    <time>2026-09-16T11:33:36Z</time>
   </trkpt>
   <trkpt lat="22.7309090" lon="120.3385080">
    <ele>21.4</ele>
    <time>2026-09-16T11:33:37Z</time>
   </trkpt>
   <trkpt lat="22.7309140" lon="120.3385530">
    <ele>21.4</ele>
    <time>2026-09-16T11:33:38Z</time>
   </trkpt>
   <trkpt lat="22.7309140" lon="120.3386000">
    <ele>21.5</ele>
    <time>2026-09-16T11:33:39Z</time>
   </trkpt>
   <trkpt lat="22.7309230" lon="120.3386430">
    <ele>21.6</ele>
    <time>2026-09-16T11:33:40Z</time>
   </trkpt>
   <trkpt lat="22.7309340" lon="120.3386890">
    <ele>21.7</ele>
    <time>2026-09-16T11:33:41Z</time>
   </trkpt>
   <trkpt lat="22.7309410" lon="120.3387440">
    <ele>21.8</ele>
    <time>2026-09-16T11:33:42Z</time>
   </trkpt>
   <trkpt lat="22.7309490" lon="120.3387940">
    <ele>22.0</ele>
    <time>2026-09-16T11:33:43Z</time>
   </trkpt>
   <trkpt lat="22.7309550" lon="120.3388510">
    <ele>22.2</ele>
    <time>2026-09-16T11:33:44Z</time>
   </trkpt>
   <trkpt lat="22.7309610" lon="120.3389080">
    <ele>22.4</ele>
    <time>2026-09-16T11:33:45Z</time>
   </trkpt>
   <trkpt lat="22.7309750" lon="120.3389600">
    <ele>22.6</ele>
    <time>2026-09-16T11:33:46Z</time>
   </trkpt>
   <trkpt lat="22.7309820" lon="120.3390130">
    <ele>22.8</ele>
    <time>2026-09-16T11:33:47Z</time>
   </trkpt>
   <trkpt lat="22.7309910" lon="120.3390640">
    <ele>23.0</ele>
    <time>2026-09-16T11:33:48Z</time>
   </trkpt>
   <trkpt lat="22.7309930" lon="120.3391160">
    <ele>23.2</ele>
    <time>2026-09-16T11:33:49Z</time>
   </trkpt>
   <trkpt lat="22.7309860" lon="120.3391590">
    <ele>23.4</ele>
    <time>2026-09-16T11:33:50Z</time>
   </trkpt>
   <trkpt lat="22.7309910" lon="120.3392000">
    <ele>23.6</ele>
    <time>2026-09-16T11:33:51Z</time>
   </trkpt>
   <trkpt lat="22.7309940" lon="120.3392370">
    <ele>23.7</ele>
    <time>2026-09-16T11:33:52Z</time>
   </trkpt>
   <trkpt lat="22.7309960" lon="120.3392730">
    <ele>23.8</ele>
    <time>2026-09-16T11:33:53Z</time>
   </trkpt>
   <trkpt lat="22.7310070" lon="120.3393050">
    <ele>24.0</ele>
    <time>2026-09-16T11:33:54Z</time>
   </trkpt>
   <trkpt lat="22.7310400" lon="120.3393260">
    <ele>24.0</ele>
    <time>2026-09-16T11:33:55Z</time>
   </trkpt>
   <trkpt lat="22.7310780" lon="120.3393430">
    <ele>24.0</ele>
    <time>2026-09-16T11:33:56Z</time>
   </trkpt>
   <trkpt lat="22.7311000" lon="120.3393550">
    <ele>24.1</ele>
    <time>2026-09-16T11:33:57Z</time>
   </trkpt>
   <trkpt lat="22.7311320" lon="120.3393470">
    <ele>24.1</ele>
    <time>2026-09-16T11:33:58Z</time>
   </trkpt>
   <trkpt lat="22.7311680" lon="120.3393370">
    <ele>24.1</ele>
    <time>2026-09-16T11:33:59Z</time>
   </trkpt>
   <trkpt lat="22.7311960" lon="120.3393240">
    <ele>24.1</ele>
    <time>2026-09-16T11:34:00Z</time>
   </trkpt>
   <trkpt lat="22.7312130" lon="120.3393090">
    <ele>24.2</ele>
    <time>2026-09-16T11:34:01Z</time>
   </trkpt>
   <trkpt lat="22.7312140" lon="120.3392920">
    <ele>24.2</ele>
    <time>2026-09-16T11:34:02Z</time>
   </trkpt>
   <trkpt lat="22.7312140" lon="120.3392660">
    <ele>24.2</ele>
    <time>2026-09-16T11:34:03Z</time>
   </trkpt>
   <trkpt lat="22.7312030" lon="120.3392560">
    <ele>24.2</ele>
    <time>2026-09-16T11:34:04Z</time>
   </trkpt>
   <trkpt lat="22.7311890" lon="120.3392490">
    <ele>24.2</ele>
    <time>2026-09-16T11:34:05Z</time>
   </trkpt>
   <trkpt lat="22.7311780" lon="120.3392590">
    <ele>24.2</ele>
    <time>2026-09-16T11:34:06Z</time>
   </trkpt>
   <trkpt lat="22.7311640" lon="120.3392760">
    <ele>24.2</ele>
    <time>2026-09-16T11:34:07Z</time>
   </trkpt>
   <trkpt lat="22.7311330" lon="120.3392970">
    <ele>24.1</ele>
    <time>2026-09-16T11:34:08Z</time>
   </trkpt>
   <trkpt lat="22.7311070" lon="120.3393260">
    <ele>24.1</ele>
    <time>2026-09-16T11:34:09Z</time>
   </trkpt>
   <trkpt lat="22.7310750" lon="120.3393400">
    <ele>24.0</ele>
    <time>2026-09-16T11:34:10Z</time>
   </trkpt>
   <trkpt lat="22.7310390" lon="120.3393480">
    <ele>24.0</ele>
    <time>2026-09-16T11:34:11Z</time>
   </trkpt>
   <trkpt lat="22.7310050" lon="120.3393540">
    <ele>23.7</ele>
    <time>2026-09-16T11:34:12Z</time>
   </trkpt>
   <trkpt lat="22.7309680" lon="120.3393740">
    <ele>23.3</ele>
    <time>2026-09-16T11:34:13Z</time>
   </trkpt>
   <trkpt lat="22.7309300" lon="120.3393880">
    <ele>22.9</ele>
    <time>2026-09-16T11:34:14Z</time>
   </trkpt>
   <trkpt lat="22.7308740" lon="120.3394020">
    <ele>22.4</ele>
    <time>2026-09-16T11:34:15Z</time>
   </trkpt>
   <trkpt lat="22.7308260" lon="120.3394140">
    <ele>21.9</ele>
    <time>2026-09-16T11:34:16Z</time>
   </trkpt>
   <trkpt lat="22.7307750" lon="120.3394400">
    <ele>21.3</ele>
    <time>2026-09-16T11:34:17Z</time>
   </trkpt>
   <trkpt lat="22.7307340" lon="120.3394620">
    <ele>20.9</ele>
    <time>2026-09-16T11:34:18Z</time>
   </trkpt>
   <trkpt lat="22.7306890" lon="120.3394850">
    <ele>20.4</ele>
    <time>2026-09-16T11:34:19Z</time>
   </trkpt>
   <trkpt lat="22.7306420" lon="120.3395020">
    <ele>19.9</ele>
    <time>2026-09-16T11:34:20Z</time>
   </trkpt>
   <trkpt lat="22.7306050" lon="120.3395140">
    <ele>19.5</ele>
    <time>2026-09-16T11:34:21Z</time>
   </trkpt>
   <trkpt lat="22.7305750" lon="120.3395350">
    <ele>19.2</ele>
    <time>2026-09-16T11:34:22Z</time>
   </trkpt>
   <trkpt lat="22.7305460" lon="120.3395550">
    <ele>18.9</ele>
    <time>2026-09-16T11:34:23Z</time>
   </trkpt>
   <trkpt lat="22.7305230" lon="120.3395770">
    <ele>18.6</ele>
    <time>2026-09-16T11:34:24Z</time>
   </trkpt>
   <trkpt lat="22.7305110" lon="120.3396020">
    <ele>18.3</ele>
    <time>2026-09-16T11:34:25Z</time>
   </trkpt>
   <trkpt lat="22.7305100" lon="120.3396440">
    <ele>18.4</ele>
    <time>2026-09-16T11:34:26Z</time>
   </trkpt>
   <trkpt lat="22.7305250" lon="120.3396850">
    <ele>18.8</ele>
    <time>2026-09-16T11:34:27Z</time>
   </trkpt>
   <trkpt lat="22.7305540" lon="120.3397330">
    <ele>19.2</ele>
    <time>2026-09-16T11:34:28Z</time>
   </trkpt>
   <trkpt lat="22.7305870" lon="120.3397740">
    <ele>19.6</ele>
    <time>2026-09-16T11:34:29Z</time>
   </trkpt>
   <trkpt lat="22.7306150" lon="120.3398150">
    <ele>20.0</ele>
    <time>2026-09-16T11:34:30Z</time>
   </trkpt>
   <trkpt lat="22.7306420" lon="120.3398550">
    <ele>20.4</ele>
    <time>2026-09-16T11:34:31Z</time>
   </trkpt>
   <trkpt lat="22.7306640" lon="120.3398780">
    <ele>20.7</ele>
    <time>2026-09-16T11:34:32Z</time>
   </trkpt>
   <trkpt lat="22.7306800" lon="120.3399150">
    <ele>21.0</ele>
    <time>2026-09-16T11:34:33Z</time>
   </trkpt>
   <trkpt lat="22.7307130" lon="120.3399270">
    <ele>21.1</ele>
    <time>2026-09-16T11:34:34Z</time>
   </trkpt>
   <trkpt lat="22.7307390" lon="120.3399320">
    <ele>21.2</ele>
    <time>2026-09-16T11:34:35Z</time>
   </trkpt>
   <trkpt lat="22.7307770" lon="120.3399430">
    <ele>21.4</ele>
    <time>2026-09-16T11:34:36Z</time>
   </trkpt>
   <trkpt lat="22.7308050" lon="120.3399280">
    <ele>21.6</ele>
    <time>2026-09-16T11:34:37Z</time>
   </trkpt>
   <trkpt lat="22.7308450" lon="120.3399020">
    <ele>21.8</ele>
    <time>2026-09-16T11:34:38Z</time>
   </trkpt>
   <trkpt lat="22.7308800" lon="120.3398790">
    <ele>22.0</ele>
    <time>2026-09-16T11:34:39Z</time>
   </trkpt>
   <trkpt lat="22.7309140" lon="120.3398540">
    <ele>22.2</ele>
    <time>2026-09-16T11:34:40Z</time>
   </trkpt>
   <trkpt lat="22.7309470" lon="120.3398330">
    <ele>22.5</ele>
    <time>2026-09-16T11:34:41Z</time>
   </trkpt>
   <trkpt lat="22.7309810" lon="120.3398100">
    <ele>22.7</ele>
    <time>2026-09-16T11:34:42Z</time>
   </trkpt>
   <trkpt lat="22.7310150" lon="120.3397860">
    <ele>23.0</ele>
    <time>2026-09-16T11:34:43Z</time>
   </trkpt>
   <trkpt lat="22.7310560" lon="120.3397620">
    <ele>23.2</ele>
    <time>2026-09-16T11:34:44Z</time>
   </trkpt>
   <trkpt lat="22.7311020" lon="120.3397410">
    <ele>23.5</ele>
    <time>2026-09-16T11:34:45Z</time>
   </trkpt>
   <trkpt lat="22.7311390" lon="120.3397180">
    <ele>23.8</ele>
    <time>2026-09-16T11:34:46Z</time>
   </trkpt>
   <trkpt lat="22.7311780" lon="120.3396940">
    <ele>24.0</ele>
    <time>2026-09-16T11:34:47Z</time>
   </trkpt>
   <trkpt lat="22.7312150" lon="120.3396790">
    <ele>24.2</ele>
    <time>2026-09-16T11:34:48Z</time>
   </trkpt>
   <trkpt lat="22.7312480" lon="120.3396630">
    <ele>24.3</ele>
    <time>2026-09-16T11:34:49Z</time>
   </trkpt>
   <trkpt lat="22.7312820" lon="120.3396370">
    <ele>24.4</ele>
    <time>2026-09-16T11:34:50Z</time>
   </trkpt>
   <trkpt lat="22.7312950" lon="120.3396380">
    <ele>24.4</ele>
    <time>2026-09-16T11:34:51Z</time>
   </trkpt>
   <trkpt lat="22.7313020" lon="120.3396490">
    <ele>24.5</ele>
    <time>2026-09-16T11:34:52Z</time>
   </trkpt>
   <trkpt lat="22.7313400" lon="120.3396230">
    <ele>24.6</ele>
    <time>2026-09-16T11:34:53Z</time>
   </trkpt>
   <trkpt lat="22.7313780" lon="120.3395770">
    <ele>24.5</ele>
    <time>2026-09-16T11:34:54Z</time>
   </trkpt>
   <trkpt lat="22.7314130" lon="120.3395500">
    <ele>24.0</ele>
    <time>2026-09-16T11:34:55Z</time>
   </trkpt>
   <trkpt lat="22.7314440" lon="120.3395520">
    <ele>23.6</ele>
    <time>2026-09-16T11:34:56Z</time>
   </trkpt>
   <trkpt lat="22.7314690" lon="120.3395500">
    <ele>23.3</ele>
    <time>2026-09-16T11:34:57Z</time>
   </trkpt>
   <trkpt lat="22.7314930" lon="120.3395580">
    <ele>23.0</ele>
    <time>2026-09-16T11:34:58Z</time>
   </trkpt>
   <trkpt lat="22.7315080" lon="120.3395630">
    <ele>22.8</ele>
    <time>2026-09-16T11:34:59Z</time>
   </trkpt>
   <trkpt lat="22.7315080" lon="120.3395710">
    <ele>22.7</ele>
    <time>2026-09-16T11:35:00Z</time>
   </trkpt>
   <trkpt lat="22.7314980" lon="120.3395770">
    <ele>22.9</ele>
    <time>2026-09-16T11:35:01Z</time>
   </trkpt>
   <trkpt lat="22.7314820" lon="120.3395830">
    <ele>23.2</ele>
    <time>2026-09-16T11:35:02Z</time>
   </trkpt>
   <trkpt lat="22.7314600" lon="120.3395930">
    <ele>23.5</ele>
    <time>2026-09-16T11:35:03Z</time>
   </trkpt>
   <trkpt lat="22.7314300" lon="120.3396090">
    <ele>24.0</ele>
    <time>2026-09-16T11:35:04Z</time>
   </trkpt>
   <trkpt lat="22.7313960" lon="120.3396300">
    <ele>24.6</ele>
    <time>2026-09-16T11:35:05Z</time>
   </trkpt>
   <trkpt lat="22.7313560" lon="120.3396480">
    <ele>24.6</ele>
    <time>2026-09-16T11:35:06Z</time>
   </trkpt>
   <trkpt lat="22.7313190" lon="120.3396620">
    <ele>24.5</ele>
    <time>2026-09-16T11:35:07Z</time>
   </trkpt>
   <trkpt lat="22.7312800" lon="120.3396800">
    <ele>24.4</ele>
    <time>2026-09-16T11:35:08Z</time>
   </trkpt>
   <trkpt lat="22.7312450" lon="120.3396940">
    <ele>24.3</ele>
    <time>2026-09-16T11:35:09Z</time>
   </trkpt>
   <trkpt lat="22.7312180" lon="120.3396890">
    <ele>24.2</ele>
    <time>2026-09-16T11:35:10Z</time>
   </trkpt>
   <trkpt lat="22.7312020" lon="120.3396770">
    <ele>24.2</ele>
    <time>2026-09-16T11:35:11Z</time>
   </trkpt>
   <trkpt lat="22.7311750" lon="120.3396370">
    <ele>24.1</ele>
    <time>2026-09-16T11:35:12Z</time>
   </trkpt>
   <trkpt lat="22.7311620" lon="120.3395770">
    <ele>24.1</ele>
    <time>2026-09-16T11:35:13Z</time>
   </trkpt>
   <trkpt lat="22.7311460" lon="120.3395270">
    <ele>24.1</ele>
    <time>2026-09-16T11:35:14Z</time>
   </trkpt>
   <trkpt lat="22.7311250" lon="120.3394810">
    <ele>24.1</ele>
    <time>2026-09-16T11:35:15Z</time>
   </trkpt>
   <trkpt lat="22.7311040" lon="120.3394510">
    <ele>24.1</ele>
    <time>2026-09-16T11:35:16Z</time>
   </trkpt>
   <trkpt lat="22.7310870" lon="120.3394220">
    <ele>24.0</ele>
    <time>2026-09-16T11:35:17Z</time>
   </trkpt>
   <trkpt lat="22.7310710" lon="120.3393880">
    <ele>24.0</ele>
    <time>2026-09-16T11:35:18Z</time>
   </trkpt>
   <trkpt lat="22.7310580" lon="120.3393460">
    <ele>24.0</ele>
    <time>2026-09-16T11:35:19Z</time>
   </trkpt>
   <trkpt lat="22.7310550" lon="120.3393070">
    <ele>24.0</ele>
    <time>2026-09-16T11:35:20Z</time>
   </trkpt>
   <trkpt lat="22.7310490" lon="120.3392680">
    <ele>24.0</ele>
    <time>2026-09-16T11:35:21Z</time>
   </trkpt>
   <trkpt lat="22.7310410" lon="120.3392210">
    <ele>23.8</ele>
    <time>2026-09-16T11:35:22Z</time>
   </trkpt>
   <trkpt lat="22.7310350" lon="120.3391720">
    <ele>23.6</ele>
    <time>2026-09-16T11:35:23Z</time>
   </trkpt>
   <trkpt lat="22.7310330" lon="120.3391250">
    <ele>23.4</ele>
    <time>2026-09-16T11:35:24Z</time>
   </trkpt>
   <trkpt lat="22.7310260" lon="120.3390840">
    <ele>23.2</ele>
    <time>2026-09-16T11:35:25Z</time>
   </trkpt>
   <trkpt lat="22.7310220" lon="120.3390470">
    <ele>23.0</ele>
    <time>2026-09-16T11:35:26Z</time>
   </trkpt>
   <trkpt lat="22.7310210" lon="120.3390050">
    <ele>22.8</ele>
    <time>2026-09-16T11:35:27Z</time>
   </trkpt>
   <trkpt lat="22.7310160" lon="120.3389640">
    <ele>22.6</ele>
    <time>2026-09-16T11:35:28Z</time>
   </trkpt>
   <trkpt lat="22.7310100" lon="120.3389270">
    <ele>22.4</ele>
    <time>2026-09-16T11:35:29Z</time>
   </trkpt>
   <trkpt lat="22.7310030" lon="120.3388920">
    <ele>22.3</ele>
    <time>2026-09-16T11:35:30Z</time>
   </trkpt>
   <trkpt lat="22.7309920" lon="120.3388680">
    <ele>22.2</ele>
    <time>2026-09-16T11:35:31Z</time>
   </trkpt>
   <trkpt lat="22.7309700" lon="120.3388450">
    <ele>22.0</ele>
    <time>2026-09-16T11:35:32Z</time>
   </trkpt>
   <trkpt lat="22.7309410" lon="120.3388390">
    <ele>21.7</ele>
    <time>2026-09-16T11:35:33Z</time>
   </trkpt>
   <trkpt lat="22.7308930" lon="120.3388340">
    <ele>21.2</ele>
    <time>2026-09-16T11:35:34Z</time>
   </trkpt>
   <trkpt lat="22.7308500" lon="120.3388390">
    <ele>20.8</ele>
    <time>2026-09-16T11:35:35Z</time>
   </trkpt>
   <trkpt lat="22.7308040" lon="120.3388450">
    <ele>20.4</ele>
    <time>2026-09-16T11:35:36Z</time>
   </trkpt>
   <trkpt lat="22.7307620" lon="120.3388570">
    <ele>19.9</ele>
    <time>2026-09-16T11:35:37Z</time>
   </trkpt>
   <trkpt lat="22.7307220" lon="120.3388730">
    <ele>19.5</ele>
    <time>2026-09-16T11:35:38Z</time>
   </trkpt>
   <trkpt lat="22.7306850" lon="120.3388870">
    <ele>19.2</ele>
    <time>2026-09-16T11:35:39Z</time>
   </trkpt>
   <trkpt lat="22.7306410" lon="120.3389130">
    <ele>18.7</ele>
    <time>2026-09-16T11:35:40Z</time>
   </trkpt>
   <trkpt lat="22.7306010" lon="120.3389350">
    <ele>18.3</ele>
    <time>2026-09-16T11:35:41Z</time>
   </trkpt>
   <trkpt lat="22.7305580" lon="120.3389640">
    <ele>17.8</ele>
    <time>2026-09-16T11:35:42Z</time>
   </trkpt>
   <trkpt lat="22.7305160" lon="120.3389950">
    <ele>17.3</ele>
    <time>2026-09-16T11:35:43Z</time>
   </trkpt>
   <trkpt lat="22.7304730" lon="120.3390170">
    <ele>16.8</ele>
    <time>2026-09-16T11:35:44Z</time>
   </trkpt>
   <trkpt lat="22.7304330" lon="120.3390320">
    <ele>16.4</ele>
    <time>2026-09-16T11:35:45Z</time>
   </trkpt>
   <trkpt lat="22.7303960" lon="120.3390580">
    <ele>16.0</ele>
    <time>2026-09-16T11:35:46Z</time>
   </trkpt>
   <trkpt lat="22.7303590" lon="120.3390900">
    <ele>15.6</ele>
    <time>2026-09-16T11:35:47Z</time>
   </trkpt>
   <trkpt lat="22.7303140" lon="120.3391130">
    <ele>15.1</ele>
    <time>2026-09-16T11:35:48Z</time>
   </trkpt>
   <trkpt lat="22.7302740" lon="120.3391330">
    <ele>14.7</ele>
    <time>2026-09-16T11:35:49Z</time>
   </trkpt>
   <trkpt lat="22.7302380" lon="120.3391530">
    <ele>14.3</ele>
    <time>2026-09-16T11:35:50Z</time>
   </trkpt>
   <trkpt lat="22.7302100" lon="120.3391650">
    <ele>14.0</ele>
    <time>2026-09-16T11:35:51Z</time>
   </trkpt>
   <trkpt lat="22.7301810" lon="120.3391740">
    <ele>14.2</ele>
    <time>2026-09-16T11:35:52Z</time>
   </trkpt>
   <trkpt lat="22.7301590" lon="120.3391590">
    <ele>14.5</ele>
    <time>2026-09-16T11:35:53Z</time>
   </trkpt>
   <trkpt lat="22.7301320" lon="120.3391090">
    <ele>15.2</ele>
    <time>2026-09-16T11:35:54Z</time>
   </trkpt>
   <trkpt lat="22.7301250" lon="120.3390710">
    <ele>15.6</ele>
    <time>2026-09-16T11:35:55Z</time>
   </trkpt>
   <trkpt lat="22.7301130" lon="120.3390180">
    <ele>16.3</ele>
    <time>2026-09-16T11:35:56Z</time>
   </trkpt>
   <trkpt lat="22.7301030" lon="120.3389770">
    <ele>16.7</ele>
    <time>2026-09-16T11:35:57Z</time>
   </trkpt>
   <trkpt lat="22.7300890" lon="120.3389420">
    <ele>17.2</ele>
    <time>2026-09-16T11:35:58Z</time>
   </trkpt>
   <trkpt lat="22.7300730" lon="120.3389080">
    <ele>17.6</ele>
    <time>2026-09-16T11:35:59Z</time>
   </trkpt>
   <trkpt lat="22.7300500" lon="120.3388710">
    <ele>18.2</ele>
    <time>2026-09-16T11:36:00Z</time>
   </trkpt>
   <trkpt lat="22.7300360" lon="120.3388350">
    <ele>18.8</ele>
    <time>2026-09-16T11:36:01Z</time>
   </trkpt>
   <trkpt lat="22.7300180" lon="120.3388020">
    <ele>19.3</ele>
    <time>2026-09-16T11:36:02Z</time>
   </trkpt>
   <trkpt lat="22.7299990" lon="120.3387720">
    <ele>19.8</ele>
    <time>2026-09-16T11:36:03Z</time>
   </trkpt>
   <trkpt lat="22.7299790" lon="120.3387420">
    <ele>20.3</ele>
    <time>2026-09-16T11:36:04Z</time>
   </trkpt>
   <trkpt lat="22.7299700" lon="120.3387110">
    <ele>20.7</ele>
    <time>2026-09-16T11:36:05Z</time>
   </trkpt>
   <trkpt lat="22.7299610" lon="120.3386860">
    <ele>21.1</ele>
    <time>2026-09-16T11:36:06Z</time>
   </trkpt>
   <trkpt lat="22.7299640" lon="120.3386690">
    <ele>21.1</ele>
    <time>2026-09-16T11:36:07Z</time>
   </trkpt>
   <trkpt lat="22.7299800" lon="120.3386550">
    <ele>21.2</ele>
    <time>2026-09-16T11:36:08Z</time>
   </trkpt>
   <trkpt lat="22.7300030" lon="120.3386400">
    <ele>21.2</ele>
    <time>2026-09-16T11:36:09Z</time>
   </trkpt>
   <trkpt lat="22.7300350" lon="120.3386230">
    <ele>21.3</ele>
    <time>2026-09-16T11:36:10Z</time>
   </trkpt>
   <trkpt lat="22.7300730" lon="120.3386040">
    <ele>21.3</ele>
    <time>2026-09-16T11:36:11Z</time>
   </trkpt>
   <trkpt lat="22.7301150" lon="120.3385820">
    <ele>21.4</ele>
    <time>2026-09-16T11:36:12Z</time>
   </trkpt>
   <trkpt lat="22.7301660" lon="120.3385550">
    <ele>21.5</ele>
    <time>2026-09-16T11:36:13Z</time>
   </trkpt>
   <trkpt lat="22.7302110" lon="120.3385340">
    <ele>21.6</ele>
    <time>2026-09-16T11:36:14Z</time>
   </trkpt>
   <trkpt lat="22.7302520" lon="120.3385140">
    <ele>21.7</ele>
    <time>2026-09-16T11:36:15Z</time>
   </trkpt>
   <trkpt lat="22.7302860" lon="120.3384930">
    <ele>21.7</ele>
    <time>2026-09-16T11:36:16Z</time>
   </trkpt>
   <trkpt lat="22.7303250" lon="120.3384780">
    <ele>21.8</ele>
    <time>2026-09-16T11:36:17Z</time>
   </trkpt>
   <trkpt lat="22.7303670" lon="120.3384550">
    <ele>21.9</ele>
    <time>2026-09-16T11:36:18Z</time>
   </trkpt>
   <trkpt lat="22.7304150" lon="120.3384300">
    <ele>22.0</ele>
    <time>2026-09-16T11:36:19Z</time>
   </trkpt>
   <trkpt lat="22.7304720" lon="120.3384050">
    <ele>22.1</ele>
    <time>2026-09-16T11:36:20Z</time>
   </trkpt>
   <trkpt lat="22.7305170" lon="120.3383850">
    <ele>22.1</ele>
    <time>2026-09-16T11:36:21Z</time>
   </trkpt>
   <trkpt lat="22.7305570" lon="120.3383590">
    <ele>22.2</ele>
    <time>2026-09-16T11:36:22Z</time>
   </trkpt>
   <trkpt lat="22.7305900" lon="120.3383320">
    <ele>22.3</ele>
    <time>2026-09-16T11:36:23Z</time>
   </trkpt>
   <trkpt lat="22.7306310" lon="120.3383070">
    <ele>22.4</ele>
    <time>2026-09-16T11:36:24Z</time>
   </trkpt>
   <trkpt lat="22.7306790" lon="120.3382960">
    <ele>22.4</ele>
    <time>2026-09-16T11:36:25Z</time>
   </trkpt>
   <trkpt lat="22.7307200" lon="120.3382940">
    <ele>22.5</ele>
    <time>2026-09-16T11:36:26Z</time>
   </trkpt>
   <trkpt lat="22.7307620" lon="120.3382940">
    <ele>22.6</ele>
    <time>2026-09-16T11:36:27Z</time>
   </trkpt>
   <trkpt lat="22.7307990" lon="120.3382960">
    <ele>22.6</ele>
    <time>2026-09-16T11:36:28Z</time>
   </trkpt>
   <trkpt lat="22.7308380" lon="120.3382920">
    <ele>22.7</ele>
    <time>2026-09-16T11:36:29Z</time>
   </trkpt>
   <trkpt lat="22.7308670" lon="120.3383000">
    <ele>22.8</ele>
    <time>2026-09-16T11:36:30Z</time>
   </trkpt>
   <trkpt lat="22.7309030" lon="120.3383010">
    <ele>22.8</ele>
    <time>2026-09-16T11:36:31Z</time>
   </trkpt>
   <trkpt lat="22.7309220" lon="120.3383150">
    <ele>22.7</ele>
    <time>2026-09-16T11:36:32Z</time>
   </trkpt>
   <trkpt lat="22.7309210" lon="120.3383520">
    <ele>22.4</ele>
    <time>2026-09-16T11:36:33Z</time>
   </trkpt>
   <trkpt lat="22.7309150" lon="120.3383950">
    <ele>22.2</ele>
    <time>2026-09-16T11:36:34Z</time>
   </trkpt>
   <trkpt lat="22.7309050" lon="120.3384340">
    <ele>21.9</ele>
    <time>2026-09-16T11:36:35Z</time>
   </trkpt>
   <trkpt lat="22.7309000" lon="120.3384810">
    <ele>21.6</ele>
    <time>2026-09-16T11:36:36Z</time>
   </trkpt>
   <trkpt lat="22.7309110" lon="120.3385360">
    <ele>21.3</ele>
    <time>2026-09-16T11:36:37Z</time>
   </trkpt>
   <trkpt lat="22.7309030" lon="120.3385740">
    <ele>21.2</ele>
    <time>2026-09-16T11:36:38Z</time>
   </trkpt>
   <trkpt lat="22.7308780" lon="120.3385940">
    <ele>21.1</ele>
    <time>2026-09-16T11:36:39Z</time>
   </trkpt>
   <trkpt lat="22.7308490" lon="120.3386010">
    <ele>21.0</ele>
    <time>2026-09-16T11:36:40Z</time>
   </trkpt>
   <trkpt lat="22.7308140" lon="120.3386040">
    <ele>20.9</ele>
    <time>2026-09-16T11:36:41Z</time>
   </trkpt>
   <trkpt lat="22.7307730" lon="120.3386020">
    <ele>20.7</ele>
    <time>2026-09-16T11:36:42Z</time>
   </trkpt>
   <trkpt lat="22.7307260" lon="120.3386030">
    <ele>20.6</ele>
    <time>2026-09-16T11:36:43Z</time>
   </trkpt>
   <trkpt lat="22.7306790" lon="120.3386060">
    <ele>20.4</ele>
    <time>2026-09-16T11:36:44Z</time>
   </trkpt>
   <trkpt lat="22.7306340" lon="120.3386100">
    <ele>20.3</ele>
    <time>2026-09-16T11:36:45Z</time>
   </trkpt>
   <trkpt lat="22.7305900" lon="120.3386190">
    <ele>20.1</ele>
    <time>2026-09-16T11:36:46Z</time>
   </trkpt>
   <trkpt lat="22.7305510" lon="120.3386400">
    <ele>20.0</ele>
    <time>2026-09-16T11:36:47Z</time>
   </trkpt>
   <trkpt lat="22.7305070" lon="120.3386610">
    <ele>19.8</ele>
    <time>2026-09-16T11:36:48Z</time>
   </trkpt>
   <trkpt lat="22.7304670" lon="120.3386780">
    <ele>19.7</ele>
    <time>2026-09-16T11:36:49Z</time>
   </trkpt>
   <trkpt lat="22.7304220" lon="120.3387000">
    <ele>19.5</ele>
    <time>2026-09-16T11:36:50Z</time>
   </trkpt>
   <trkpt lat="22.7303760" lon="120.3387210">
    <ele>19.4</ele>
    <time>2026-09-16T11:36:51Z</time>
   </trkpt>
   <trkpt lat="22.7303290" lon="120.3387490">
    <ele>19.2</ele>
    <time>2026-09-16T11:36:52Z</time>
   </trkpt>
   <trkpt lat="22.7302790" lon="120.3387800">
    <ele>19.0</ele>
    <time>2026-09-16T11:36:53Z</time>
   </trkpt>
   <trkpt lat="22.7302310" lon="120.3388100">
    <ele>18.8</ele>
    <time>2026-09-16T11:36:54Z</time>
   </trkpt>
   <trkpt lat="22.7301850" lon="120.3388370">
    <ele>18.6</ele>
    <time>2026-09-16T11:36:55Z</time>
   </trkpt>
   <trkpt lat="22.7301470" lon="120.3388600">
    <ele>18.5</ele>
    <time>2026-09-16T11:36:56Z</time>
   </trkpt>
   <trkpt lat="22.7301250" lon="120.3388750">
    <ele>18.4</ele>
    <time>2026-09-16T11:36:57Z</time>
   </trkpt>
   <trkpt lat="22.7300970" lon="120.3388880">
    <ele>18.3</ele>
    <time>2026-09-16T11:36:58Z</time>
   </trkpt>
   <trkpt lat="22.7300620" lon="120.3389030">
    <ele>18.2</ele>
    <time>2026-09-16T11:36:59Z</time>
   </trkpt>
   <trkpt lat="22.7300340" lon="120.3389100">
    <ele>18.1</ele>
    <time>2026-09-16T11:37:00Z</time>
   </trkpt>
   <trkpt lat="22.7300150" lon="120.3389020">
    <ele>18.3</ele>
    <time>2026-09-16T11:37:01Z</time>
   </trkpt>
   <trkpt lat="22.7299970" lon="120.3388810">
    <ele>18.6</ele>
    <time>2026-09-16T11:37:02Z</time>
   </trkpt>
   <trkpt lat="22.7299810" lon="120.3388550">
    <ele>19.0</ele>
    <time>2026-09-16T11:37:03Z</time>
   </trkpt>
   <trkpt lat="22.7299730" lon="120.3388120">
    <ele>19.4</ele>
    <time>2026-09-16T11:37:04Z</time>
   </trkpt>
   <trkpt lat="22.7299610" lon="120.3387710">
    <ele>19.9</ele>
    <time>2026-09-16T11:37:05Z</time>
   </trkpt>
   <trkpt lat="22.7299490" lon="120.3387310">
    <ele>20.3</ele>
    <time>2026-09-16T11:37:06Z</time>
   </trkpt>
   <trkpt lat="22.7299370" lon="120.3386850">
    <ele>20.7</ele>
    <time>2026-09-16T11:37:07Z</time>
   </trkpt>
   <trkpt lat="22.7299220" lon="120.3386430">
    <ele>21.1</ele>
    <time>2026-09-16T11:37:08Z</time>
   </trkpt>
   <trkpt lat="22.7299060" lon="120.3386020">
    <ele>21.2</ele>
    <time>2026-09-16T11:37:09Z</time>
   </trkpt>
   <trkpt lat="22.7298680" lon="120.3385600">
    <ele>21.2</ele>
    <time>2026-09-16T11:37:10Z</time>
   </trkpt>
   <trkpt lat="22.7298370" lon="120.3385220">
    <ele>21.3</ele>
    <time>2026-09-16T11:37:11Z</time>
   </trkpt>
   <trkpt lat="22.7298110" lon="120.3384890">
    <ele>21.5</ele>
    <time>2026-09-16T11:37:12Z</time>
   </trkpt>
   <trkpt lat="22.7297900" lon="120.3384610">
    <ele>21.5</ele>
    <time>2026-09-16T11:37:13Z</time>
   </trkpt>
   <trkpt lat="22.7297720" lon="120.3384340">
    <ele>21.6</ele>
    <time>2026-09-16T11:37:14Z</time>
   </trkpt>
   <trkpt lat="22.7297580" lon="120.3384100">
    <ele>21.7</ele>
    <time>2026-09-16T11:37:15Z</time>
   </trkpt>
  </trkseg>
 </trk>
</gpx>
