<?xml version="1.0" encoding="UTF-8"?>
<gpx creator="StravaGPX" version="1.1" xmlns="http://www.topografix.com/GPX/1/1" xmlns:xsi="http://www.w3.org/2001/XMLSchema-instance" xsi:schemaLocation="http://www.topografix.com/GPX/1/1 http://www.topografix.com/GPX/1/1/gpx.xsd">
 <metadata>
  <time>2026-09-16T09:26:44Z</time>
 </metadata>
 <trk>
  <name>午後騎乘</name>
  <type>cycling</type>
  <trkseg>
   <trkpt lat="22.7280290" lon="120.3113700">
    <ele>18.1</ele>
    <time>2026-09-16T09:26:44Z</time>
   </trkpt>
   <trkpt lat="22.7280300" lon="120.3113730">
    <ele>18.1</ele>
    <time>2026-09-16T09:26:45Z</time>
   </trkpt>
   <trkpt lat="22.7280280" lon="120.3113710">
    <ele>18.1</ele>
    <time>2026-09-16T09:26:46Z</time>
   </trkpt>
   <trkpt lat="22.7280250" lon="120.3113660">
    <ele>18.1</ele>
    <time>2026-09-16T09:26:47Z</time>
   </trkpt>
   <trkpt lat="22.7280240" lon="120.3113620">
    <ele>18.1</ele>
    <time>2026-09-16T09:26:48Z</time>
   </trkpt>
   <trkpt lat="22.7280220" lon="120.3113610">
    <ele>18.1</ele>
    <time>2026-09-16T09:26:49Z</time>
   </trkpt>
   <trkpt lat="22.7280180" lon="120.3113580">
    <ele>18.1</ele>
    <time>2026-09-16T09:26:50Z</time>
   </trkpt>
   <trkpt lat="22.7280150" lon="120.3113540">
    <ele>18.1</ele>
    <time>2026-09-16T09:26:51Z</time>
   </trkpt>
   <trkpt lat="22.7280140" lon="120.3113520">
    <ele>18.1</ele>
    <time>2026-09-16T09:26:52Z</time>
   </trkpt>
   <trkpt lat="22.7280150" lon="120.3113480">
    <ele>18.1</ele>
    <time>2026-09-16T09:26:53Z</time>
   </trkpt>
   <trkpt lat="22.7280190" lon="120.3113500">
    <ele>18.1</ele>
    <time>2026-09-16T09:26:54Z</time>
   </trkpt>
   <trkpt lat="22.7280200" lon="120.3113470">
    <ele>18.1</ele>
    <time>2026-09-16T09:26:55Z</time>
   </trkpt>
   <trkpt lat="22.7280210" lon="120.3113450">
    <ele>18.1</ele>
    <time>2026-09-16T09:26:56Z</time>
   </trkpt>
   <trkpt lat="22.7280210" lon="120.3113430">
    <ele>18.1</ele>
    <time>2026-09-16T09:26:57Z</time>
   </trkpt>
   <trkpt lat="22.7280210" lon="120.3113410">
    <ele>18.1</ele>
    <time>2026-09-16T09:26:58Z</time>
   </trkpt>
   <trkpt lat="22.7280210" lon="120.3113390">
    <ele>18.1</ele>
    <time>2026-09-16T09:26:59Z</time>
   </trkpt>
   <trkpt lat="22.7280220" lon="120.3113360">
    <ele>18.1</ele>
    <time>2026-09-16T09:27:00Z</time>
   </trkpt>
   <trkpt lat="22.7280230" lon="120.3113350">
    <ele>18.1</ele>
    <time>2026-09-16T09:27:01Z</time>
   </trkpt>
   <trkpt lat="22.7280230" lon="120.3113350">
    <ele>18.1</ele>
    <time>2026-09-16T09:27:02Z</time>
   </trkpt>
   <trkpt lat="22.7280780" lon="120.3112340">
    <ele>18.1</ele>
    <time>2026-09-16T09:27:11Z</time>
   </trkpt>
   <trkpt lat="22.7280760" lon="120.3112330">
    <ele>18.1</ele>
    <time>2026-09-16T09:27:12Z</time>
   </trkpt>
   <trkpt lat="22.7280590" lon="120.3112020">
    <ele>18.1</ele>
    <time>2026-09-16T09:27:13Z</time>
   </trkpt>
   <trkpt lat="22.7280520" lon="120.3112110">
    <ele>18.1</ele>
    <time>2026-09-16T09:27:14Z</time>
   </trkpt>
   <trkpt lat="22.7280510" lon="120.3112140">
    <ele>18.1</ele>
    <time>2026-09-16T09:27:15Z</time>
   </trkpt>
   <trkpt lat="22.7280490" lon="120.3112010">
    <ele>18.1</ele>
    <time>2026-09-16T09:27:16Z</time>
   </trkpt>
   <trkpt lat="22.7280430" lon="120.3111980">
    <ele>18.1</ele>
    <time>2026-09-16T09:27:17Z</time>
   </trkpt>
   <trkpt lat="22.7280430" lon="120.3111780">
    <ele>18.1</ele>
    <time>2026-09-16T09:27:18Z</time>
   </trkpt>
   <trkpt lat="22.7280390" lon="120.3111710">
    <ele>18.1</ele>
    <time>2026-09-16T09:27:19Z</time>
   </trkpt>
   <trkpt lat="22.7280340" lon="120.3111660">
    <ele>18.1</ele>
    <time>2026-09-16T09:27:20Z</time>
   </trkpt>
   <trkpt lat="22.7280290" lon="120.3111610">
    <ele>18.1</ele>
    <time>2026-09-16T09:27:21Z</time>
   </trkpt>
   <trkpt lat="22.7280100" lon="120.3111770">
    <ele>18.1</ele>
    <time>2026-09-16T09:27:22Z</time>
   </trkpt>
   <trkpt lat="22.7280290" lon="120.3111670">
    <ele>18.1</ele>
    <time>2026-09-16T09:27:23Z</time>
   </trkpt>
   <trkpt lat="22.7280530" lon="120.3111540">
    <ele>18.1</ele>
    <time>2026-09-16T09:27:24Z</time>
   </trkpt>
   <trkpt lat="22.7280490" lon="120.3111480">
    <ele>18.1</ele>
    <time>2026-09-16T09:27:25Z</time>
   </trkpt>
   <trkpt lat="22.7280520" lon="120.3111470">
    <ele>18.1</ele>
    <time>2026-09-16T09:27:26Z</time>
   </trkpt>
   <trkpt lat="22.7280470" lon="120.3111400">
    <ele>18.1</ele>
    <time>2026-09-16T09:27:27Z</time>
   </trkpt>
   <trkpt lat="22.7280500" lon="120.3111410">
    <ele>18.1</ele>
    <time>2026-09-16T09:27:28Z</time>
   </trkpt>
   <trkpt lat="22.7280410" lon="120.3111670">
    <ele>18.1</ele>
    <time>2026-09-16T09:27:29Z</time>
   </trkpt>
   <trkpt lat="22.7280410" lon="120.3111670">
    <ele>18.1</ele>
    <time>2026-09-16T09:27:30Z</time>
   </trkpt>
   <trkpt lat="22.7280500" lon="120.3111640">
    <ele>18.1</ele>
    <time>2026-09-16T09:27:31Z</time>
   </trkpt>
   <trkpt lat="22.7280450" lon="120.3111580">
    <ele>18.1</ele>
    <time>2026-09-16T09:27:32Z</time>
   </trkpt>
   <trkpt lat="22.7279600" lon="120.3111260">
    <ele>18.1</ele>
    <time>2026-09-16T09:28:18Z</time>
   </trkpt>
   <trkpt lat="22.7279590" lon="120.3111330">
    <ele>18.1</ele>
    <time>2026-09-16T09:28:19Z</time>
   </trkpt>
   <trkpt lat="22.7279420" lon="120.3111600">
    <ele>18.1</ele>
    <time>2026-09-16T09:28:20Z</time>
   </trkpt>
   <trkpt lat="22.7279420" lon="120.3111540">
    <ele>18.0</ele>
    <time>2026-09-16T09:28:21Z</time>
   </trkpt>
   <trkpt lat="22.7279410" lon="120.3111380">
    <ele>18.0</ele>
    <time>2026-09-16T09:28:22Z</time>
   </trkpt>
   <trkpt lat="22.7279280" lon="120.3111350">
    <ele>18.0</ele>
    <time>2026-09-16T09:28:23Z</time>
   </trkpt>
   <trkpt lat="22.7279290" lon="120.3111290">
    <ele>18.0</ele>
    <time>2026-09-16T09:28:24Z</time>
   </trkpt>
   <trkpt lat="22.7279500" lon="120.3111140">
    <ele>18.0</ele>
    <time>2026-09-16T09:28:25Z</time>
   </trkpt>
   <trkpt lat="22.7279600" lon="120.3111050">
    <ele>18.0</ele>
    <time>2026-09-16T09:28:26Z</time>
   </trkpt>
   <trkpt lat="22.7279680" lon="120.3111020">
    <ele>18.0</ele>
    <time>2026-09-16T09:28:27Z</time>
   </trkpt>
   <trkpt lat="22.7279700" lon="120.3111030">
    <ele>18.0</ele>
    <time>2026-09-16T09:28:28Z</time>
   </trkpt>
   <trkpt lat="22.7279160" lon="120.3111090">
    <ele>18.0</ele>
    <time>2026-09-16T09:28:40Z</time>
   </trkpt>
   <trkpt lat="22.7279260" lon="120.3111140">
    <ele>18.0</ele>
    <time>2026-09-16T09:28:41Z</time>
   </trkpt>
   <trkpt lat="22.7279210" lon="120.3111350">
    <ele>18.0</ele>
    <time>2026-09-16T09:28:42Z</time>
   </trkpt>
   <trkpt lat="22.7279190" lon="120.3111390">
    <ele>18.0</ele>
    <time>2026-09-16T09:28:43Z</time>
   </trkpt>
   <trkpt lat="22.7279220" lon="120.3111340">
    <ele>18.0</ele>
    <time>2026-09-16T09:28:44Z</time>
   </trkpt>
   <trkpt lat="22.7279260" lon="120.3111310">
    <ele>18.0</ele>
    <time>2026-09-16T09:28:45Z</time>
   </trkpt>
   <trkpt lat="22.7279340" lon="120.3111260">
    <ele>18.0</ele>
    <time>2026-09-16T09:28:46Z</time>
   </trkpt>
   <trkpt lat="22.7279500" lon="120.3111120">
    <ele>18.0</ele>
    <time>2026-09-16T09:28:47Z</time>
   </trkpt>
   <trkpt lat="22.7279540" lon="120.3111060">
    <ele>18.0</ele>
    <time>2026-09-16T09:28:48Z</time>
   </trkpt>
   <trkpt lat="22.7279340" lon="120.3110950">
    <ele>18.0</ele>
    <time>2026-09-16T09:28:49Z</time>
   </trkpt>
   <trkpt lat="22.7279550" lon="120.3111510">
    <ele>18.0</ele>
    <time>2026-09-16T09:28:50Z</time>
   </trkpt>
   <trkpt lat="22.7279390" lon="120.3111310">
    <ele>18.0</ele>
    <time>2026-09-16T09:28:51Z</time>
   </trkpt>
   <trkpt lat="22.7279360" lon="120.3111200">
    <ele>18.0</ele>
    <time>2026-09-16T09:28:52Z</time>
   </trkpt>
   <trkpt lat="22.7279200" lon="120.3111080">
    <ele>18.0</ele>
    <time>2026-09-16T09:28:53Z</time>
   </trkpt>
   <trkpt lat="22.7279320" lon="120.3111140">
    <ele>18.0</ele>
    <time>2026-09-16T09:28:54Z</time>
   </trkpt>
   <trkpt lat="22.7279260" lon="120.3110700">
    <ele>18.0</ele>
    <time>2026-09-16T09:28:55Z</time>
   </trkpt>
   <trkpt lat="22.7278980" lon="120.3110540">
    <ele>18.0</ele>
    <time>2026-09-16T09:28:56Z</time>
   </trkpt>
   <trkpt lat="22.7278940" lon="120.3110580">
    <ele>18.0</ele>
    <time>2026-09-16T09:28:57Z</time>
   </trkpt>
   <trkpt lat="22.7278950" lon="120.3110620">
    <ele>18.0</ele>
    <time>2026-09-16T09:28:58Z</time>
   </trkpt>
   <trkpt lat="22.7279000" lon="120.3110790">
    <ele>18.0</ele>
    <time>2026-09-16T09:28:59Z</time>
   </trkpt>
   <trkpt lat="22.7279130" lon="120.3110660">
    <ele>18.0</ele>
    <time>2026-09-16T09:29:00Z</time>
   </trkpt>
   <trkpt lat="22.7279170" lon="120.3110700">
    <ele>18.0</ele>
    <time>2026-09-16T09:29:01Z</time>
   </trkpt>
   <trkpt lat="22.7279180" lon="120.3110690">
    <ele>18.0</ele>
    <time>2026-09-16T09:29:02Z</time>
   </trkpt>
   <trkpt lat="22.7279310" lon="120.3110640">
    <ele>18.0</ele>
    <time>2026-09-16T09:29:03Z</time>
   </trkpt>
   <trkpt lat="22.7279240" lon="120.3110670">
    <ele>18.0</ele>
    <time>2026-09-16T09:29:04Z</time>
   </trkpt>
   <trkpt lat="22.7279240" lon="120.3111030">
    <ele>18.0</ele>
    <time>2026-09-16T09:29:07Z</time>
   </trkpt>
   <trkpt lat="22.7279330" lon="120.3111130">
    <ele>18.0</ele>
    <time>2026-09-16T09:29:08Z</time>
   </trkpt>
   <trkpt lat="22.7279360" lon="120.3111280">
    <ele>18.0</ele>
    <time>2026-09-16T09:29:09Z</time>
   </trkpt>
   <trkpt lat="22.7279400" lon="120.3111470">
    <ele>18.0</ele>
    <time>2026-09-16T09:29:10Z</time>
   </trkpt>
   <trkpt lat="22.7279330" lon="120.3111570">
    <ele>18.0</ele>
    <time>2026-09-16T09:29:11Z</time>
   </trkpt>
   <trkpt lat="22.7279340" lon="120.3111730">
    <ele>18.0</ele>
    <time>2026-09-16T09:29:12Z</time>
   </trkpt>
   <trkpt lat="22.7279270" lon="120.3111930">
    <ele>18.0</ele>
    <time>2026-09-16T09:29:13Z</time>
   </trkpt>
   <trkpt lat="22.7279270" lon="120.3111930">
    <ele>18.0</ele>
    <time>2026-09-16T09:29:14Z</time>
   </trkpt>
   <trkpt lat="22.7279270" lon="120.3111930">
    <ele>18.0</ele>
    <time>2026-09-16T09:29:15Z</time>
   </trkpt>
   <trkpt lat="22.7279270" lon="120.3111930">
    <ele>18.0</ele>
    <time>2026-09-16T09:29:16Z</time>
   </trkpt>
   <trkpt lat="22.7279170" lon="120.3112230">
    <ele>18.0</ele>
    <time>2026-09-16T09:29:17Z</time>
   </trkpt>
   <trkpt lat="22.7279060" lon="120.3112550">
    <ele>18.0</ele>
    <time>2026-09-16T09:29:18Z</time>
   </trkpt>
   <trkpt lat="22.7278950" lon="120.3112860">
    <ele>18.0</ele>
    <time>2026-09-16T09:29:19Z</time>
   </trkpt>
   <trkpt lat="22.7278840" lon="120.3113180">
    <ele>18.0</ele>
    <time>2026-09-16T09:29:20Z</time>
   </trkpt>
   <trkpt lat="22.7278940" lon="120.3113370">
    <ele>18.0</ele>
    <time>2026-09-16T09:29:21Z</time>
   </trkpt>
   <trkpt lat="22.7278890" lon="120.3113140">
    <ele>18.0</ele>
    <time>2026-09-16T09:29:22Z</time>
   </trkpt>
   <trkpt lat="22.7278850" lon="120.3113180">
    <ele>18.0</ele>
    <time>2026-09-16T09:29:23Z</time>
   </trkpt>
   <trkpt lat="22.7278700" lon="120.3113230">
    <ele>18.0</ele>
    <time>2026-09-16T09:29:24Z</time>
   </trkpt>
   <trkpt lat="22.7278630" lon="120.3113390">
    <ele>18.0</ele>
    <time>2026-09-16T09:29:25Z</time>
   </trkpt>
   <trkpt lat="22.7278680" lon="120.3113570">
    <ele>18.0</ele>
    <time>2026-09-16T09:29:26Z</time>
   </trkpt>
   <trkpt lat="22.7278670" lon="120.3113670">
    <ele>18.0</ele>
    <time>2026-09-16T09:29:27Z</time>
   </trkpt>
   <trkpt lat="22.7278670" lon="120.3113670">
    <ele>18.0</ele>
    <time>2026-09-16T09:29:28Z</time>
   </trkpt>
   <trkpt lat="22.7278670" lon="120.3113820">
    <ele>18.0</ele>
    <time>2026-09-16T09:29:29Z</time>
   </trkpt>
   <trkpt lat="22.7278640" lon="120.3114030">
    <ele>18.1</ele>
    <time>2026-09-16T09:29:30Z</time>
   </trkpt>
   <trkpt lat="22.7278810" lon="120.3113640">
    <ele>18.1</ele>
    <time>2026-09-16T09:29:31Z</time>
   </trkpt>
   <trkpt lat="22.7278810" lon="120.3113640">
    <ele>18.1</ele>
    <time>2026-09-16T09:29:32Z</time>
   </trkpt>
   <trkpt lat="22.7278670" lon="120.3114200">
    <ele>18.1</ele>
    <time>2026-09-16T09:29:33Z</time>
   </trkpt>
   <trkpt lat="22.7278800" lon="120.3114000">
    <ele>18.1</ele>
    <time>2026-09-16T09:29:34Z</time>
   </trkpt>
   <trkpt lat="22.7278940" lon="120.3113710">
    <ele>18.1</ele>
    <time>2026-09-16T09:29:35Z</time>
   </trkpt>
   <trkpt lat="22.7279140" lon="120.3113530">
    <ele>18.1</ele>
    <time>2026-09-16T09:29:36Z</time>
   </trkpt>
   <trkpt lat="22.7279200" lon="120.3113700">
    <ele>18.1</ele>
    <time>2026-09-16T09:29:37Z</time>
   </trkpt>
   <trkpt lat="22.7279100" lon="120.3113750">
    <ele>18.1</ele>
    <time>2026-09-16T09:29:38Z</time>
   </trkpt>
   <trkpt lat="22.7279330" lon="120.3113900">
    <ele>18.1</ele>
    <time>2026-09-16T09:29:39Z</time>
   </trkpt>
   <trkpt lat="22.7279320" lon="120.3113840">
    <ele>18.1</ele>
    <time>2026-09-16T09:29:40Z</time>
   </trkpt>
   <trkpt lat="22.7279400" lon="120.3114260">
    <ele>18.1</ele>
    <time>2026-09-16T09:29:41Z</time>
   </trkpt>
   <trkpt lat="22.7279440" lon="120.3114280">
    <ele>18.1</ele>
    <time>2026-09-16T09:29:42Z</time>
   </trkpt>
   <trkpt lat="22.7279480" lon="120.3114440">
    <ele>18.1</ele>
    <time>2026-09-16T09:29:43Z</time>
   </trkpt>
   <trkpt lat="22.7279530" lon="120.3114350">
    <ele>18.1</ele>
    <time>2026-09-16T09:29:44Z</time>
   </trkpt>
   <trkpt lat="22.7279370" lon="120.3114700">
    <ele>18.1</ele>
    <time>2026-09-16T09:29:45Z</time>
   </trkpt>
   <trkpt lat="22.7279280" lon="120.3114990">
    <ele>18.1</ele>
    <time>2026-09-16T09:29:46Z</time>
   </trkpt>
   <trkpt lat="22.7279150" lon="120.3115020">
    <ele>18.1</ele>
    <time>2026-09-16T09:29:47Z</time>
   </trkpt>
   <trkpt lat="22.7279210" lon="120.3114720">
    <ele>18.1</ele>
    <time>2026-09-16T09:29:48Z</time>
   </trkpt>
   <trkpt lat="22.7279360" lon="120.3114450">
    <ele>18.1</ele>
    <time>2026-09-16T09:29:49Z</time>
   </trkpt>
   <trkpt lat="22.7279360" lon="120.3114390">
    <ele>18.1</ele>
    <time>2026-09-16T09:29:50Z</time>
   </trkpt>
   <trkpt lat="22.7279180" lon="120.3114030">
    <ele>18.1</ele>
    <time>2026-09-16T09:29:51Z</time>
   </trkpt>
   <trkpt lat="22.7279170" lon="120.3113990">
    <ele>18.1</ele>
    <time>2026-09-16T09:29:52Z</time>
   </trkpt>
   <trkpt lat="22.7279440" lon="120.3114080">
    <ele>18.1</ele>
    <time>2026-09-16T09:29:53Z</time>
   </trkpt>
   <trkpt lat="22.7279540" lon="120.3114050">
    <ele>18.1</ele>
    <time>2026-09-16T09:29:54Z</time>
   </trkpt>
   <trkpt lat="22.7279750" lon="120.3114270">
    <ele>18.1</ele>
    <time>2026-09-16T09:29:55Z</time>
   </trkpt>
   <trkpt lat="22.7279960" lon="120.3114570">
    <ele>18.1</ele>
    <time>2026-09-16T09:29:56Z</time>
   </trkpt>
   <trkpt lat="22.7280070" lon="120.3114700">
    <ele>18.1</ele>
    <time>2026-09-16T09:29:57Z</time>
   </trkpt>
   <trkpt lat="22.7280090" lon="120.3114760">
    <ele>18.1</ele>
    <time>2026-09-16T09:29:58Z</time>
   </trkpt>
   <trkpt lat="22.7280070" lon="120.3114710">
    <ele>18.1</ele>
    <time>2026-09-16T09:29:59Z</time>
   </trkpt>
   <trkpt lat="22.7280120" lon="120.3114790">
    <ele>18.1</ele>
    <time>2026-09-16T09:30:00Z</time>
   </trkpt>
   <trkpt lat="22.7280160" lon="120.3114920">
    <ele>18.1</ele>
    <time>2026-09-16T09:30:01Z</time>
   </trkpt>
   <trkpt lat="22.7280230" lon="120.3114960">
    <ele>18.1</ele>
    <time>2026-09-16T09:30:02Z</time>
   </trkpt>
   <trkpt lat="22.7280210" lon="120.3115120">
    <ele>18.1</ele>
    <time>2026-09-16T09:30:03Z</time>
   </trkpt>
   <trkpt lat="22.7280250" lon="120.3115280">
    <ele>18.1</ele>
    <time>2026-09-16T09:30:04Z</time>
   </trkpt>
   <trkpt lat="22.7280300" lon="120.3115380">
    <ele>18.1</ele>
    <time>2026-09-16T09:30:05Z</time>
   </trkpt>
   <trkpt lat="22.7280160" lon="120.3115620">
    <ele>18.1</ele>
    <time>2026-09-16T09:30:06Z</time>
   </trkpt>
   <trkpt lat="22.7280150" lon="120.3115690">
    <ele>18.1</ele>
    <time>2026-09-16T09:30:07Z</time>
   </trkpt>
   <trkpt lat="22.7280250" lon="120.3115700">
    <ele>18.1</ele>
    <time>2026-09-16T09:30:08Z</time>
   </trkpt>
   <trkpt lat="22.7280430" lon="120.3115660">
    <ele>18.1</ele>
    <time>2026-09-16T09:30:09Z</time>
   </trkpt>
   <trkpt lat="22.7280500" lon="120.3115510">
    <ele>18.1</ele>
    <time>2026-09-16T09:30:10Z</time>
   </trkpt>
   <trkpt lat="22.7280760" lon="120.3115280">
    <ele>18.1</ele>
    <time>2026-09-16T09:30:11Z</time>
   </trkpt>
   <trkpt lat="22.7280880" lon="120.3115160">
    <ele>18.1</ele>
    <time>2026-09-16T09:30:12Z</time>
   </trkpt>
   <trkpt lat="22.7281220" lon="120.3115240">
    <ele>18.1</ele>
    <time>2026-09-16T09:30:13Z</time>
   </trkpt>
   <trkpt lat="22.7281450" lon="120.3114900">
    <ele>18.1</ele>
    <time>2026-09-16T09:30:14Z</time>
   </trkpt>
   <trkpt lat="22.7281920" lon="120.3114940">
    <ele>18.1</ele>
    <time>2026-09-16T09:30:15Z</time>
   </trkpt>
   <trkpt lat="22.7282060" lon="120.3114830">
    <ele>18.1</ele>
    <time>2026-09-16T09:30:16Z</time>
   </trkpt>
   <trkpt lat="22.7282180" lon="120.3114920">
    <ele>18.1</ele>
    <time>2026-09-16T09:30:17Z</time>
   </trkpt>
   <trkpt lat="22.7282210" lon="120.3115000">
    <ele>18.1</ele>
    <time>2026-09-16T09:30:18Z</time>
   </trkpt>
   <trkpt lat="22.7282230" lon="120.3115050">
    <ele>18.1</ele>
    <time>2026-09-16T09:30:19Z</time>
   </trkpt>
   <trkpt lat="22.7282260" lon="120.3115110">
    <ele>18.1</ele>
    <time>2026-09-16T09:30:20Z</time>
   </trkpt>
   <trkpt lat="22.7282150" lon="120.3115190">
    <ele>18.1</ele>
    <time>2026-09-16T09:30:21Z</time>
   </trkpt>
   <trkpt lat="22.7282230" lon="120.3115330">
    <ele>18.1</ele>
    <time>2026-09-16T09:30:22Z</time>
   </trkpt>
   <trkpt lat="22.7282470" lon="120.3115490">
    <ele>18.1</ele>
    <time>2026-09-16T09:30:23Z</time>
   </trkpt>
   <trkpt lat="22.7282600" lon="120.3115570">
    <ele>18.1</ele>
    <time>2026-09-16T09:30:24Z</time>
   </trkpt>
   <trkpt lat="22.7282570" lon="120.3115610">
    <ele>18.1</ele>
    <time>2026-09-16T09:30:25Z</time>
   </trkpt>
   <trkpt lat="22.7282640" lon="120.3115700">
    <ele>18.1</ele>
    <time>2026-09-16T09:30:26Z</time>
   </trkpt>
   <trkpt lat="22.7282750" lon="120.3115840">
    <ele>18.1</ele>
    <time>2026-09-16T09:30:27Z</time>
   </trkpt>
   <trkpt lat="22.7282790" lon="120.3115940">
    <ele>18.1</ele>
    <time>2026-09-16T09:30:28Z</time>
   </trkpt>
   <trkpt lat="22.7282730" lon="120.3116080">
    <ele>18.1</ele>
    <time>2026-09-16T09:30:29Z</time>
   </trkpt>
   <trkpt lat="22.7282800" lon="120.3116250">
    <ele>18.1</ele>
    <time>2026-09-16T09:30:30Z</time>
   </trkpt>
   <trkpt lat="22.7282690" lon="120.3116350">
    <ele>18.1</ele>
    <time>2026-09-16T09:30:31Z</time>
   </trkpt>
   <trkpt lat="22.7282890" lon="120.3116300">
    <ele>18.1</ele>
    <time>2026-09-16T09:30:32Z</time>
   </trkpt>
   <trkpt lat="22.7282910" lon="120.3116380">
    <ele>18.1</ele>
    <time>2026-09-16T09:30:33Z</time>
   </trkpt>
   <trkpt lat="22.7283140" lon="120.3116420">
    <ele>18.1</ele>
    <time>2026-09-16T09:30:34Z</time>
   </trkpt>
   <trkpt lat="22.7283290" lon="120.3116610">
    <ele>18.1</ele>
    <time>2026-09-16T09:30:35Z</time>
   </trkpt>
   <trkpt lat="22.7283300" lon="120.3116880">
    <ele>18.1</ele>
    <time>2026-09-16T09:30:36Z</time>
   </trkpt>
   <trkpt lat="22.7283300" lon="120.3117040">
    <ele>18.1</ele>
    <time>2026-09-16T09:30:37Z</time>
   </trkpt>
   <trkpt lat="22.7283310" lon="120.3117210">
    <ele>18.1</ele>
    <time>2026-09-16T09:30:38Z</time>
   </trkpt>
   <trkpt lat="22.7283310" lon="120.3117370">
    <ele>18.1</ele>
    <time>2026-09-16T09:30:39Z</time>
   </trkpt>
   <trkpt lat="22.7283320" lon="120.3117400">
    <ele>18.1</ele>
    <time>2026-09-16T09:30:40Z</time>
   </trkpt>
   <trkpt lat="22.7283430" lon="120.3117570">
    <ele>18.1</ele>
    <time>2026-09-16T09:30:41Z</time>
   </trkpt>
   <trkpt lat="22.7283410" lon="120.3117690">
    <ele>18.1</ele>
    <time>2026-09-16T09:30:42Z</time>
   </trkpt>
   <trkpt lat="22.7283470" lon="120.3117680">
    <ele>18.1</ele>
    <time>2026-09-16T09:30:43Z</time>
   </trkpt>
   <trkpt lat="22.7283690" lon="120.3117800">
    <ele>18.1</ele>
    <time>2026-09-16T09:30:44Z</time>
   </trkpt>
   <trkpt lat="22.7284010" lon="120.3117920">
    <ele>18.1</ele>
    <time>2026-09-16T09:30:45Z</time>
   </trkpt>
   <trkpt lat="22.7284070" lon="120.3117970">
    <ele>18.1</ele>
    <time>2026-09-16T09:30:46Z</time>
   </trkpt>
   <trkpt lat="22.7284230" lon="120.3118160">
    <ele>18.2</ele>
    <time>2026-09-16T09:30:47Z</time>
   </trkpt>
   <trkpt lat="22.7284300" lon="120.3118250">
    <ele>18.2</ele>
    <time>2026-09-16T09:30:48Z</time>
   </trkpt>
   <trkpt lat="22.7284490" lon="120.3118390">
    <ele>18.2</ele>
    <time>2026-09-16T09:30:49Z</time>
   </trkpt>
   <trkpt lat="22.7284590" lon="120.3118640">
    <ele>18.2</ele>
    <time>2026-09-16T09:30:50Z</time>
   </trkpt>
   <trkpt lat="22.7284640" lon="120.3118760">
    <ele>18.2</ele>
    <time>2026-09-16T09:30:51Z</time>
   </trkpt>
   <trkpt lat="22.7284720" lon="120.3118930">
    <ele>18.2</ele>
    <time>2026-09-16T09:30:52Z</time>
   </trkpt>
   <trkpt lat="22.7284770" lon="120.3119410">
    <ele>18.2</ele>
    <time>2026-09-16T09:30:53Z</time>
   </trkpt>
   <trkpt lat="22.7284930" lon="120.3119630">
    <ele>18.2</ele>
    <time>2026-09-16T09:30:54Z</time>
   </trkpt>
   <trkpt lat="22.7285050" lon="120.3119690">
    <ele>18.2</ele>
    <time>2026-09-16T09:30:55Z</time>
   </trkpt>
   <trkpt lat="22.7285150" lon="120.3119740">
    <ele>18.2</ele>
    <time>2026-09-16T09:30:56Z</time>
   </trkpt>
   <trkpt lat="22.7285250" lon="120.3119790">
    <ele>18.2</ele>
    <time>2026-09-16T09:30:57Z</time>
   </trkpt>
   <trkpt lat="22.7285350" lon="120.3119840">
    <ele>18.2</ele>
    <time>2026-09-16T09:30:58Z</time>
   </trkpt>
   <trkpt lat="22.7285350" lon="120.3119840">
    <ele>18.2</ele>
    <time>2026-09-16T09:30:59Z</time>
   </trkpt>
   <trkpt lat="22.7285350" lon="120.3119840">
    <ele>18.2</ele>
    <time>2026-09-16T09:31:00Z</time>
   </trkpt>
   <trkpt lat="22.7285570" lon="120.3119950">
    <ele>18.2</ele>
    <time>2026-09-16T09:31:01Z</time>
   </trkpt>
   <trkpt lat="22.7285970" lon="120.3120150">
    <ele>18.2</ele>
    <time>2026-09-16T09:31:02Z</time>
   </trkpt>
   <trkpt lat="22.7286020" lon="120.3119730">
    <ele>18.2</ele>
    <time>2026-09-16T09:31:03Z</time>
   </trkpt>
   <trkpt lat="22.7286320" lon="120.3119710">
    <ele>18.2</ele>
    <time>2026-09-16T09:31:04Z</time>
   </trkpt>
   <trkpt lat="22.7286710" lon="120.3119470">
    <ele>18.2</ele>
    <time>2026-09-16T09:31:05Z</time>
   </trkpt>
   <trkpt lat="22.7286870" lon="120.3119360">
    <ele>18.2</ele>
    <time>2026-09-16T09:31:06Z</time>
   </trkpt>
   <trkpt lat="22.7287020" lon="120.3119160">
    <ele>18.2</ele>
    <time>2026-09-16T09:31:07Z</time>
   </trkpt>
   <trkpt lat="22.7287100" lon="120.3119030">
    <ele>18.2</ele>
    <time>2026-09-16T09:31:08Z</time>
   </trkpt>
   <trkpt lat="22.7287220" lon="120.3118830">
    <ele>18.2</ele>
    <time>2026-09-16T09:31:09Z</time>
   </trkpt>
   <trkpt lat="22.7287290" lon="120.3118700">
    <ele>18.2</ele>
    <time>2026-09-16T09:31:10Z</time>
   </trkpt>
   <trkpt lat="22.7287330" lon="120.3118560">
    <ele>18.2</ele>
    <time>2026-09-16T09:31:11Z</time>
   </trkpt>
   <trkpt lat="22.7287490" lon="120.3118480">
    <ele>18.2</ele>
    <time>2026-09-16T09:31:12Z</time>
   </trkpt>
   <trkpt lat="22.7287550" lon="120.3118380">
    <ele>18.2</ele>
    <time>2026-09-16T09:31:13Z</time>
   </trkpt>
   <trkpt lat="22.7287570" lon="120.3118260">
    <ele>18.2</ele>
    <time>2026-09-16T09:31:14Z</time>
   </trkpt>
   <trkpt lat="22.7287590" lon="120.3118170">
    <ele>18.2</ele>
    <time>2026-09-16T09:31:15Z</time>
   </trkpt>
   <trkpt lat="22.7287650" lon="120.3118080">
    <ele>18.2</ele>
    <time>2026-09-16T09:31:16Z</time>
   </trkpt>
   <trkpt lat="22.7287630" lon="120.3118030">
    <ele>18.2</ele>
    <time>2026-09-16T09:31:17Z</time>
   </trkpt>
   <trkpt lat="22.7287560" lon="120.3117930">
    <ele>18.2</ele>
    <time>2026-09-16T09:31:18Z</time>
   </trkpt>
   <trkpt lat="22.7287490" lon="120.3117820">
    <ele>18.2</ele>
    <time>2026-09-16T09:31:19Z</time>
   </trkpt>
   <trkpt lat="22.7287460" lon="120.3117780">
    <ele>18.2</ele>
    <time>2026-09-16T09:31:20Z</time>
   </trkpt>
   <trkpt lat="22.7287440" lon="120.3117770">
    <ele>18.2</ele>
    <time>2026-09-16T09:31:21Z</time>
   </trkpt>
   <trkpt lat="22.7287430" lon="120.3117830">
    <ele>18.2</ele>
    <time>2026-09-16T09:31:22Z</time>
   </trkpt>
   <trkpt lat="22.7287340" lon="120.3117870">
    <ele>18.2</ele>
    <time>2026-09-16T09:31:23Z</time>
   </trkpt>
   <trkpt lat="22.7287450" lon="120.3117990">
    <ele>18.2</ele>
    <time>2026-09-16T09:31:24Z</time>
   </trkpt>
   <trkpt lat="22.7287460" lon="120.3117960">
    <ele>18.2</ele>
    <time>2026-09-16T09:31:25Z</time>
   </trkpt>
   <trkpt lat="22.7287320" lon="120.3117770">
    <ele>18.2</ele>
    <time>2026-09-16T09:31:26Z</time>
   </trkpt>
   <trkpt lat="22.7287430" lon="120.3117770">
    <ele>18.1</ele>
    <time>2026-09-16T09:31:27Z</time>
   </trkpt>
   <trkpt lat="22.7287520" lon="120.3117980">
    <ele>18.1</ele>
    <time>2026-09-16T09:31:28Z</time>
   </trkpt>
   <trkpt lat="22.7287530" lon="120.3117980">
    <ele>18.1</ele>
    <time>2026-09-16T09:31:29Z</time>
   </trkpt>
   <trkpt lat="22.7285570" lon="120.3120690">
    <ele>18.0</ele>
    <time>2026-09-16T09:32:35Z</time>
   </trkpt>
   <trkpt lat="22.7285530" lon="120.3120500">
    <ele>18.0</ele>
    <time>2026-09-16T09:32:36Z</time>
   </trkpt>
   <trkpt lat="22.7285230" lon="120.3120400">
    <ele>18.0</ele>
    <time>2026-09-16T09:32:37Z</time>
   </trkpt>
   <trkpt lat="22.7285770" lon="120.3120020">
    <ele>18.0</ele>
    <time>2026-09-16T09:32:38Z</time>
   </trkpt>
   <trkpt lat="22.7285900" lon="120.3119330">
    <ele>18.0</ele>
    <time>2026-09-16T09:32:39Z</time>
   </trkpt>
   <trkpt lat="22.7285750" lon="120.3118510">
    <ele>17.9</ele>
    <time>2026-09-16T09:32:40Z</time>
   </trkpt>
   <trkpt lat="22.7285880" lon="120.3118440">
    <ele>17.9</ele>
    <time>2026-09-16T09:32:41Z</time>
   </trkpt>
   <trkpt lat="22.7286070" lon="120.3118260">
    <ele>17.9</ele>
    <time>2026-09-16T09:32:42Z</time>
   </trkpt>
   <trkpt lat="22.7286240" lon="120.3118060">
    <ele>17.9</ele>
    <time>2026-09-16T09:32:43Z</time>
   </trkpt>
   <trkpt lat="22.7286380" lon="120.3117800">
    <ele>17.9</ele>
    <time>2026-09-16T09:32:44Z</time>
   </trkpt>
   <trkpt lat="22.7286450" lon="120.3117630">
    <ele>17.9</ele>
    <time>2026-09-16T09:32:45Z</time>
   </trkpt>
   <trkpt lat="22.7286540" lon="120.3117470">
    <ele>17.9</ele>
    <time>2026-09-16T09:32:46Z</time>
   </trkpt>
   <trkpt lat="22.7286670" lon="120.3117320">
    <ele>17.9</ele>
    <time>2026-09-16T09:32:47Z</time>
   </trkpt>
   <trkpt lat="22.7286810" lon="120.3117150">
    <ele>17.9</ele>
    <time>2026-09-16T09:32:48Z</time>
   </trkpt>
   <trkpt lat="22.7286990" lon="120.3117030">
    <ele>17.9</ele>
    <time>2026-09-16T09:32:49Z</time>
   </trkpt>
   <trkpt lat="22.7287080" lon="120.3116920">
    <ele>17.9</ele>
    <time>2026-09-16T09:32:50Z</time>
   </trkpt>
   <trkpt lat="22.7287170" lon="120.3116840">
    <ele>17.9</ele>
    <time>2026-09-16T09:32:51Z</time>
   </trkpt>
   <trkpt lat="22.7287240" lon="120.3116810">
    <ele>17.9</ele>
    <time>2026-09-16T09:32:52Z</time>
   </trkpt>
   <trkpt lat="22.7287290" lon="120.3116700">
    <ele>17.9</ele>
    <time>2026-09-16T09:32:53Z</time>
   </trkpt>
   <trkpt lat="22.7287360" lon="120.3116450">
    <ele>17.9</ele>
    <time>2026-09-16T09:32:54Z</time>
   </trkpt>
   <trkpt lat="22.7287510" lon="120.3116220">
    <ele>17.9</ele>
    <time>2026-09-16T09:32:55Z</time>
   </trkpt>
   <trkpt lat="22.7287610" lon="120.3116140">
    <ele>17.9</ele>
    <time>2026-09-16T09:32:56Z</time>
   </trkpt>
   <trkpt lat="22.7287700" lon="120.3116010">
    <ele>17.9</ele>
    <time>2026-09-16T09:32:57Z</time>
   </trkpt>
   <trkpt lat="22.7287870" lon="120.3115950">
    <ele>17.9</ele>
    <time>2026-09-16T09:32:58Z</time>
   </trkpt>
   <trkpt lat="22.7287950" lon="120.3115790">
    <ele>17.9</ele>
    <time>2026-09-16T09:32:59Z</time>
   </trkpt>
   <trkpt lat="22.7288070" lon="120.3115710">
    <ele>17.9</ele>
    <time>2026-09-16T09:33:00Z</time>
   </trkpt>
   <trkpt lat="22.7288120" lon="120.3115710">
    <ele>17.9</ele>
    <time>2026-09-16T09:33:01Z</time>
   </trkpt>
   <trkpt lat="22.7288240" lon="120.3115640">
    <ele>17.9</ele>
    <time>2026-09-16T09:33:02Z</time>
   </trkpt>
   <trkpt lat="22.7288390" lon="120.3115580">
    <ele>17.9</ele>
    <time>2026-09-16T09:33:03Z</time>
   </trkpt>
   <trkpt lat="22.7288480" lon="120.3115500">
    <ele>17.9</ele>
    <time>2026-09-16T09:33:04Z</time>
   </trkpt>
   <trkpt lat="22.7288550" lon="120.3115390">
    <ele>17.9</ele>
    <time>2026-09-16T09:33:05Z</time>
   </trkpt>
   <trkpt lat="22.7288510" lon="120.3115310">
    <ele>17.9</ele>
    <time>2026-09-16T09:33:06Z</time>
   </trkpt>
   <trkpt lat="22.7288510" lon="120.3115330">
    <ele>17.9</ele>
    <time>2026-09-16T09:33:07Z</time>
   </trkpt>
   <trkpt lat="22.7288420" lon="120.3115290">
    <ele>17.9</ele>
    <time>2026-09-16T09:33:08Z</time>
   </trkpt>
   <trkpt lat="22.7288390" lon="120.3115360">
    <ele>17.9</ele>
    <time>2026-09-16T09:33:09Z</time>
   </trkpt>
   <trkpt lat="22.7288330" lon="120.3115290">
    <ele>17.9</ele>
    <time>2026-09-16T09:33:10Z</time>
   </trkpt>
   <trkpt lat="22.7288290" lon="120.3115230">
    <ele>17.9</ele>
    <time>2026-09-16T09:33:11Z</time>
   </trkpt>
   <trkpt lat="22.7288250" lon="120.3115250">
    <ele>17.9</ele>
    <time>2026-09-16T09:33:12Z</time>
   </trkpt>
   <trkpt lat="22.7288370" lon="120.3115230">
    <ele>17.9</ele>
    <time>2026-09-16T09:33:13Z</time>
   </trkpt>
   <trkpt lat="22.7288430" lon="120.3115110">
    <ele>17.9</ele>
    <time>2026-09-16T09:33:14Z</time>
   </trkpt>
   <trkpt lat="22.7288320" lon="120.3114750">
    <ele>17.9</ele>
    <time>2026-09-16T09:33:15Z</time>
   </trkpt>
   <trkpt lat="22.7288390" lon="120.3114490">
    <ele>17.9</ele>
    <time>2026-09-16T09:33:16Z</time>
   </trkpt>
   <trkpt lat="22.7288400" lon="120.3114360">
    <ele>17.9</ele>
    <time>2026-09-16T09:33:17Z</time>
   </trkpt>
   <trkpt lat="22.7288450" lon="120.3114220">
    <ele>17.9</ele>
    <time>2026-09-16T09:33:18Z</time>
   </trkpt>
   <trkpt lat="22.7288500" lon="120.3114120">
    <ele>17.9</ele>
    <time>2026-09-16T09:33:19Z</time>
   </trkpt>
   <trkpt lat="22.7288590" lon="120.3114010">
    <ele>17.9</ele>
    <time>2026-09-16T09:33:20Z</time>
   </trkpt>
   <trkpt lat="22.7288610" lon="120.3113890">
    <ele>17.9</ele>
    <time>2026-09-16T09:33:21Z</time>
   </trkpt>
   <trkpt lat="22.7288610" lon="120.3113780">
    <ele>17.9</ele>
    <time>2026-09-16T09:33:22Z</time>
   </trkpt>
   <trkpt lat="22.7288640" lon="120.3113660">
    <ele>17.9</ele>
    <time>2026-09-16T09:33:23Z</time>
   </trkpt>
   <trkpt lat="22.7288700" lon="120.3113490">
    <ele>17.9</ele>
    <time>2026-09-16T09:33:24Z</time>
   </trkpt>
   <trkpt lat="22.7288710" lon="120.3113370">
    <ele>17.9</ele>
    <time>2026-09-16T09:33:25Z</time>
   </trkpt>
   <trkpt lat="22.7288740" lon="120.3113340">
    <ele>17.9</ele>
    <time>2026-09-16T09:33:26Z</time>
   </trkpt>
   <trkpt lat="22.7288740" lon="120.3113370">
    <ele>17.9</ele>
    <time>2026-09-16T09:33:27Z</time>
   </trkpt>
   <trkpt lat="22.7288740" lon="120.3113360">
    <ele>17.9</ele>
    <time>2026-09-16T09:33:28Z</time>
   </trkpt>
   <trkpt lat="22.7288820" lon="120.3113400">
    <ele>17.9</ele>
    <time>2026-09-16T09:33:29Z</time>
   </trkpt>
   <trkpt lat="22.7288810" lon="120.3113380">
    <ele>17.9</ele>
    <time>2026-09-16T09:33:30Z</time>
   </trkpt>
   <trkpt lat="22.7288840" lon="120.3113360">
    <ele>17.9</ele>
    <time>2026-09-16T09:33:31Z</time>
   </trkpt>
   <trkpt lat="22.7288810" lon="120.3113220">
    <ele>17.9</ele>
    <time>2026-09-16T09:33:32Z</time>
   </trkpt>
   <trkpt lat="22.7288810" lon="120.3113240">
    <ele>17.9</ele>
    <time>2026-09-16T09:33:33Z</time>
   </trkpt>
   <trkpt lat="22.7288880" lon="120.3113350">
    <ele>17.9</ele>
    <time>2026-09-16T09:33:34Z</time>
   </trkpt>
   <trkpt lat="22.7288930" lon="120.3113190">
    <ele>17.9</ele>
    <time>2026-09-16T09:33:35Z</time>
   </trkpt>
   <trkpt lat="22.7288900" lon="120.3113270">
    <ele>17.9</ele>
    <time>2026-09-16T09:33:41Z</time>
   </trkpt>
   <trkpt lat="22.7289260" lon="120.3113210">
    <ele>17.9</ele>
    <time>2026-09-16T09:33:42Z</time>
   </trkpt>
   <trkpt lat="22.7289020" lon="120.3113130">
    <ele>17.8</ele>
    <time>2026-09-16T09:33:43Z</time>
   </trkpt>
   <trkpt lat="22.7289010" lon="120.3113070">
    <ele>17.8</ele>
    <time>2026-09-16T09:33:44Z</time>
   </trkpt>
   <trkpt lat="22.7288750" lon="120.3112970">
    <ele>17.8</ele>
    <time>2026-09-16T09:33:45Z</time>
   </trkpt>
   <trkpt lat="22.7288580" lon="120.3112930">
    <ele>17.8</ele>
    <time>2026-09-16T09:33:46Z</time>
   </trkpt>
   <trkpt lat="22.7288800" lon="120.3112820">
    <ele>17.8</ele>
    <time>2026-09-16T09:33:47Z</time>
   </trkpt>
   <trkpt lat="22.7288830" lon="120.3112610">
    <ele>17.8</ele>
    <time>2026-09-16T09:33:48Z</time>
   </trkpt>
   <trkpt lat="22.7288980" lon="120.3112540">
    <ele>17.8</ele>
    <time>2026-09-16T09:33:49Z</time>
   </trkpt>
   <trkpt lat="22.7289100" lon="120.3112400">
    <ele>17.8</ele>
    <time>2026-09-16T09:33:50Z</time>
   </trkpt>
   <trkpt lat="22.7288990" lon="120.3112390">
    <ele>17.8</ele>
    <time>2026-09-16T09:33:51Z</time>
   </trkpt>
   <trkpt lat="22.7289080" lon="120.3112340">
    <ele>17.8</ele>
    <time>2026-09-16T09:33:52Z</time>
   </trkpt>
   <trkpt lat="22.7289100" lon="120.3112130">
    <ele>17.8</ele>
    <time>2026-09-16T09:33:53Z</time>
   </trkpt>
   <trkpt lat="22.7289240" lon="120.3112010">
    <ele>17.8</ele>
    <time>2026-09-16T09:33:54Z</time>
   </trkpt>
   <trkpt lat="22.7289490" lon="120.3112050">
    <ele>17.8</ele>
    <time>2026-09-16T09:33:55Z</time>
   </trkpt>
   <trkpt lat="22.7289450" lon="120.3111980">
    <ele>17.8</ele>
    <time>2026-09-16T09:33:56Z</time>
   </trkpt>
   <trkpt lat="22.7289490" lon="120.3111890">
    <ele>17.8</ele>
    <time>2026-09-16T09:33:57Z</time>
   </trkpt>
   <trkpt lat="22.7289490" lon="120.3111810">
    <ele>17.8</ele>
    <time>2026-09-16T09:33:58Z</time>
   </trkpt>
   <trkpt lat="22.7289390" lon="120.3111740">
    <ele>17.8</ele>
    <time>2026-09-16T09:33:59Z</time>
   </trkpt>
   <trkpt lat="22.7289410" lon="120.3111660">
    <ele>17.8</ele>
    <time>2026-09-16T09:34:00Z</time>
   </trkpt>
   <trkpt lat="22.7289360" lon="120.3111670">
    <ele>17.8</ele>
    <time>2026-09-16T09:34:01Z</time>
   </trkpt>
   <trkpt lat="22.7289430" lon="120.3111700">
    <ele>17.8</ele>
    <time>2026-09-16T09:34:02Z</time>
   </trkpt>
   <trkpt lat="22.7289560" lon="120.3111580">
    <ele>17.8</ele>
    <time>2026-09-16T09:34:03Z</time>
   </trkpt>
   <trkpt lat="22.7289600" lon="120.3111540">
    <ele>17.8</ele>
    <time>2026-09-16T09:34:04Z</time>
   </trkpt>
   <trkpt lat="22.7289650" lon="120.3111450">
    <ele>17.8</ele>
    <time>2026-09-16T09:34:05Z</time>
   </trkpt>
   <trkpt lat="22.7289850" lon="120.3111310">
    <ele>17.8</ele>
    <time>2026-09-16T09:34:06Z</time>
   </trkpt>
   <trkpt lat="22.7290000" lon="120.3111230">
    <ele>17.8</ele>
    <time>2026-09-16T09:34:07Z</time>
   </trkpt>
   <trkpt lat="22.7290140" lon="120.3111250">
    <ele>17.8</ele>
    <time>2026-09-16T09:34:08Z</time>
   </trkpt>
   <trkpt lat="22.7290330" lon="120.3111280">
    <ele>17.8</ele>
    <time>2026-09-16T09:34:09Z</time>
   </trkpt>
   <trkpt lat="22.7290520" lon="120.3111220">
    <ele>17.7</ele>
    <time>2026-09-16T09:34:10Z</time>
   </trkpt>
   <trkpt lat="22.7290530" lon="120.3111170">
    <ele>17.7</ele>
    <time>2026-09-16T09:34:11Z</time>
   </trkpt>
   <trkpt lat="22.7290660" lon="120.3111120">
    <ele>17.7</ele>
    <time>2026-09-16T09:34:12Z</time>
   </trkpt>
   <trkpt lat="22.7290820" lon="120.3111030">
    <ele>17.7</ele>
    <time>2026-09-16T09:34:13Z</time>
   </trkpt>
   <trkpt lat="22.7290950" lon="120.3111000">
    <ele>17.7</ele>
    <time>2026-09-16T09:34:14Z</time>
   </trkpt>
   <trkpt lat="22.7291060" lon="120.3110950">
    <ele>17.7</ele>
    <time>2026-09-16T09:34:15Z</time>
   </trkpt>
   <trkpt lat="22.7291130" lon="120.3110950">
    <ele>17.7</ele>
    <time>2026-09-16T09:34:16Z</time>
   </trkpt>
   <trkpt lat="22.7291240" lon="120.3110970">
    <ele>17.7</ele>
    <time>2026-09-16T09:34:17Z</time>
   </trkpt>
   <trkpt lat="22.7291320" lon="120.3110980">
    <ele>17.7</ele>
    <time>2026-09-16T09:34:18Z</time>
   </trkpt>
   <trkpt lat="22.7291440" lon="120.3110910">
    <ele>17.7</ele>
    <time>2026-09-16T09:34:19Z</time>
   </trkpt>
   <trkpt lat="22.7291590" lon="120.3110860">
    <ele>17.7</ele>
    <time>2026-09-16T09:34:20Z</time>
   </trkpt>
   <trkpt lat="22.7291650" lon="120.3110870">
    <ele>17.6</ele>
    <time>2026-09-16T09:34:21Z</time>
   </trkpt>
   <trkpt lat="22.7291620" lon="120.3110940">
    <ele>17.6</ele>
    <time>2026-09-16T09:34:22Z</time>
   </trkpt>
   <trkpt lat="22.7291520" lon="120.3111020">
    <ele>17.6</ele>
    <time>2026-09-16T09:34:23Z</time>
   </trkpt>
   <trkpt lat="22.7291460" lon="120.3111070">
    <ele>17.6</ele>
    <time>2026-09-16T09:34:24Z</time>
   </trkpt>
   <trkpt lat="22.7291450" lon="120.3110980">
    <ele>17.6</ele>
    <time>2026-09-16T09:34:25Z</time>
   </trkpt>
   <trkpt lat="22.7291440" lon="120.3110930">
    <ele>17.6</ele>
    <time>2026-09-16T09:34:26Z</time>
   </trkpt>
   <trkpt lat="22.7291380" lon="120.3110790">
    <ele>17.6</ele>
    <time>2026-09-16T09:34:27Z</time>
   </trkpt>
   <trkpt lat="22.7291410" lon="120.3110760">
    <ele>17.6</ele>
    <time>2026-09-16T09:34:28Z</time>
   </trkpt>
   <trkpt lat="22.7291390" lon="120.3110620">
    <ele>17.6</ele>
    <time>2026-09-16T09:34:29Z</time>
   </trkpt>
   <trkpt lat="22.7291350" lon="120.3110490">
    <ele>17.6</ele>
    <time>2026-09-16T09:34:30Z</time>
   </trkpt>
   <trkpt lat="22.7291270" lon="120.3110350">
    <ele>17.6</ele>
    <time>2026-09-16T09:34:31Z</time>
   </trkpt>
   <trkpt lat="22.7291760" lon="120.3109350">
    <ele>17.5</ele>
    <time>2026-09-16T09:35:26Z</time>
   </trkpt>
   <trkpt lat="22.7291810" lon="120.3109310">
    <ele>17.5</ele>
    <time>2026-09-16T09:35:27Z</time>
   </trkpt>
   <trkpt lat="22.7291910" lon="120.3109220">
    <ele>17.5</ele>
    <time>2026-09-16T09:35:28Z</time>
   </trkpt>
   <trkpt lat="22.7291970" lon="120.3109200">
    <ele>17.5</ele>
    <time>2026-09-16T09:35:29Z</time>
   </trkpt>
   <trkpt lat="22.7292050" lon="120.3109150">
    <ele>17.5</ele>
    <time>2026-09-16T09:35:30Z</time>
   </trkpt>
   <trkpt lat="22.7292080" lon="120.3108950">
    <ele>17.4</ele>
    <time>2026-09-16T09:35:31Z</time>
   </trkpt>
   <trkpt lat="22.7292070" lon="120.3109100">
    <ele>17.4</ele>
    <time>2026-09-16T09:35:32Z</time>
   </trkpt>
   <trkpt lat="22.7292050" lon="120.3109260">
    <ele>17.4</ele>
    <time>2026-09-16T09:35:33Z</time>
   </trkpt>
   <trkpt lat="22.7292060" lon="120.3109390">
    <ele>17.4</ele>
    <time>2026-09-16T09:35:34Z</time>
   </trkpt>
   <trkpt lat="22.7292040" lon="120.3109310">
    <ele>17.4</ele>
    <time>2026-09-16T09:35:35Z</time>
   </trkpt>
   <trkpt lat="22.7292280" lon="120.3109320">
    <ele>17.4</ele>
    <time>2026-09-16T09:35:36Z</time>
   </trkpt>
   <trkpt lat="22.7292090" lon="120.3109200">
    <ele>17.4</ele>
    <time>2026-09-16T09:35:37Z</time>
   </trkpt>
   <trkpt lat="22.7291970" lon="120.3109150">
    <ele>17.4</ele>
    <time>2026-09-16T09:35:38Z</time>
   </trkpt>
   <trkpt lat="22.7291900" lon="120.3109040">
    <ele>17.3</ele>
    <time>2026-09-16T09:35:39Z</time>
   </trkpt>
   <trkpt lat="22.7291850" lon="120.3109130">
    <ele>17.3</ele>
    <time>2026-09-16T09:35:40Z</time>
   </trkpt>
   <trkpt lat="22.7291730" lon="120.3108980">
    <ele>17.3</ele>
    <time>2026-09-16T09:35:41Z</time>
   </trkpt>
   <trkpt lat="22.7291850" lon="120.3109150">
    <ele>17.3</ele>
    <time>2026-09-16T09:35:42Z</time>
   </trkpt>
   <trkpt lat="22.7291790" lon="120.3109020">
    <ele>17.3</ele>
    <time>2026-09-16T09:35:43Z</time>
   </trkpt>
   <trkpt lat="22.7291820" lon="120.3108980">
    <ele>17.3</ele>
    <time>2026-09-16T09:35:44Z</time>
   </trkpt>
   <trkpt lat="22.7291830" lon="120.3108970">
    <ele>17.3</ele>
    <time>2026-09-16T09:35:45Z</time>
   </trkpt>
   <trkpt lat="22.7291890" lon="120.3109170">
    <ele>17.3</ele>
    <time>2026-09-16T09:35:46Z</time>
   </trkpt>
   <trkpt lat="22.7291900" lon="120.3109130">
    <ele>17.3</ele>
    <time>2026-09-16T09:35:47Z</time>
   </trkpt>
   <trkpt lat="22.7291870" lon="120.3109330">
    <ele>17.3</ele>
    <time>2026-09-16T09:35:48Z</time>
   </trkpt>
   <trkpt lat="22.7291780" lon="120.3109440">
    <ele>17.2</ele>
    <time>2026-09-16T09:35:49Z</time>
   </trkpt>
   <trkpt lat="22.7293010" lon="120.3109230">
    <ele>17.1</ele>
    <time>2026-09-16T09:35:56Z</time>
   </trkpt>
   <trkpt lat="22.7292940" lon="120.3109270">
    <ele>17.1</ele>
    <time>2026-09-16T09:35:57Z</time>
   </trkpt>
   <trkpt lat="22.7292720" lon="120.3109280">
    <ele>17.1</ele>
    <time>2026-09-16T09:35:58Z</time>
   </trkpt>
   <trkpt lat="22.7292600" lon="120.3109310">
    <ele>17.1</ele>
    <time>2026-09-16T09:35:59Z</time>
   </trkpt>
   <trkpt lat="22.7292490" lon="120.3109170">
    <ele>17.1</ele>
    <time>2026-09-16T09:36:00Z</time>
   </trkpt>
   <trkpt lat="22.7292400" lon="120.3109090">
    <ele>17.1</ele>
    <time>2026-09-16T09:36:01Z</time>
   </trkpt>
   <trkpt lat="22.7292470" lon="120.3109040">
    <ele>17.1</ele>
    <time>2026-09-16T09:36:02Z</time>
   </trkpt>
   <trkpt lat="22.7292490" lon="120.3108920">
    <ele>17.1</ele>
    <time>2026-09-16T09:36:03Z</time>
   </trkpt>
   <trkpt lat="22.7292670" lon="120.3108780">
    <ele>17.0</ele>
    <time>2026-09-16T09:36:04Z</time>
   </trkpt>
   <trkpt lat="22.7292760" lon="120.3108680">
    <ele>17.0</ele>
    <time>2026-09-16T09:36:05Z</time>
   </trkpt>
   <trkpt lat="22.7292670" lon="120.3108590">
    <ele>17.0</ele>
    <time>2026-09-16T09:36:06Z</time>
   </trkpt>
   <trkpt lat="22.7292430" lon="120.3109330">
    <ele>17.0</ele>
    <time>2026-09-16T09:36:18Z</time>
   </trkpt>
   <trkpt lat="22.7292540" lon="120.3109370">
    <ele>16.9</ele>
    <time>2026-09-16T09:36:19Z</time>
   </trkpt>
   <trkpt lat="22.7292590" lon="120.3109450">
    <ele>16.9</ele>
    <time>2026-09-16T09:36:20Z</time>
   </trkpt>
   <trkpt lat="22.7292560" lon="120.3109450">
    <ele>16.9</ele>
    <time>2026-09-16T09:36:21Z</time>
   </trkpt>
   <trkpt lat="22.7292460" lon="120.3109280">
    <ele>16.9</ele>
    <time>2026-09-16T09:36:22Z</time>
   </trkpt>
   <trkpt lat="22.7292440" lon="120.3109510">
    <ele>16.9</ele>
    <time>2026-09-16T09:36:23Z</time>
   </trkpt>
   <trkpt lat="22.7291850" lon="120.3108710">
    <ele>16.8</ele>
    <time>2026-09-16T09:36:24Z</time>
   </trkpt>
   <trkpt lat="22.7292240" lon="120.3108940">
    <ele>16.8</ele>
    <time>2026-09-16T09:36:25Z</time>
   </trkpt>
   <trkpt lat="22.7292330" lon="120.3108780">
    <ele>16.8</ele>
    <time>2026-09-16T09:36:26Z</time>
   </trkpt>
   <trkpt lat="22.7292310" lon="120.3108770">
    <ele>16.8</ele>
    <time>2026-09-16T09:36:27Z</time>
   </trkpt>
   <trkpt lat="22.7292540" lon="120.3108680">
    <ele>16.8</ele>
    <time>2026-09-16T09:36:28Z</time>
   </trkpt>
   <trkpt lat="22.7292660" lon="120.3108610">
    <ele>16.7</ele>
    <time>2026-09-16T09:36:29Z</time>
   </trkpt>
   <trkpt lat="22.7292820" lon="120.3108600">
    <ele>16.7</ele>
    <time>2026-09-16T09:36:30Z</time>
   </trkpt>
   <trkpt lat="22.7292790" lon="120.3108480">
    <ele>16.7</ele>
    <time>2026-09-16T09:36:31Z</time>
   </trkpt>
   <trkpt lat="22.7292880" lon="120.3108440">
    <ele>16.7</ele>
    <time>2026-09-16T09:36:32Z</time>
   </trkpt>
   <trkpt lat="22.7293030" lon="120.3108230">
    <ele>16.7</ele>
    <time>2026-09-16T09:36:33Z</time>
   </trkpt>
   <trkpt lat="22.7293130" lon="120.3108260">
    <ele>16.7</ele>
    <time>2026-09-16T09:36:34Z</time>
   </trkpt>
   <trkpt lat="22.7293160" lon="120.3108200">
    <ele>16.7</ele>
    <time>2026-09-16T09:36:36Z</time>
   </trkpt>
   <trkpt lat="22.7293020" lon="120.3108320">
    <ele>16.7</ele>
    <time>2026-09-16T09:36:37Z</time>
   </trkpt>
   <trkpt lat="22.7293100" lon="120.3108320">
    <ele>16.7</ele>
    <time>2026-09-16T09:36:39Z</time>
   </trkpt>
   <trkpt lat="22.7293350" lon="120.3108060">
    <ele>16.6</ele>
    <time>2026-09-16T09:36:40Z</time>
   </trkpt>
   <trkpt lat="22.7293410" lon="120.3108100">
    <ele>16.6</ele>
    <time>2026-09-16T09:36:41Z</time>
   </trkpt>
   <trkpt lat="22.7293560" lon="120.3108050">
    <ele>16.6</ele>
    <time>2026-09-16T09:36:42Z</time>
   </trkpt>
   <trkpt lat="22.7293640" lon="120.3108070">
    <ele>16.6</ele>
    <time>2026-09-16T09:36:43Z</time>
   </trkpt>
   <trkpt lat="22.7293630" lon="120.3108060">
    <ele>16.6</ele>
    <time>2026-09-16T09:36:44Z</time>
   </trkpt>
   <trkpt lat="22.7293660" lon="120.3108050">
    <ele>16.6</ele>
    <time>2026-09-16T09:36:45Z</time>
   </trkpt>
   <trkpt lat="22.7293720" lon="120.3108030">
    <ele>16.6</ele>
    <time>2026-09-16T09:36:46Z</time>
   </trkpt>
   <trkpt lat="22.7293700" lon="120.3108080">
    <ele>16.6</ele>
    <time>2026-09-16T09:36:47Z</time>
   </trkpt>
   <trkpt lat="22.7293520" lon="120.3108220">
    <ele>16.6</ele>
    <time>2026-09-16T09:36:48Z</time>
   </trkpt>
   <trkpt lat="22.7293700" lon="120.3108220">
    <ele>16.6</ele>
    <time>2026-09-16T09:36:49Z</time>
   </trkpt>
   <trkpt lat="22.7293640" lon="120.3108240">
    <ele>16.5</ele>
    <time>2026-09-16T09:36:50Z</time>
   </trkpt>
   <trkpt lat="22.7293710" lon="120.3108030">
    <ele>16.5</ele>
    <time>2026-09-16T09:36:51Z</time>
   </trkpt>
   <trkpt lat="22.7293700" lon="120.3107870">
    <ele>16.5</ele>
    <time>2026-09-16T09:36:52Z</time>
   </trkpt>
   <trkpt lat="22.7293660" lon="120.3107750">
    <ele>16.5</ele>
    <time>2026-09-16T09:36:53Z</time>
   </trkpt>
   <trkpt lat="22.7293640" lon="120.3107630">
    <ele>16.5</ele>
    <time>2026-09-16T09:36:54Z</time>
   </trkpt>
   <trkpt lat="22.7293780" lon="120.3107470">
    <ele>16.5</ele>
    <time>2026-09-16T09:36:55Z</time>
   </trkpt>
   <trkpt lat="22.7293780" lon="120.3107430">
    <ele>16.5</ele>
    <time>2026-09-16T09:36:56Z</time>
   </trkpt>
   <trkpt lat="22.7293960" lon="120.3107370">
    <ele>16.5</ele>
    <time>2026-09-16T09:36:57Z</time>
   </trkpt>
   <trkpt lat="22.7294070" lon="120.3107360">
    <ele>16.5</ele>
    <time>2026-09-16T09:36:58Z</time>
   </trkpt>
   <trkpt lat="22.7294040" lon="120.3107300">
    <ele>16.5</ele>
    <time>2026-09-16T09:36:59Z</time>
   </trkpt>
   <trkpt lat="22.7294170" lon="120.3107160">
    <ele>16.4</ele>
    <time>2026-09-16T09:37:00Z</time>
   </trkpt>
   <trkpt lat="22.7294120" lon="120.3107100">
    <ele>16.4</ele>
    <time>2026-09-16T09:37:01Z</time>
   </trkpt>
   <trkpt lat="22.7294170" lon="120.3107030">
    <ele>16.4</ele>
    <time>2026-09-16T09:37:02Z</time>
   </trkpt>
   <trkpt lat="22.7294270" lon="120.3106970">
    <ele>16.4</ele>
    <time>2026-09-16T09:37:03Z</time>
   </trkpt>
   <trkpt lat="22.7294340" lon="120.3107020">
    <ele>16.4</ele>
    <time>2026-09-16T09:37:04Z</time>
   </trkpt>
   <trkpt lat="22.7294260" lon="120.3107190">
    <ele>16.4</ele>
    <time>2026-09-16T09:37:05Z</time>
   </trkpt>
   <trkpt lat="22.7294270" lon="120.3107300">
    <ele>16.4</ele>
    <time>2026-09-16T09:37:06Z</time>
   </trkpt>
   <trkpt lat="22.7294460" lon="120.3107870">
    <ele>16.3</ele>
    <time>2026-09-16T09:37:15Z</time>
   </trkpt>
   <trkpt lat="22.7294460" lon="120.3107860">
    <ele>16.3</ele>
    <time>2026-09-16T09:37:16Z</time>
   </trkpt>
   <trkpt lat="22.7294460" lon="120.3107860">
    <ele>16.3</ele>
    <time>2026-09-16T09:37:17Z</time>
   </trkpt>
   <trkpt lat="22.7294460" lon="120.3107860">
    <ele>16.3</ele>
    <time>2026-09-16T09:37:18Z</time>
   </trkpt>
   <trkpt lat="22.7294560" lon="120.3107870">
    <ele>16.3</ele>
    <time>2026-09-16T09:37:19Z</time>
   </trkpt>
   <trkpt lat="22.7294560" lon="120.3107990">
    <ele>16.3</ele>
    <time>2026-09-16T09:37:20Z</time>
   </trkpt>
   <trkpt lat="22.7294680" lon="120.3108280">
    <ele>16.3</ele>
    <time>2026-09-16T09:37:21Z</time>
   </trkpt>
   <trkpt lat="22.7294690" lon="120.3108460">
    <ele>16.3</ele>
    <time>2026-09-16T09:37:22Z</time>
   </trkpt>
   <trkpt lat="22.7294560" lon="120.3108320">
    <ele>16.3</ele>
    <time>2026-09-16T09:37:23Z</time>
   </trkpt>
   <trkpt lat="22.7294580" lon="120.3108540">
    <ele>16.3</ele>
    <time>2026-09-16T09:37:24Z</time>
   </trkpt>
   <trkpt lat="22.7294040" lon="120.3108000">
    <ele>16.2</ele>
    <time>2026-09-16T09:39:13Z</time>
   </trkpt>
   <trkpt lat="22.7294110" lon="120.3107810">
    <ele>16.2</ele>
    <time>2026-09-16T09:39:14Z</time>
   </trkpt>
   <trkpt lat="22.7294200" lon="120.3107730">
    <ele>16.2</ele>
    <time>2026-09-16T09:39:15Z</time>
   </trkpt>
   <trkpt lat="22.7294120" lon="120.3107730">
    <ele>16.2</ele>
    <time>2026-09-16T09:39:16Z</time>
   </trkpt>
   <trkpt lat="22.7294160" lon="120.3107720">
    <ele>16.2</ele>
    <time>2026-09-16T09:39:17Z</time>
   </trkpt>
   <trkpt lat="22.7294290" lon="120.3107560">
    <ele>16.2</ele>
    <time>2026-09-16T09:39:18Z</time>
   </trkpt>
   <trkpt lat="22.7294510" lon="120.3107650">
    <ele>16.2</ele>
    <time>2026-09-16T09:39:19Z</time>
   </trkpt>
   <trkpt lat="22.7294600" lon="120.3108110">
    <ele>16.3</ele>
    <time>2026-09-16T09:39:20Z</time>
   </trkpt>
   <trkpt lat="22.7294590" lon="120.3108180">
    <ele>16.3</ele>
    <time>2026-09-16T09:39:21Z</time>
   </trkpt>
   <trkpt lat="22.7294540" lon="120.3108190">
    <ele>16.4</ele>
    <time>2026-09-16T09:39:22Z</time>
   </trkpt>
   <trkpt lat="22.7294440" lon="120.3108130">
    <ele>16.4</ele>
    <time>2026-09-16T09:39:23Z</time>
   </trkpt>
   <trkpt lat="22.7294430" lon="120.3108130">
    <ele>16.4</ele>
    <time>2026-09-16T09:39:24Z</time>
   </trkpt>
   <trkpt lat="22.7294440" lon="120.3108130">
    <ele>16.4</ele>
    <time>2026-09-16T09:39:25Z</time>
   </trkpt>
   <trkpt lat="22.7294420" lon="120.3108100">
    <ele>16.4</ele>
    <time>2026-09-16T09:39:26Z</time>
   </trkpt>
   <trkpt lat="22.7294350" lon="120.3108080">
    <ele>16.4</ele>
    <time>2026-09-16T09:39:27Z</time>
   </trkpt>
   <trkpt lat="22.7292220" lon="120.3108790">
    <ele>16.9</ele>
    <time>2026-09-16T09:40:05Z</time>
   </trkpt>
   <trkpt lat="22.7292190" lon="120.3109010">
    <ele>17.0</ele>
    <time>2026-09-16T09:40:06Z</time>
   </trkpt>
   <trkpt lat="22.7292160" lon="120.3109130">
    <ele>17.0</ele>
    <time>2026-09-16T09:40:07Z</time>
   </trkpt>
   <trkpt lat="22.7292070" lon="120.3109140">
    <ele>17.0</ele>
    <time>2026-09-16T09:40:08Z</time>
   </trkpt>
   <trkpt lat="22.7292080" lon="120.3109190">
    <ele>17.0</ele>
    <time>2026-09-16T09:40:09Z</time>
   </trkpt>
   <trkpt lat="22.7292000" lon="120.3109280">
    <ele>17.0</ele>
    <time>2026-09-16T09:40:10Z</time>
   </trkpt>
   <trkpt lat="22.7291960" lon="120.3109330">
    <ele>17.1</ele>
    <time>2026-09-16T09:40:11Z</time>
   </trkpt>
   <trkpt lat="22.7291910" lon="120.3109470">
    <ele>17.1</ele>
    <time>2026-09-16T09:40:12Z</time>
   </trkpt>
   <trkpt lat="22.7291800" lon="120.3109610">
    <ele>17.1</ele>
    <time>2026-09-16T09:40:13Z</time>
   </trkpt>
   <trkpt lat="22.7291760" lon="120.3109670">
    <ele>17.1</ele>
    <time>2026-09-16T09:40:14Z</time>
   </trkpt>
   <trkpt lat="22.7291740" lon="120.3109750">
    <ele>17.2</ele>
    <time>2026-09-16T09:40:15Z</time>
   </trkpt>
   <trkpt lat="22.7291740" lon="120.3109760">
    <ele>17.2</ele>
    <time>2026-09-16T09:40:16Z</time>
   </trkpt>
   <trkpt lat="22.7291680" lon="120.3109820">
    <ele>17.2</ele>
    <time>2026-09-16T09:40:17Z</time>
   </trkpt>
   <trkpt lat="22.7291720" lon="120.3109960">
    <ele>17.2</ele>
    <time>2026-09-16T09:40:18Z</time>
   </trkpt>
   <trkpt lat="22.7291680" lon="120.3109990">
    <ele>17.2</ele>
    <time>2026-09-16T09:40:19Z</time>
   </trkpt>
   <trkpt lat="22.7291680" lon="120.3110130">
    <ele>17.3</ele>
    <time>2026-09-16T09:40:20Z</time>
   </trkpt>
   <trkpt lat="22.7291720" lon="120.3110190">
    <ele>17.3</ele>
    <time>2026-09-16T09:40:21Z</time>
   </trkpt>
   <trkpt lat="22.7291730" lon="120.3110240">
    <ele>17.3</ele>
    <time>2026-09-16T09:40:22Z</time>
   </trkpt>
   <trkpt lat="22.7291740" lon="120.3110290">
    <ele>17.3</ele>
    <time>2026-09-16T09:40:23Z</time>
   </trkpt>
   <trkpt lat="22.7291710" lon="120.3110370">
    <ele>17.3</ele>
    <time>2026-09-16T09:40:24Z</time>
   </trkpt>
   <trkpt lat="22.7291570" lon="120.3110360">
    <ele>17.4</ele>
    <time>2026-09-16T09:40:25Z</time>
   </trkpt>
   <trkpt lat="22.7291540" lon="120.3110450">
    <ele>17.4</ele>
    <time>2026-09-16T09:40:26Z</time>
   </trkpt>
   <trkpt lat="22.7291460" lon="120.3110570">
    <ele>17.4</ele>
    <time>2026-09-16T09:40:27Z</time>
   </trkpt>
   <trkpt lat="22.7291360" lon="120.3110540">
    <ele>17.4</ele>
    <time>2026-09-16T09:40:28Z</time>
   </trkpt>
   <trkpt lat="22.7291310" lon="120.3110600">
    <ele>17.4</ele>
    <time>2026-09-16T09:40:29Z</time>
   </trkpt>
   <trkpt lat="22.7291310" lon="120.3110740">
    <ele>17.5</ele>
    <time>2026-09-16T09:40:30Z</time>
   </trkpt>
   <trkpt lat="22.7291240" lon="120.3110850">
    <ele>17.5</ele>
    <time>2026-09-16T09:40:31Z</time>
   </trkpt>
   <trkpt lat="22.7291250" lon="120.3110960">
    <ele>17.5</ele>
    <time>2026-09-16T09:40:32Z</time>
   </trkpt>
   <trkpt lat="22.7291160" lon="120.3111040">
    <ele>17.5</ele>
    <time>2026-09-16T09:40:33Z</time>
   </trkpt>
   <trkpt lat="22.7291100" lon="120.3111070">
    <ele>17.6</ele>
    <time>2026-09-16T09:40:34Z</time>
   </trkpt>
   <trkpt lat="22.7291030" lon="120.3111160">
    <ele>17.6</ele>
    <time>2026-09-16T09:40:35Z</time>
   </trkpt>
   <trkpt lat="22.7290950" lon="120.3111180">
    <ele>17.6</ele>
    <time>2026-09-16T09:40:36Z</time>
   </trkpt>
   <trkpt lat="22.7290930" lon="120.3111470">
    <ele>17.7</ele>
    <time>2026-09-16T09:40:37Z</time>
   </trkpt>
   <trkpt lat="22.7290860" lon="120.3111590">
    <ele>17.7</ele>
    <time>2026-09-16T09:40:38Z</time>
   </trkpt>
   <trkpt lat="22.7290830" lon="120.3111690">
    <ele>17.7</ele>
    <time>2026-09-16T09:40:39Z</time>
   </trkpt>
   <trkpt lat="22.7290750" lon="120.3111780">
    <ele>17.7</ele>
    <time>2026-09-16T09:40:40Z</time>
   </trkpt>
   <trkpt lat="22.7290710" lon="120.3111930">
    <ele>17.8</ele>
    <time>2026-09-16T09:40:41Z</time>
   </trkpt>
   <trkpt lat="22.7290680" lon="120.3112040">
    <ele>17.8</ele>
    <time>2026-09-16T09:40:42Z</time>
   </trkpt>
   <trkpt lat="22.7290690" lon="120.3112160">
    <ele>17.8</ele>
    <time>2026-09-16T09:40:43Z</time>
   </trkpt>
   <trkpt lat="22.7290610" lon="120.3112200">
    <ele>17.8</ele>
    <time>2026-09-16T09:40:44Z</time>
   </trkpt>
   <trkpt lat="22.7290640" lon="120.3112260">
    <ele>17.8</ele>
    <time>2026-09-16T09:40:45Z</time>
   </trkpt>
   <trkpt lat="22.7290540" lon="120.3112360">
    <ele>17.8</ele>
    <time>2026-09-16T09:40:46Z</time>
   </trkpt>
   <trkpt lat="22.7290510" lon="120.3112460">
    <ele>17.8</ele>
    <time>2026-09-16T09:40:47Z</time>
   </trkpt>
   <trkpt lat="22.7290480" lon="120.3112490">
    <ele>17.8</ele>
    <time>2026-09-16T09:40:48Z</time>
   </trkpt>
   <trkpt lat="22.7290400" lon="120.3112590">
    <ele>17.8</ele>
    <time>2026-09-16T09:40:49Z</time>
   </trkpt>
   <trkpt lat="22.7290370" lon="120.3112730">
    <ele>17.8</ele>
    <time>2026-09-16T09:40:50Z</time>
   </trkpt>
   <trkpt lat="22.7290300" lon="120.3112870">
    <ele>17.8</ele>
    <time>2026-09-16T09:40:51Z</time>
   </trkpt>
   <trkpt lat="22.7290250" lon="120.3112930">
    <ele>17.8</ele>
    <time>2026-09-16T09:40:52Z</time>
   </trkpt>
   <trkpt lat="22.7290180" lon="120.3113010">
    <ele>17.8</ele>
    <time>2026-09-16T09:40:53Z</time>
   </trkpt>
   <trkpt lat="22.7290140" lon="120.3113080">
    <ele>17.8</ele>
    <time>2026-09-16T09:40:54Z</time>
   </trkpt>
   <trkpt lat="22.7290100" lon="120.3113080">
    <ele>17.8</ele>
    <time>2026-09-16T09:40:55Z</time>
   </trkpt>
   <trkpt lat="22.7289980" lon="120.3113170">
    <ele>17.8</ele>
    <time>2026-09-16T09:40:56Z</time>
   </trkpt>
   <trkpt lat="22.7289930" lon="120.3113240">
    <ele>17.8</ele>
    <time>2026-09-16T09:40:57Z</time>
   </trkpt>
   <trkpt lat="22.7289820" lon="120.3113360">
    <ele>17.8</ele>
    <time>2026-09-16T09:40:58Z</time>
   </trkpt>
   <trkpt lat="22.7289710" lon="120.3113470">
    <ele>17.8</ele>
    <time>2026-09-16T09:40:59Z</time>
   </trkpt>
   <trkpt lat="22.7289640" lon="120.3113490">
    <ele>17.8</ele>
    <time>2026-09-16T09:41:00Z</time>
   </trkpt>
   <trkpt lat="22.7289520" lon="120.3113380">
    <ele>17.8</ele>
    <time>2026-09-16T09:41:01Z</time>
   </trkpt>
   <trkpt lat="22.7289500" lon="120.3113410">
    <ele>17.8</ele>
    <time>2026-09-16T09:41:02Z</time>
   </trkpt>
   <trkpt lat="22.7289390" lon="120.3113490">
    <ele>17.8</ele>
    <time>2026-09-16T09:41:03Z</time>
   </trkpt>
   <trkpt lat="22.7289380" lon="120.3113590">
    <ele>17.8</ele>
    <time>2026-09-16T09:41:04Z</time>
   </trkpt>
   <trkpt lat="22.7289250" lon="120.3113730">
    <ele>17.8</ele>
    <time>2026-09-16T09:41:05Z</time>
   </trkpt>
   <trkpt lat="22.7289250" lon="120.3113790">
    <ele>17.9</ele>
    <time>2026-09-16T09:41:06Z</time>
   </trkpt>
   <trkpt lat="22.7289200" lon="120.3113880">
    <ele>17.9</ele>
    <time>2026-09-16T09:41:07Z</time>
   </trkpt>
   <trkpt lat="22.7289190" lon="120.3114060">
    <ele>17.9</ele>
    <time>2026-09-16T09:41:08Z</time>
   </trkpt>
   <trkpt lat="22.7289160" lon="120.3114220">
    <ele>17.9</ele>
    <time>2026-09-16T09:41:09Z</time>
   </trkpt>
   <trkpt lat="22.7289170" lon="120.3114230">
    <ele>17.9</ele>
    <time>2026-09-16T09:41:10Z</time>
   </trkpt>
   <trkpt lat="22.7288920" lon="120.3114380">
    <ele>17.9</ele>
    <time>2026-09-16T09:41:11Z</time>
   </trkpt>
   <trkpt lat="22.7288900" lon="120.3114450">
    <ele>17.9</ele>
    <time>2026-09-16T09:41:12Z</time>
   </trkpt>
   <trkpt lat="22.7288860" lon="120.3114610">
    <ele>17.9</ele>
    <time>2026-09-16T09:41:13Z</time>
   </trkpt>
   <trkpt lat="22.7288790" lon="120.3114700">
    <ele>17.9</ele>
    <time>2026-09-16T09:41:14Z</time>
   </trkpt>
   <trkpt lat="22.7288790" lon="120.3114700">
    <ele>17.9</ele>
    <time>2026-09-16T09:41:15Z</time>
   </trkpt>
   <trkpt lat="22.7288700" lon="120.3114760">
    <ele>17.9</ele>
    <time>2026-09-16T09:41:16Z</time>
   </trkpt>
   <trkpt lat="22.7288660" lon="120.3114770">
    <ele>17.9</ele>
    <time>2026-09-16T09:41:17Z</time>
   </trkpt>
   <trkpt lat="22.7288570" lon="120.3114860">
    <ele>17.9</ele>
    <time>2026-09-16T09:41:18Z</time>
   </trkpt>
   <trkpt lat="22.7288480" lon="120.3114990">
    <ele>17.9</ele>
    <time>2026-09-16T09:41:19Z</time>
   </trkpt>
   <trkpt lat="22.7288380" lon="120.3115120">
    <ele>17.9</ele>
    <time>2026-09-16T09:41:20Z</time>
   </trkpt>
   <trkpt lat="22.7288290" lon="120.3115220">
    <ele>17.9</ele>
    <time>2026-09-16T09:41:21Z</time>
   </trkpt>
   <trkpt lat="22.7288120" lon="120.3115200">
    <ele>17.9</ele>
    <time>2026-09-16T09:41:22Z</time>
   </trkpt>
   <trkpt lat="22.7288130" lon="120.3115280">
    <ele>17.9</ele>
    <time>2026-09-16T09:41:23Z</time>
   </trkpt>
   <trkpt lat="22.7287880" lon="120.3115310">
    <ele>17.9</ele>
    <time>2026-09-16T09:41:24Z</time>
   </trkpt>
   <trkpt lat="22.7287870" lon="120.3115560">
    <ele>17.9</ele>
    <time>2026-09-16T09:41:25Z</time>
   </trkpt>
   <trkpt lat="22.7287930" lon="120.3115700">
    <ele>17.9</ele>
    <time>2026-09-16T09:41:26Z</time>
   </trkpt>
   <trkpt lat="22.7287850" lon="120.3115800">
    <ele>17.9</ele>
    <time>2026-09-16T09:41:27Z</time>
   </trkpt>
   <trkpt lat="22.7287930" lon="120.3115920">
    <ele>17.9</ele>
    <time>2026-09-16T09:41:28Z</time>
   </trkpt>
   <trkpt lat="22.7287890" lon="120.3115960">
    <ele>17.9</ele>
    <time>2026-09-16T09:41:29Z</time>
   </trkpt>
   <trkpt lat="22.7287870" lon="120.3116120">
    <ele>17.9</ele>
    <time>2026-09-16T09:41:30Z</time>
   </trkpt>
   <trkpt lat="22.7287940" lon="120.3116180">
    <ele>17.9</ele>
    <time>2026-09-16T09:41:31Z</time>
   </trkpt>
   <trkpt lat="22.7287790" lon="120.3116340">
    <ele>17.9</ele>
    <time>2026-09-16T09:41:32Z</time>
   </trkpt>
   <trkpt lat="22.7287670" lon="120.3116580">
    <ele>17.9</ele>
    <time>2026-09-16T09:41:33Z</time>
   </trkpt>
   <trkpt lat="22.7287740" lon="120.3116720">
    <ele>17.9</ele>
    <time>2026-09-16T09:41:34Z</time>
   </trkpt>
   <trkpt lat="22.7287690" lon="120.3116800">
    <ele>17.9</ele>
    <time>2026-09-16T09:41:35Z</time>
   </trkpt>
   <trkpt lat="22.7287670" lon="120.3116980">
    <ele>17.9</ele>
    <time>2026-09-16T09:41:36Z</time>
   </trkpt>
   <trkpt lat="22.7287590" lon="120.3117090">
    <ele>17.9</ele>
    <time>2026-09-16T09:41:37Z</time>
   </trkpt>
   <trkpt lat="22.7287640" lon="120.3117240">
    <ele>17.9</ele>
    <time>2026-09-16T09:41:38Z</time>
   </trkpt>
   <trkpt lat="22.7287580" lon="120.3117320">
    <ele>17.9</ele>
    <time>2026-09-16T09:41:39Z</time>
   </trkpt>
   <trkpt lat="22.7287440" lon="120.3117430">
    <ele>17.9</ele>
    <time>2026-09-16T09:41:40Z</time>
   </trkpt>
   <trkpt lat="22.7287290" lon="120.3117370">
    <ele>17.9</ele>
    <time>2026-09-16T09:41:41Z</time>
   </trkpt>
   <trkpt lat="22.7287140" lon="120.3117380">
    <ele>17.9</ele>
    <time>2026-09-16T09:41:42Z</time>
   </trkpt>
   <trkpt lat="22.7286970" lon="120.3117290">
    <ele>17.9</ele>
    <time>2026-09-16T09:41:43Z</time>
   </trkpt>
   <trkpt lat="22.7286810" lon="120.3117520">
    <ele>17.9</ele>
    <time>2026-09-16T09:41:44Z</time>
   </trkpt>
   <trkpt lat="22.7286760" lon="120.3117630">
    <ele>17.9</ele>
    <time>2026-09-16T09:41:45Z</time>
   </trkpt>
   <trkpt lat="22.7286690" lon="120.3117730">
    <ele>17.9</ele>
    <time>2026-09-16T09:41:46Z</time>
   </trkpt>
   <trkpt lat="22.7286540" lon="120.3117900">
    <ele>17.9</ele>
    <time>2026-09-16T09:41:47Z</time>
   </trkpt>
   <trkpt lat="22.7286440" lon="120.3117940">
    <ele>17.9</ele>
    <time>2026-09-16T09:41:48Z</time>
   </trkpt>
   <trkpt lat="22.7286300" lon="120.3118080">
    <ele>18.0</ele>
    <time>2026-09-16T09:41:49Z</time>
   </trkpt>
   <trkpt lat="22.7286440" lon="120.3118110">
    <ele>18.0</ele>
    <time>2026-09-16T09:41:50Z</time>
   </trkpt>
   <trkpt lat="22.7286330" lon="120.3118400">
    <ele>18.0</ele>
    <time>2026-09-16T09:41:51Z</time>
   </trkpt>
   <trkpt lat="22.7286350" lon="120.3118580">
    <ele>18.0</ele>
    <time>2026-09-16T09:41:52Z</time>
   </trkpt>
   <trkpt lat="22.7286330" lon="120.3118780">
    <ele>18.0</ele>
    <time>2026-09-16T09:41:53Z</time>
   </trkpt>
   <trkpt lat="22.7286270" lon="120.3118880">
    <ele>18.0</ele>
    <time>2026-09-16T09:41:54Z</time>
   </trkpt>
   <trkpt lat="22.7286260" lon="120.3118960">
    <ele>18.0</ele>
    <time>2026-09-16T09:41:55Z</time>
   </trkpt>
   <trkpt lat="22.7286330" lon="120.3119290">
    <ele>18.0</ele>
    <time>2026-09-16T09:41:56Z</time>
   </trkpt>
   <trkpt lat="22.7286300" lon="120.3119490">
    <ele>18.0</ele>
    <time>2026-09-16T09:41:57Z</time>
   </trkpt>
   <trkpt lat="22.7286310" lon="120.3119700">
    <ele>18.0</ele>
    <time>2026-09-16T09:41:58Z</time>
   </trkpt>
   <trkpt lat="22.7286180" lon="120.3119750">
    <ele>18.0</ele>
    <time>2026-09-16T09:41:59Z</time>
   </trkpt>
   <trkpt lat="22.7286020" lon="120.3119730">
    <ele>18.0</ele>
    <time>2026-09-16T09:42:00Z</time>
   </trkpt>
   <trkpt lat="22.7285840" lon="120.3119690">
    <ele>18.0</ele>
    <time>2026-09-16T09:42:01Z</time>
   </trkpt>
   <trkpt lat="22.7285780" lon="120.3119550">
    <ele>18.0</ele>
    <time>2026-09-16T09:42:02Z</time>
   </trkpt>
   <trkpt lat="22.7285700" lon="120.3119350">
    <ele>18.1</ele>
    <time>2026-09-16T09:42:03Z</time>
   </trkpt>
   <trkpt lat="22.7285640" lon="120.3119300">
    <ele>18.1</ele>
    <time>2026-09-16T09:42:04Z</time>
   </trkpt>
   <trkpt lat="22.7285540" lon="120.3119140">
    <ele>18.1</ele>
    <time>2026-09-16T09:42:05Z</time>
   </trkpt>
   <trkpt lat="22.7285540" lon="120.3119240">
    <ele>18.1</ele>
    <time>2026-09-16T09:42:06Z</time>
   </trkpt>
   <trkpt lat="22.7285580" lon="120.3119350">
    <ele>18.1</ele>
    <time>2026-09-16T09:42:07Z</time>
   </trkpt>
   <trkpt lat="22.7285640" lon="120.3119630">
    <ele>18.1</ele>
    <time>2026-09-16T09:42:08Z</time>
   </trkpt>
   <trkpt lat="22.7285630" lon="120.3119920">
    <ele>18.1</ele>
    <time>2026-09-16T09:42:09Z</time>
   </trkpt>
   <trkpt lat="22.7285630" lon="120.3119460">
    <ele>18.2</ele>
    <time>2026-09-16T09:42:10Z</time>
   </trkpt>
   <trkpt lat="22.7285770" lon="120.3119900">
    <ele>18.2</ele>
    <time>2026-09-16T09:42:11Z</time>
   </trkpt>
   <trkpt lat="22.7285890" lon="120.3119710">
    <ele>18.2</ele>
    <time>2026-09-16T09:42:12Z</time>
   </trkpt>
   <trkpt lat="22.7285780" lon="120.3119550">
    <ele>18.2</ele>
    <time>2026-09-16T09:42:13Z</time>
   </trkpt>
   <trkpt lat="22.7285830" lon="120.3119500">
    <ele>18.2</ele>
    <time>2026-09-16T09:42:14Z</time>
   </trkpt>
   <trkpt lat="22.7285830" lon="120.3119450">
    <ele>18.2</ele>
    <time>2026-09-16T09:42:16Z</time>
   </trkpt>
   <trkpt lat="22.7285680" lon="120.3119350">
    <ele>18.2</ele>
    <time>2026-09-16T09:42:17Z</time>
   </trkpt>
   <trkpt lat="22.7285570" lon="120.3119190">
    <ele>18.2</ele>
    <time>2026-09-16T09:42:18Z</time>
   </trkpt>
   <trkpt lat="22.7285520" lon="120.3119140">
    <ele>18.2</ele>
    <time>2026-09-16T09:42:19Z</time>
   </trkpt>
   <trkpt lat="22.7285330" lon="120.3119000">
    <ele>18.2</ele>
    <time>2026-09-16T09:42:20Z</time>
   </trkpt>
   <trkpt lat="22.7285240" lon="120.3118810">
    <ele>18.2</ele>
    <time>2026-09-16T09:42:21Z</time>
   </trkpt>
   <trkpt lat="22.7285100" lon="120.3118700">
    <ele>18.2</ele>
    <time>2026-09-16T09:42:22Z</time>
   </trkpt>
   <trkpt lat="22.7285040" lon="120.3118660">
    <ele>18.2</ele>
    <time>2026-09-16T09:42:23Z</time>
   </trkpt>
   <trkpt lat="22.7284870" lon="120.3118640">
    <ele>18.2</ele>
    <time>2026-09-16T09:42:24Z</time>
   </trkpt>
   <trkpt lat="22.7284730" lon="120.3118540">
    <ele>18.2</ele>
    <time>2026-09-16T09:42:25Z</time>
   </trkpt>
   <trkpt lat="22.7284730" lon="120.3118530">
    <ele>18.2</ele>
    <time>2026-09-16T09:42:26Z</time>
   </trkpt>
   <trkpt lat="22.7284660" lon="120.3118480">
    <ele>18.2</ele>
    <time>2026-09-16T09:42:27Z</time>
   </trkpt>
   <trkpt lat="22.7284680" lon="120.3118430">
    <ele>18.2</ele>
    <time>2026-09-16T09:42:28Z</time>
   </trkpt>
   <trkpt lat="22.7284630" lon="120.3118060">
    <ele>18.2</ele>
    <time>2026-09-16T09:42:29Z</time>
   </trkpt>
   <trkpt lat="22.7284580" lon="120.3117910">
    <ele>18.2</ele>
    <time>2026-09-16T09:42:30Z</time>
   </trkpt>
   <trkpt lat="22.7284540" lon="120.3117790">
    <ele>18.2</ele>
    <time>2026-09-16T09:42:31Z</time>
   </trkpt>
   <trkpt lat="22.7284520" lon="120.3117800">
    <ele>18.2</ele>
    <time>2026-09-16T09:42:32Z</time>
   </trkpt>
   <trkpt lat="22.7284400" lon="120.3117730">
    <ele>18.2</ele>
    <time>2026-09-16T09:42:33Z</time>
   </trkpt>
   <trkpt lat="22.7284300" lon="120.3117570">
    <ele>18.2</ele>
    <time>2026-09-16T09:42:34Z</time>
   </trkpt>
   <trkpt lat="22.7284220" lon="120.3117500">
    <ele>18.2</ele>
    <time>2026-09-16T09:42:35Z</time>
   </trkpt>
   <trkpt lat="22.7284240" lon="120.3117360">
    <ele>18.2</ele>
    <time>2026-09-16T09:42:36Z</time>
   </trkpt>
   <trkpt lat="22.7284270" lon="120.3117150">
    <ele>18.2</ele>
    <time>2026-09-16T09:42:37Z</time>
   </trkpt>
   <trkpt lat="22.7284010" lon="120.3117040">
    <ele>18.2</ele>
    <time>2026-09-16T09:42:38Z</time>
   </trkpt>
   <trkpt lat="22.7283920" lon="120.3116840">
    <ele>18.2</ele>
    <time>2026-09-16T09:42:39Z</time>
   </trkpt>
   <trkpt lat="22.7283910" lon="120.3116630">
    <ele>18.1</ele>
    <time>2026-09-16T09:42:40Z</time>
   </trkpt>
   <trkpt lat="22.7283810" lon="120.3116500">
    <ele>18.1</ele>
    <time>2026-09-16T09:42:41Z</time>
   </trkpt>
   <trkpt lat="22.7283760" lon="120.3116370">
    <ele>18.1</ele>
    <time>2026-09-16T09:42:42Z</time>
   </trkpt>
   <trkpt lat="22.7283700" lon="120.3116270">
    <ele>18.1</ele>
    <time>2026-09-16T09:42:43Z</time>
   </trkpt>
   <trkpt lat="22.7283590" lon="120.3116210">
    <ele>18.1</ele>
    <time>2026-09-16T09:42:44Z</time>
   </trkpt>
   <trkpt lat="22.7283440" lon="120.3116100">
    <ele>18.1</ele>
    <time>2026-09-16T09:42:45Z</time>
   </trkpt>
   <trkpt lat="22.7282990" lon="120.3116470">
    <ele>18.1</ele>
    <time>2026-09-16T09:42:46Z</time>
   </trkpt>
   <trkpt lat="22.7282840" lon="120.3116530">
    <ele>18.1</ele>
    <time>2026-09-16T09:42:47Z</time>
   </trkpt>
   <trkpt lat="22.7282660" lon="120.3116460">
    <ele>18.1</ele>
    <time>2026-09-16T09:42:48Z</time>
   </trkpt>
   <trkpt lat="22.7282510" lon="120.3116430">
    <ele>18.1</ele>
    <time>2026-09-16T09:42:49Z</time>
   </trkpt>
   <trkpt lat="22.7282380" lon="120.3116350">
    <ele>18.1</ele>
    <time>2026-09-16T09:42:50Z</time>
   </trkpt>
   <trkpt lat="22.7282300" lon="120.3116480">
    <ele>18.1</ele>
    <time>2026-09-16T09:42:51Z</time>
   </trkpt>
   <trkpt lat="22.7282100" lon="120.3116440">
    <ele>18.1</ele>
    <time>2026-09-16T09:42:52Z</time>
   </trkpt>
   <trkpt lat="22.7281930" lon="120.3116360">
    <ele>18.1</ele>
    <time>2026-09-16T09:42:53Z</time>
   </trkpt>
   <trkpt lat="22.7281860" lon="120.3116340">
    <ele>18.1</ele>
    <time>2026-09-16T09:42:54Z</time>
   </trkpt>
   <trkpt lat="22.7281700" lon="120.3116440">
    <ele>18.1</ele>
    <time>2026-09-16T09:42:55Z</time>
   </trkpt>
  </trkseg>
 </trk>
</gpx>
