<?xml version="1.0" encoding="UTF-8"?>
<gpx creator="StravaGPX" version="1.1" xmlns="http://www.topografix.com/GPX/1/1" xmlns:xsi="http://www.w3.org/2001/XMLSchema-instance" xsi:schemaLocation="http://www.topografix.com/GPX/1/1 http://www.topografix.com/GPX/1/1/gpx.xsd">
 <metadata>
  <time>2026-09-17T08:32:12Z</time>
 </metadata>
 <trk>
  <name>午後跑步</name>
  <type>running</type>
  <trkseg>
   <trkpt lat="22.7378120" lon="120.3333950">
    <ele>21.8</ele>
    <time>2026-09-17T08:32:12Z</time>
   </trkpt>
   <trkpt lat="22.7378120" lon="120.3333950">
    <ele>21.8</ele>
    <time>2026-09-17T08:32:13Z</time>
   </trkpt>
   <trkpt lat="22.7378280" lon="120.3333980">
    <ele>21.8</ele>
    <time>2026-09-17T08:32:14Z</time>
   </trkpt>
   <trkpt lat="22.7378420" lon="120.3333990">
    <ele>21.8</ele>
    <time>2026-09-17T08:32:15Z</time>
   </trkpt>
   <trkpt lat="22.7378650" lon="120.3333980">
    <ele>21.7</ele>
    <time>2026-09-17T08:32:16Z</time>
   </trkpt>
   <trkpt lat="22.7378850" lon="120.3333870">
    <ele>21.7</ele>
    <time>2026-09-17T08:32:17Z</time>
   </trkpt>
   <trkpt lat="22.7378850" lon="120.3333870">
    <ele>21.7</ele>
    <time>2026-09-17T08:32:18Z</time>
   </trkpt>
   <trkpt lat="22.7378850" lon="120.3333870">
    <ele>21.7</ele>
    <time>2026-09-17T08:32:19Z</time>
   </trkpt>
   <trkpt lat="22.7379080" lon="120.3333740">
    <ele>21.6</ele>
    <time>2026-09-17T08:32:20Z</time>
   </trkpt>
   <trkpt lat="22.7379080" lon="120.3333740">
    <ele>21.6</ele>
    <time>2026-09-17T08:32:21Z</time>
   </trkpt>
   <trkpt lat="22.7379080" lon="120.3333740">
    <ele>21.6</ele>
    <time>2026-09-17T08:32:22Z</time>
   </trkpt>
   <trkpt lat="22.7379310" lon="120.3333610">
    <ele>21.6</ele>
    <time>2026-09-17T08:32:23Z</time>
   </trkpt>
   <trkpt lat="22.7379310" lon="120.3333610">
    <ele>21.6</ele>
    <time>2026-09-17T08:32:24Z</time>
   </trkpt>
   <trkpt lat="22.7379310" lon="120.3333610">
    <ele>21.6</ele>
    <time>2026-09-17T08:32:25Z</time>
   </trkpt>
   <trkpt lat="22.7379540" lon="120.3333480">
    <ele>21.5</ele>
    <time>2026-09-17T08:32:26Z</time>
   </trkpt>
   <trkpt lat="22.7379540" lon="120.3333480">
    <ele>21.5</ele>
    <time>2026-09-17T08:32:27Z</time>
   </trkpt>
   <trkpt lat="22.7379540" lon="120.3333480">
    <ele>21.5</ele>
    <time>2026-09-17T08:32:28Z</time>
   </trkpt>
   <trkpt lat="22.7379780" lon="120.3333350">
    <ele>21.5</ele>
    <time>2026-09-17T08:32:29Z</time>
   </trkpt>
   <trkpt lat="22.7379880" lon="120.3333290">
    <ele>21.4</ele>
    <time>2026-09-17T08:32:30Z</time>
   </trkpt>
   <trkpt lat="22.7379980" lon="120.3333230">
    <ele>21.4</ele>
    <time>2026-09-17T08:32:31Z</time>
   </trkpt>
   <trkpt lat="22.7380080" lon="120.3333180">
    <ele>21.4</ele>
    <time>2026-09-17T08:32:32Z</time>
   </trkpt>
   <trkpt lat="22.7380080" lon="120.3333180">
    <ele>21.4</ele>
    <time>2026-09-17T08:32:33Z</time>
   </trkpt>
   <trkpt lat="22.7380080" lon="120.3333180">
    <ele>21.4</ele>
    <time>2026-09-17T08:32:34Z</time>
   </trkpt>
   <trkpt lat="22.7380320" lon="120.3333040">
    <ele>21.3</ele>
    <time>2026-09-17T08:32:35Z</time>
   </trkpt>
   <trkpt lat="22.7380400" lon="120.3333000">
    <ele>21.3</ele>
    <time>2026-09-17T08:32:36Z</time>
   </trkpt>
   <trkpt lat="22.7380490" lon="120.3332950">
    <ele>21.3</ele>
    <time>2026-09-17T08:32:37Z</time>
   </trkpt>
   <trkpt lat="22.7380570" lon="120.3332900">
    <ele>21.3</ele>
    <time>2026-09-17T08:32:38Z</time>
   </trkpt>
   <trkpt lat="22.7380660" lon="120.3332850">
    <ele>21.3</ele>
    <time>2026-09-17T08:32:39Z</time>
   </trkpt>
   <trkpt lat="22.7380830" lon="120.3332750">
    <ele>21.2</ele>
    <time>2026-09-17T08:32:41Z</time>
   </trkpt>
   <trkpt lat="22.7380920" lon="120.3332710">
    <ele>21.2</ele>
    <time>2026-09-17T08:32:42Z</time>
   </trkpt>
   <trkpt lat="22.7381000" lon="120.3332660">
    <ele>21.2</ele>
    <time>2026-09-17T08:32:43Z</time>
   </trkpt>
   <trkpt lat="22.7381090" lon="120.3332610">
    <ele>21.2</ele>
    <time>2026-09-17T08:32:44Z</time>
   </trkpt>
   <trkpt lat="22.7381120" lon="120.3332770">
    <ele>21.1</ele>
    <time>2026-09-17T08:32:45Z</time>
   </trkpt>
   <trkpt lat="22.7381260" lon="120.3332680">
    <ele>21.1</ele>
    <time>2026-09-17T08:32:46Z</time>
   </trkpt>
   <trkpt lat="22.7381350" lon="120.3332740">
    <ele>21.1</ele>
    <time>2026-09-17T08:32:47Z</time>
   </trkpt>
   <trkpt lat="22.7381380" lon="120.3332700">
    <ele>21.1</ele>
    <time>2026-09-17T08:32:48Z</time>
   </trkpt>
   <trkpt lat="22.7381570" lon="120.3332610">
    <ele>21.0</ele>
    <time>2026-09-17T08:32:49Z</time>
   </trkpt>
   <trkpt lat="22.7381570" lon="120.3332660">
    <ele>21.0</ele>
    <time>2026-09-17T08:32:50Z</time>
   </trkpt>
   <trkpt lat="22.7381550" lon="120.3332660">
    <ele>21.0</ele>
    <time>2026-09-17T08:32:51Z</time>
   </trkpt>
   <trkpt lat="22.7381540" lon="120.3332670">
    <ele>21.0</ele>
    <time>2026-09-17T08:32:52Z</time>
   </trkpt>
   <trkpt lat="22.7381540" lon="120.3332670">
    <ele>21.0</ele>
    <time>2026-09-17T08:32:53Z</time>
   </trkpt>
   <trkpt lat="22.7381540" lon="120.3332670">
    <ele>21.0</ele>
    <time>2026-09-17T08:32:54Z</time>
   </trkpt>
   <trkpt lat="22.7381670" lon="120.3332440">
    <ele>20.9</ele>
    <time>2026-09-17T08:32:55Z</time>
   </trkpt>
   <trkpt lat="22.7381770" lon="120.3332490">
    <ele>20.9</ele>
    <time>2026-09-17T08:32:56Z</time>
   </trkpt>
   <trkpt lat="22.7381820" lon="120.3332410">
    <ele>20.9</ele>
    <time>2026-09-17T08:32:57Z</time>
   </trkpt>
   <trkpt lat="22.7381870" lon="120.3332500">
    <ele>20.9</ele>
    <time>2026-09-17T08:32:58Z</time>
   </trkpt>
   <trkpt lat="22.7382000" lon="120.3332620">
    <ele>20.9</ele>
    <time>2026-09-17T08:32:59Z</time>
   </trkpt>
   <trkpt lat="22.7382110" lon="120.3332650">
    <ele>20.8</ele>
    <time>2026-09-17T08:33:00Z</time>
   </trkpt>
   <trkpt lat="22.7382160" lon="120.3332760">
    <ele>20.8</ele>
    <time>2026-09-17T08:33:01Z</time>
   </trkpt>
   <trkpt lat="22.7382210" lon="120.3332800">
    <ele>20.8</ele>
    <time>2026-09-17T08:33:02Z</time>
   </trkpt>
   <trkpt lat="22.7382230" lon="120.3332860">
    <ele>20.8</ele>
    <time>2026-09-17T08:33:03Z</time>
   </trkpt>
   <trkpt lat="22.7382280" lon="120.3332860">
    <ele>20.8</ele>
    <time>2026-09-17T08:33:04Z</time>
   </trkpt>
   <trkpt lat="22.7382270" lon="120.3332710">
    <ele>20.7</ele>
    <time>2026-09-17T08:33:05Z</time>
   </trkpt>
   <trkpt lat="22.7382300" lon="120.3332670">
    <ele>20.7</ele>
    <time>2026-09-17T08:33:06Z</time>
   </trkpt>
   <trkpt lat="22.7382330" lon="120.3332680">
    <ele>20.7</ele>
    <time>2026-09-17T08:33:07Z</time>
   </trkpt>
   <trkpt lat="22.7382410" lon="120.3332770">
    <ele>20.7</ele>
    <time>2026-09-17T08:33:08Z</time>
   </trkpt>
   <trkpt lat="22.7382510" lon="120.3332700">
    <ele>20.7</ele>
    <time>2026-09-17T08:33:09Z</time>
   </trkpt>
   <trkpt lat="22.7382580" lon="120.3332780">
    <ele>20.7</ele>
    <time>2026-09-17T08:33:10Z</time>
   </trkpt>
   <trkpt lat="22.7382640" lon="120.3332850">
    <ele>20.6</ele>
    <time>2026-09-17T08:33:11Z</time>
   </trkpt>
   <trkpt lat="22.7382760" lon="120.3332870">
    <ele>20.6</ele>
    <time>2026-09-17T08:33:12Z</time>
   </trkpt>
   <trkpt lat="22.7382810" lon="120.3332870">
    <ele>20.6</ele>
    <time>2026-09-17T08:33:13Z</time>
   </trkpt>
   <trkpt lat="22.7382850" lon="120.3332900">
    <ele>20.6</ele>
    <time>2026-09-17T08:33:14Z</time>
   </trkpt>
   <trkpt lat="22.7382870" lon="120.3332910">
    <ele>20.6</ele>
    <time>2026-09-17T08:33:15Z</time>
   </trkpt>
   <trkpt lat="22.7382860" lon="120.3332880">
    <ele>20.6</ele>
    <time>2026-09-17T08:33:16Z</time>
   </trkpt>
   <trkpt lat="22.7382860" lon="120.3332940">
    <ele>20.6</ele>
    <time>2026-09-17T08:33:17Z</time>
   </trkpt>
   <trkpt lat="22.7382960" lon="120.3333010">
    <ele>20.6</ele>
    <time>2026-09-17T08:33:18Z</time>
   </trkpt>
   <trkpt lat="22.7383160" lon="120.3333030">
    <ele>20.5</ele>
    <time>2026-09-17T08:33:19Z</time>
   </trkpt>
   <trkpt lat="22.7383250" lon="120.3333050">
    <ele>20.5</ele>
    <time>2026-09-17T08:33:20Z</time>
   </trkpt>
   <trkpt lat="22.7383370" lon="120.3333030">
    <ele>20.5</ele>
    <time>2026-09-17T08:33:21Z</time>
   </trkpt>
   <trkpt lat="22.7383430" lon="120.3333040">
    <ele>20.5</ele>
    <time>2026-09-17T08:33:22Z</time>
   </trkpt>
   <trkpt lat="22.7383510" lon="120.3333030">
    <ele>20.4</ele>
    <time>2026-09-17T08:33:23Z</time>
   </trkpt>
   <trkpt lat="22.7383550" lon="120.3333050">
    <ele>20.4</ele>
    <time>2026-09-17T08:33:24Z</time>
   </trkpt>
   <trkpt lat="22.7383650" lon="120.3332930">
    <ele>20.4</ele>
    <time>2026-09-17T08:33:25Z</time>
   </trkpt>
   <trkpt lat="22.7383630" lon="120.3332910">
    <ele>20.4</ele>
    <time>2026-09-17T08:33:26Z</time>
   </trkpt>
   <trkpt lat="22.7383640" lon="120.3332930">
    <ele>20.4</ele>
    <time>2026-09-17T08:33:27Z</time>
   </trkpt>
   <trkpt lat="22.7383820" lon="120.3332860">
    <ele>20.4</ele>
    <time>2026-09-17T08:33:28Z</time>
   </trkpt>
   <trkpt lat="22.7383880" lon="120.3332870">
    <ele>20.3</ele>
    <time>2026-09-17T08:33:29Z</time>
   </trkpt>
   <trkpt lat="22.7383990" lon="120.3332970">
    <ele>20.3</ele>
    <time>2026-09-17T08:33:30Z</time>
   </trkpt>
   <trkpt lat="22.7384070" lon="120.3333000">
    <ele>20.3</ele>
    <time>2026-09-17T08:33:31Z</time>
   </trkpt>
   <trkpt lat="22.7384140" lon="120.3332950">
    <ele>20.3</ele>
    <time>2026-09-17T08:33:32Z</time>
   </trkpt>
   <trkpt lat="22.7384190" lon="120.3333020">
    <ele>20.3</ele>
    <time>2026-09-17T08:33:33Z</time>
   </trkpt>
   <trkpt lat="22.7384220" lon="120.3333010">
    <ele>20.3</ele>
    <time>2026-09-17T08:33:34Z</time>
   </trkpt>
   <trkpt lat="22.7384220" lon="120.3333010">
    <ele>20.3</ele>
    <time>2026-09-17T08:33:35Z</time>
   </trkpt>
   <trkpt lat="22.7384250" lon="120.3333040">
    <ele>20.2</ele>
    <time>2026-09-17T08:33:36Z</time>
   </trkpt>
   <trkpt lat="22.7384290" lon="120.3333140">
    <ele>20.2</ele>
    <time>2026-09-17T08:33:37Z</time>
   </trkpt>
   <trkpt lat="22.7384330" lon="120.3332980">
    <ele>20.2</ele>
    <time>2026-09-17T08:33:38Z</time>
   </trkpt>
   <trkpt lat="22.7384310" lon="120.3332910">
    <ele>20.2</ele>
    <time>2026-09-17T08:33:39Z</time>
   </trkpt>
   <trkpt lat="22.7384390" lon="120.3332920">
    <ele>20.2</ele>
    <time>2026-09-17T08:33:40Z</time>
   </trkpt>
   <trkpt lat="22.7384440" lon="120.3332900">
    <ele>20.2</ele>
    <time>2026-09-17T08:33:41Z</time>
   </trkpt>
   <trkpt lat="22.7384600" lon="120.3332920">
    <ele>20.1</ele>
    <time>2026-09-17T08:33:42Z</time>
   </trkpt>
   <trkpt lat="22.7384660" lon="120.3332960">
    <ele>20.1</ele>
    <time>2026-09-17T08:33:43Z</time>
   </trkpt>
   <trkpt lat="22.7384730" lon="120.3332900">
    <ele>20.1</ele>
    <time>2026-09-17T08:33:44Z</time>
   </trkpt>
   <trkpt lat="22.7384810" lon="120.3332970">
    <ele>20.1</ele>
    <time>2026-09-17T08:33:45Z</time>
   </trkpt>
   <trkpt lat="22.7384950" lon="120.3332930">
    <ele>20.0</ele>
    <time>2026-09-17T08:33:46Z</time>
   </trkpt>
   <trkpt lat="22.7385070" lon="120.3332920">
    <ele>20.0</ele>
    <time>2026-09-17T08:33:47Z</time>
   </trkpt>
   <trkpt lat="22.7385070" lon="120.3332870">
    <ele>20.0</ele>
    <time>2026-09-17T08:33:48Z</time>
   </trkpt>
   <trkpt lat="22.7384990" lon="120.3332990">
    <ele>20.0</ele>
    <time>2026-09-17T08:33:49Z</time>
   </trkpt>
   <trkpt lat="22.7384970" lon="120.3333040">
    <ele>20.0</ele>
    <time>2026-09-17T08:33:50Z</time>
   </trkpt>
   <trkpt lat="22.7385020" lon="120.3332990">
    <ele>19.9</ele>
    <time>2026-09-17T08:33:51Z</time>
   </trkpt>
   <trkpt lat="22.7385130" lon="120.3332960">
    <ele>19.9</ele>
    <time>2026-09-17T08:33:52Z</time>
   </trkpt>
   <trkpt lat="22.7385300" lon="120.3333020">
    <ele>19.9</ele>
    <time>2026-09-17T08:33:53Z</time>
   </trkpt>
   <trkpt lat="22.7385370" lon="120.3333140">
    <ele>19.9</ele>
    <time>2026-09-17T08:33:54Z</time>
   </trkpt>
   <trkpt lat="22.7385510" lon="120.3333140">
    <ele>19.8</ele>
    <time>2026-09-17T08:33:55Z</time>
   </trkpt>
   <trkpt lat="22.7385640" lon="120.3333200">
    <ele>19.8</ele>
    <time>2026-09-17T08:33:56Z</time>
   </trkpt>
   <trkpt lat="22.7385730" lon="120.3333200">
    <ele>19.8</ele>
    <time>2026-09-17T08:33:57Z</time>
   </trkpt>
   <trkpt lat="22.7385810" lon="120.3333250">
    <ele>19.8</ele>
    <time>2026-09-17T08:33:58Z</time>
   </trkpt>
   <trkpt lat="22.7385820" lon="120.3333220">
    <ele>19.8</ele>
    <time>2026-09-17T08:33:59Z</time>
   </trkpt>
   <trkpt lat="22.7385850" lon="120.3333160">
    <ele>19.7</ele>
    <time>2026-09-17T08:34:00Z</time>
   </trkpt>
   <trkpt lat="22.7385870" lon="120.3333180">
    <ele>19.7</ele>
    <time>2026-09-17T08:34:01Z</time>
   </trkpt>
   <trkpt lat="22.7385820" lon="120.3333220">
    <ele>19.7</ele>
    <time>2026-09-17T08:34:02Z</time>
   </trkpt>
   <trkpt lat="22.7385870" lon="120.3333240">
    <ele>19.7</ele>
    <time>2026-09-17T08:34:03Z</time>
   </trkpt>
   <trkpt lat="22.7385910" lon="120.3333260">
    <ele>19.7</ele>
    <time>2026-09-17T08:34:04Z</time>
   </trkpt>
   <trkpt lat="22.7386110" lon="120.3333300">
    <ele>19.7</ele>
    <time>2026-09-17T08:34:05Z</time>
   </trkpt>
   <trkpt lat="22.7386210" lon="120.3333230">
    <ele>19.6</ele>
    <time>2026-09-17T08:34:06Z</time>
   </trkpt>
   <trkpt lat="22.7386280" lon="120.3333330">
    <ele>19.6</ele>
    <time>2026-09-17T08:34:07Z</time>
   </trkpt>
   <trkpt lat="22.7386490" lon="120.3333380">
    <ele>19.6</ele>
    <time>2026-09-17T08:34:08Z</time>
   </trkpt>
   <trkpt lat="22.7386600" lon="120.3333350">
    <ele>19.6</ele>
    <time>2026-09-17T08:34:09Z</time>
   </trkpt>
   <trkpt lat="22.7386590" lon="120.3333270">
    <ele>19.5</ele>
    <time>2026-09-17T08:34:10Z</time>
   </trkpt>
   <trkpt lat="22.7386550" lon="120.3333270">
    <ele>19.5</ele>
    <time>2026-09-17T08:34:11Z</time>
   </trkpt>
   <trkpt lat="22.7386590" lon="120.3333320">
    <ele>19.5</ele>
    <time>2026-09-17T08:34:12Z</time>
   </trkpt>
   <trkpt lat="22.7386700" lon="120.3333370">
    <ele>19.5</ele>
    <time>2026-09-17T08:34:13Z</time>
   </trkpt>
   <trkpt lat="22.7386760" lon="120.3333540">
    <ele>19.5</ele>
    <time>2026-09-17T08:34:14Z</time>
   </trkpt>
   <trkpt lat="22.7386750" lon="120.3333580">
    <ele>19.5</ele>
    <time>2026-09-17T08:34:15Z</time>
   </trkpt>
   <trkpt lat="22.7386820" lon="120.3333670">
    <ele>19.4</ele>
    <time>2026-09-17T08:34:16Z</time>
   </trkpt>
   <trkpt lat="22.7386840" lon="120.3333690">
    <ele>19.4</ele>
    <time>2026-09-17T08:34:17Z</time>
   </trkpt>
   <trkpt lat="22.7386870" lon="120.3333750">
    <ele>19.4</ele>
    <time>2026-09-17T08:34:18Z</time>
   </trkpt>
   <trkpt lat="22.7386960" lon="120.3333810">
    <ele>19.4</ele>
    <time>2026-09-17T08:34:19Z</time>
   </trkpt>
   <trkpt lat="22.7386990" lon="120.3333880">
    <ele>19.4</ele>
    <time>2026-09-17T08:34:20Z</time>
   </trkpt>
   <trkpt lat="22.7386910" lon="120.3333940">
    <ele>19.4</ele>
    <time>2026-09-17T08:34:21Z</time>
   </trkpt>
   <trkpt lat="22.7386940" lon="120.3334070">
    <ele>19.4</ele>
    <time>2026-09-17T08:34:22Z</time>
   </trkpt>
   <trkpt lat="22.7386750" lon="120.3334440">
    <ele>19.5</ele>
    <time>2026-09-17T08:34:23Z</time>
   </trkpt>
   <trkpt lat="22.7386800" lon="120.3334540">
    <ele>19.5</ele>
    <time>2026-09-17T08:34:24Z</time>
   </trkpt>
   <trkpt lat="22.7386740" lon="120.3334730">
    <ele>19.5</ele>
    <time>2026-09-17T08:34:25Z</time>
   </trkpt>
   <trkpt lat="22.7386610" lon="120.3334830">
    <ele>19.6</ele>
    <time>2026-09-17T08:34:26Z</time>
   </trkpt>
   <trkpt lat="22.7386530" lon="120.3334710">
    <ele>19.6</ele>
    <time>2026-09-17T08:34:27Z</time>
   </trkpt>
   <trkpt lat="22.7386450" lon="120.3334600">
    <ele>19.6</ele>
    <time>2026-09-17T08:34:28Z</time>
   </trkpt>
   <trkpt lat="22.7386260" lon="120.3334550">
    <ele>19.6</ele>
    <time>2026-09-17T08:34:29Z</time>
   </trkpt>
   <trkpt lat="22.7386150" lon="120.3334630">
    <ele>19.7</ele>
    <time>2026-09-17T08:34:30Z</time>
   </trkpt>
   <trkpt lat="22.7386110" lon="120.3334610">
    <ele>19.7</ele>
    <time>2026-09-17T08:34:31Z</time>
   </trkpt>
   <trkpt lat="22.7386070" lon="120.3334750">
    <ele>19.7</ele>
    <time>2026-09-17T08:34:32Z</time>
   </trkpt>
   <trkpt lat="22.7386070" lon="120.3334870">
    <ele>19.7</ele>
    <time>2026-09-17T08:34:33Z</time>
   </trkpt>
   <trkpt lat="22.7386090" lon="120.3334810">
    <ele>19.7</ele>
    <time>2026-09-17T08:34:34Z</time>
   </trkpt>
   <trkpt lat="22.7385990" lon="120.3334920">
    <ele>19.7</ele>
    <time>2026-09-17T08:34:35Z</time>
   </trkpt>
   <trkpt lat="22.7386030" lon="120.3334970">
    <ele>19.8</ele>
    <time>2026-09-17T08:34:36Z</time>
   </trkpt>
   <trkpt lat="22.7385970" lon="120.3335100">
    <ele>19.8</ele>
    <time>2026-09-17T08:34:37Z</time>
   </trkpt>
   <trkpt lat="22.7386000" lon="120.3335150">
    <ele>19.8</ele>
    <time>2026-09-17T08:34:38Z</time>
   </trkpt>
   <trkpt lat="22.7385810" lon="120.3335280">
    <ele>19.8</ele>
    <time>2026-09-17T08:34:39Z</time>
   </trkpt>
   <trkpt lat="22.7385770" lon="120.3335270">
    <ele>19.8</ele>
    <time>2026-09-17T08:34:40Z</time>
   </trkpt>
   <trkpt lat="22.7385700" lon="120.3335130">
    <ele>19.9</ele>
    <time>2026-09-17T08:34:41Z</time>
   </trkpt>
   <trkpt lat="22.7385570" lon="120.3334960">
    <ele>19.9</ele>
    <time>2026-09-17T08:34:43Z</time>
   </trkpt>
   <trkpt lat="22.7385530" lon="120.3334890">
    <ele>19.9</ele>
    <time>2026-09-17T08:34:44Z</time>
   </trkpt>
   <trkpt lat="22.7385450" lon="120.3334960">
    <ele>19.9</ele>
    <time>2026-09-17T08:34:45Z</time>
   </trkpt>
   <trkpt lat="22.7385370" lon="120.3334890">
    <ele>19.9</ele>
    <time>2026-09-17T08:34:46Z</time>
   </trkpt>
   <trkpt lat="22.7385340" lon="120.3334840">
    <ele>20.0</ele>
    <time>2026-09-17T08:34:47Z</time>
   </trkpt>
   <trkpt lat="22.7385280" lon="120.3334780">
    <ele>20.0</ele>
    <time>2026-09-17T08:34:48Z</time>
   </trkpt>
   <trkpt lat="22.7385270" lon="120.3334810">
    <ele>20.0</ele>
    <time>2026-09-17T08:34:49Z</time>
   </trkpt>
   <trkpt lat="22.7385160" lon="120.3334840">
    <ele>20.0</ele>
    <time>2026-09-17T08:34:50Z</time>
   </trkpt>
   <trkpt lat="22.7384980" lon="120.3334810">
    <ele>20.0</ele>
    <time>2026-09-17T08:34:51Z</time>
   </trkpt>
   <trkpt lat="22.7384870" lon="120.3334920">
    <ele>20.0</ele>
    <time>2026-09-17T08:34:52Z</time>
   </trkpt>
   <trkpt lat="22.7384750" lon="120.3334920">
    <ele>20.1</ele>
    <time>2026-09-17T08:34:53Z</time>
   </trkpt>
   <trkpt lat="22.7384730" lon="120.3334890">
    <ele>20.1</ele>
    <time>2026-09-17T08:34:54Z</time>
   </trkpt>
   <trkpt lat="22.7384840" lon="120.3334880">
    <ele>20.1</ele>
    <time>2026-09-17T08:34:55Z</time>
   </trkpt>
   <trkpt lat="22.7384710" lon="120.3334790">
    <ele>20.1</ele>
    <time>2026-09-17T08:34:56Z</time>
   </trkpt>
   <trkpt lat="22.7384770" lon="120.3334810">
    <ele>20.1</ele>
    <time>2026-09-17T08:34:57Z</time>
   </trkpt>
   <trkpt lat="22.7384680" lon="120.3334750">
    <ele>20.1</ele>
    <time>2026-09-17T08:34:58Z</time>
   </trkpt>
   <trkpt lat="22.7384590" lon="120.3334790">
    <ele>20.2</ele>
    <time>2026-09-17T08:34:59Z</time>
   </trkpt>
   <trkpt lat="22.7384430" lon="120.3334750">
    <ele>20.2</ele>
    <time>2026-09-17T08:35:00Z</time>
   </trkpt>
   <trkpt lat="22.7384330" lon="120.3334740">
    <ele>20.2</ele>
    <time>2026-09-17T08:35:01Z</time>
   </trkpt>
   <trkpt lat="22.7384230" lon="120.3334670">
    <ele>20.2</ele>
    <time>2026-09-17T08:35:02Z</time>
   </trkpt>
   <trkpt lat="22.7384070" lon="120.3334640">
    <ele>20.3</ele>
    <time>2026-09-17T08:35:03Z</time>
   </trkpt>
   <trkpt lat="22.7384040" lon="120.3334690">
    <ele>20.3</ele>
    <time>2026-09-17T08:35:04Z</time>
   </trkpt>
   <trkpt lat="22.7384030" lon="120.3334780">
    <ele>20.3</ele>
    <time>2026-09-17T08:35:05Z</time>
   </trkpt>
   <trkpt lat="22.7383960" lon="120.3334830">
    <ele>20.3</ele>
    <time>2026-09-17T08:35:06Z</time>
   </trkpt>
   <trkpt lat="22.7383960" lon="120.3334860">
    <ele>20.3</ele>
    <time>2026-09-17T08:35:07Z</time>
   </trkpt>
   <trkpt lat="22.7383980" lon="120.3334850">
    <ele>20.3</ele>
    <time>2026-09-17T08:35:08Z</time>
   </trkpt>
   <trkpt lat="22.7384020" lon="120.3335010">
    <ele>20.3</ele>
    <time>2026-09-17T08:35:09Z</time>
   </trkpt>
   <trkpt lat="22.7384020" lon="120.3335050">
    <ele>20.3</ele>
    <time>2026-09-17T08:35:10Z</time>
   </trkpt>
   <trkpt lat="22.7384010" lon="120.3335000">
    <ele>20.3</ele>
    <time>2026-09-17T08:35:11Z</time>
   </trkpt>
   <trkpt lat="22.7383890" lon="120.3335020">
    <ele>20.4</ele>
    <time>2026-09-17T08:35:12Z</time>
   </trkpt>
   <trkpt lat="22.7383760" lon="120.3334940">
    <ele>20.4</ele>
    <time>2026-09-17T08:35:13Z</time>
   </trkpt>
   <trkpt lat="22.7383670" lon="120.3334740">
    <ele>20.4</ele>
    <time>2026-09-17T08:35:14Z</time>
   </trkpt>
   <trkpt lat="22.7383620" lon="120.3334670">
    <ele>20.4</ele>
    <time>2026-09-17T08:35:15Z</time>
   </trkpt>
   <trkpt lat="22.7383450" lon="120.3334670">
    <ele>20.5</ele>
    <time>2026-09-17T08:35:16Z</time>
   </trkpt>
   <trkpt lat="22.7383410" lon="120.3334620">
    <ele>20.5</ele>
    <time>2026-09-17T08:35:17Z</time>
   </trkpt>
   <trkpt lat="22.7383420" lon="120.3334670">
    <ele>20.5</ele>
    <time>2026-09-17T08:35:18Z</time>
   </trkpt>
   <trkpt lat="22.7383310" lon="120.3334800">
    <ele>20.5</ele>
    <time>2026-09-17T08:35:19Z</time>
   </trkpt>
   <trkpt lat="22.7383210" lon="120.3334860">
    <ele>20.5</ele>
    <time>2026-09-17T08:35:20Z</time>
   </trkpt>
   <trkpt lat="22.7383110" lon="120.3334920">
    <ele>20.6</ele>
    <time>2026-09-17T08:35:21Z</time>
   </trkpt>
   <trkpt lat="22.7382990" lon="120.3334890">
    <ele>20.6</ele>
    <time>2026-09-17T08:35:22Z</time>
   </trkpt>
   <trkpt lat="22.7382880" lon="120.3334980">
    <ele>20.6</ele>
    <time>2026-09-17T08:35:23Z</time>
   </trkpt>
   <trkpt lat="22.7382620" lon="120.3335240">
    <ele>20.7</ele>
    <time>2026-09-17T08:35:24Z</time>
   </trkpt>
   <trkpt lat="22.7382470" lon="120.3335330">
    <ele>20.7</ele>
    <time>2026-09-17T08:35:25Z</time>
   </trkpt>
   <trkpt lat="22.7382370" lon="120.3335300">
    <ele>20.7</ele>
    <time>2026-09-17T08:35:26Z</time>
   </trkpt>
   <trkpt lat="22.7382380" lon="120.3335310">
    <ele>20.7</ele>
    <time>2026-09-17T08:35:27Z</time>
   </trkpt>
   <trkpt lat="22.7382430" lon="120.3335230">
    <ele>20.7</ele>
    <time>2026-09-17T08:35:28Z</time>
   </trkpt>
   <trkpt lat="22.7382270" lon="120.3335130">
    <ele>20.8</ele>
    <time>2026-09-17T08:35:29Z</time>
   </trkpt>
   <trkpt lat="22.7382210" lon="120.3334960">
    <ele>20.8</ele>
    <time>2026-09-17T08:35:30Z</time>
   </trkpt>
   <trkpt lat="22.7382200" lon="120.3334770">
    <ele>20.8</ele>
    <time>2026-09-17T08:35:31Z</time>
   </trkpt>
   <trkpt lat="22.7382250" lon="120.3334730">
    <ele>20.8</ele>
    <time>2026-09-17T08:35:32Z</time>
   </trkpt>
   <trkpt lat="22.7382290" lon="120.3334710">
    <ele>20.8</ele>
    <time>2026-09-17T08:35:33Z</time>
   </trkpt>
   <trkpt lat="22.7382200" lon="120.3334590">
    <ele>20.9</ele>
    <time>2026-09-17T08:35:34Z</time>
   </trkpt>
   <trkpt lat="22.7382030" lon="120.3334740">
    <ele>20.9</ele>
    <time>2026-09-17T08:35:35Z</time>
   </trkpt>
   <trkpt lat="22.7381970" lon="120.3334750">
    <ele>20.9</ele>
    <time>2026-09-17T08:35:36Z</time>
   </trkpt>
   <trkpt lat="22.7381930" lon="120.3334740">
    <ele>20.9</ele>
    <time>2026-09-17T08:35:37Z</time>
   </trkpt>
   <trkpt lat="22.7381850" lon="120.3334670">
    <ele>20.9</ele>
    <time>2026-09-17T08:35:38Z</time>
   </trkpt>
   <trkpt lat="22.7381830" lon="120.3334450">
    <ele>21.0</ele>
    <time>2026-09-17T08:35:39Z</time>
   </trkpt>
   <trkpt lat="22.7381820" lon="120.3334420">
    <ele>21.0</ele>
    <time>2026-09-17T08:35:40Z</time>
   </trkpt>
   <trkpt lat="22.7381860" lon="120.3334440">
    <ele>21.0</ele>
    <time>2026-09-17T08:35:41Z</time>
   </trkpt>
   <trkpt lat="22.7381830" lon="120.3334560">
    <ele>21.0</ele>
    <time>2026-09-17T08:35:42Z</time>
   </trkpt>
   <trkpt lat="22.7381730" lon="120.3334430">
    <ele>21.0</ele>
    <time>2026-09-17T08:35:43Z</time>
   </trkpt>
   <trkpt lat="22.7381750" lon="120.3334500">
    <ele>21.0</ele>
    <time>2026-09-17T08:35:44Z</time>
   </trkpt>
   <trkpt lat="22.7381650" lon="120.3334550">
    <ele>21.0</ele>
    <time>2026-09-17T08:35:45Z</time>
   </trkpt>
   <trkpt lat="22.7381560" lon="120.3334710">
    <ele>21.1</ele>
    <time>2026-09-17T08:35:46Z</time>
   </trkpt>
   <trkpt lat="22.7381400" lon="120.3334780">
    <ele>21.1</ele>
    <time>2026-09-17T08:35:47Z</time>
   </trkpt>
   <trkpt lat="22.7381300" lon="120.3334800">
    <ele>21.1</ele>
    <time>2026-09-17T08:35:48Z</time>
   </trkpt>
   <trkpt lat="22.7381210" lon="120.3334650">
    <ele>21.2</ele>
    <time>2026-09-17T08:35:49Z</time>
   </trkpt>
   <trkpt lat="22.7381160" lon="120.3334720">
    <ele>21.2</ele>
    <time>2026-09-17T08:35:50Z</time>
   </trkpt>
   <trkpt lat="22.7381060" lon="120.3334800">
    <ele>21.2</ele>
    <time>2026-09-17T08:35:51Z</time>
   </trkpt>
   <trkpt lat="22.7380950" lon="120.3334800">
    <ele>21.2</ele>
    <time>2026-09-17T08:35:52Z</time>
   </trkpt>
   <trkpt lat="22.7380920" lon="120.3334820">
    <ele>21.2</ele>
    <time>2026-09-17T08:35:53Z</time>
   </trkpt>
   <trkpt lat="22.7380980" lon="120.3334830">
    <ele>21.2</ele>
    <time>2026-09-17T08:35:54Z</time>
   </trkpt>
   <trkpt lat="22.7380880" lon="120.3334900">
    <ele>21.2</ele>
    <time>2026-09-17T08:35:55Z</time>
   </trkpt>
   <trkpt lat="22.7380760" lon="120.3334950">
    <ele>21.3</ele>
    <time>2026-09-17T08:35:56Z</time>
   </trkpt>
   <trkpt lat="22.7380740" lon="120.3334850">
    <ele>21.3</ele>
    <time>2026-09-17T08:35:57Z</time>
   </trkpt>
   <trkpt lat="22.7380590" lon="120.3334680">
    <ele>21.3</ele>
    <time>2026-09-17T08:35:58Z</time>
   </trkpt>
   <trkpt lat="22.7380510" lon="120.3334680">
    <ele>21.3</ele>
    <time>2026-09-17T08:35:59Z</time>
   </trkpt>
   <trkpt lat="22.7380490" lon="120.3334700">
    <ele>21.3</ele>
    <time>2026-09-17T08:36:00Z</time>
   </trkpt>
   <trkpt lat="22.7380420" lon="120.3334710">
    <ele>21.3</ele>
    <time>2026-09-17T08:36:01Z</time>
   </trkpt>
   <trkpt lat="22.7380370" lon="120.3334660">
    <ele>21.4</ele>
    <time>2026-09-17T08:36:02Z</time>
   </trkpt>
   <trkpt lat="22.7380340" lon="120.3334500">
    <ele>21.4</ele>
    <time>2026-09-17T08:36:03Z</time>
   </trkpt>
   <trkpt lat="22.7380340" lon="120.3334430">
    <ele>21.4</ele>
    <time>2026-09-17T08:36:04Z</time>
   </trkpt>
   <trkpt lat="22.7380300" lon="120.3334470">
    <ele>21.4</ele>
    <time>2026-09-17T08:36:05Z</time>
   </trkpt>
   <trkpt lat="22.7380150" lon="120.3334410">
    <ele>21.4</ele>
    <time>2026-09-17T08:36:06Z</time>
   </trkpt>
   <trkpt lat="22.7380070" lon="120.3334340">
    <ele>21.5</ele>
    <time>2026-09-17T08:36:07Z</time>
   </trkpt>
   <trkpt lat="22.7379940" lon="120.3334270">
    <ele>21.5</ele>
    <time>2026-09-17T08:36:08Z</time>
   </trkpt>
   <trkpt lat="22.7379830" lon="120.3334290">
    <ele>21.5</ele>
    <time>2026-09-17T08:36:09Z</time>
   </trkpt>
   <trkpt lat="22.7379750" lon="120.3334170">
    <ele>21.5</ele>
    <time>2026-09-17T08:36:10Z</time>
   </trkpt>
   <trkpt lat="22.7379670" lon="120.3334090">
    <ele>21.5</ele>
    <time>2026-09-17T08:36:11Z</time>
   </trkpt>
   <trkpt lat="22.7379570" lon="120.3333970">
    <ele>21.6</ele>
    <time>2026-09-17T08:36:12Z</time>
   </trkpt>
   <trkpt lat="22.7379450" lon="120.3333930">
    <ele>21.6</ele>
    <time>2026-09-17T08:36:13Z</time>
   </trkpt>
   <trkpt lat="22.7379350" lon="120.3333850">
    <ele>21.6</ele>
    <time>2026-09-17T08:36:14Z</time>
   </trkpt>
   <trkpt lat="22.7379220" lon="120.3333800">
    <ele>21.6</ele>
    <time>2026-09-17T08:36:15Z</time>
   </trkpt>
   <trkpt lat="22.7379060" lon="120.3333780">
    <ele>21.7</ele>
    <time>2026-09-17T08:36:16Z</time>
   </trkpt>
   <trkpt lat="22.7379040" lon="120.3333770">
    <ele>21.7</ele>
    <time>2026-09-17T08:36:17Z</time>
   </trkpt>
   <trkpt lat="22.7378950" lon="120.3333800">
    <ele>21.7</ele>
    <time>2026-09-17T08:36:18Z</time>
   </trkpt>
   <trkpt lat="22.7378870" lon="120.3333710">
    <ele>21.7</ele>
    <time>2026-09-17T08:36:19Z</time>
   </trkpt>
   <trkpt lat="22.7378680" lon="120.3333760">
    <ele>21.7</ele>
    <time>2026-09-17T08:36:20Z</time>
   </trkpt>
   <trkpt lat="22.7378550" lon="120.3333810">
    <ele>21.8</ele>
    <time>2026-09-17T08:36:21Z</time>
   </trkpt>
   <trkpt lat="22.7378440" lon="120.3333790">
    <ele>21.8</ele>
    <time>2026-09-17T08:36:22Z</time>
   </trkpt>
   <trkpt lat="22.7378280" lon="120.3333860">
    <ele>21.8</ele>
    <time>2026-09-17T08:36:23Z</time>
   </trkpt>
   <trkpt lat="22.7378260" lon="120.3333840">
    <ele>21.8</ele>
    <time>2026-09-17T08:36:24Z</time>
   </trkpt>
   <trkpt lat="22.7378200" lon="120.3333830">
    <ele>21.8</ele>
    <time>2026-09-17T08:36:25Z</time>
   </trkpt>
   <trkpt lat="22.7378070" lon="120.3333850">
    <ele>21.8</ele>
    <time>2026-09-17T08:36:26Z</time>
   </trkpt>
   <trkpt lat="22.7377910" lon="120.3333860">
    <ele>21.9</ele>
    <time>2026-09-17T08:36:27Z</time>
   </trkpt>
   <trkpt lat="22.7377840" lon="120.3333840">
    <ele>21.9</ele>
    <time>2026-09-17T08:36:28Z</time>
   </trkpt>
   <trkpt lat="22.7377720" lon="120.3333820">
    <ele>21.9</ele>
    <time>2026-09-17T08:36:29Z</time>
   </trkpt>
   <trkpt lat="22.7377640" lon="120.3333770">
    <ele>21.9</ele>
    <time>2026-09-17T08:36:30Z</time>
   </trkpt>
   <trkpt lat="22.7377510" lon="120.3333640">
    <ele>21.9</ele>
    <time>2026-09-17T08:36:31Z</time>
   </trkpt>
   <trkpt lat="22.7377510" lon="120.3333680">
    <ele>21.9</ele>
    <time>2026-09-17T08:36:32Z</time>
   </trkpt>
   <trkpt lat="22.7377490" lon="120.3333580">
    <ele>21.9</ele>
    <time>2026-09-17T08:36:33Z</time>
   </trkpt>
   <trkpt lat="22.7377480" lon="120.3333450">
    <ele>21.9</ele>
    <time>2026-09-17T08:36:34Z</time>
   </trkpt>
   <trkpt lat="22.7377500" lon="120.3333270">
    <ele>21.9</ele>
    <time>2026-09-17T08:36:35Z</time>
   </trkpt>
   <trkpt lat="22.7377500" lon="120.3333230">
    <ele>21.9</ele>
    <time>2026-09-17T08:36:36Z</time>
   </trkpt>
   <trkpt lat="22.7377480" lon="120.3333150">
    <ele>21.9</ele>
    <time>2026-09-17T08:36:37Z</time>
   </trkpt>
   <trkpt lat="22.7377430" lon="120.3332980">
    <ele>21.9</ele>
    <time>2026-09-17T08:36:38Z</time>
   </trkpt>
   <trkpt lat="22.7377460" lon="120.3332870">
    <ele>21.9</ele>
    <time>2026-09-17T08:36:39Z</time>
   </trkpt>
   <trkpt lat="22.7377470" lon="120.3332800">
    <ele>21.9</ele>
    <time>2026-09-17T08:36:40Z</time>
   </trkpt>
   <trkpt lat="22.7377490" lon="120.3332790">
    <ele>21.9</ele>
    <time>2026-09-17T08:36:41Z</time>
   </trkpt>
   <trkpt lat="22.7377520" lon="120.3332770">
    <ele>21.9</ele>
    <time>2026-09-17T08:36:42Z</time>
   </trkpt>
   <trkpt lat="22.7377550" lon="120.3332630">
    <ele>21.9</ele>
    <time>2026-09-17T08:36:43Z</time>
   </trkpt>
   <trkpt lat="22.7377510" lon="120.3332540">
    <ele>21.9</ele>
    <time>2026-09-17T08:36:44Z</time>
   </trkpt>
   <trkpt lat="22.7377500" lon="120.3332450">
    <ele>21.9</ele>
    <time>2026-09-17T08:36:45Z</time>
   </trkpt>
   <trkpt lat="22.7377390" lon="120.3332350">
    <ele>21.9</ele>
    <time>2026-09-17T08:36:46Z</time>
   </trkpt>
   <trkpt lat="22.7377390" lon="120.3332200">
    <ele>21.9</ele>
    <time>2026-09-17T08:36:47Z</time>
   </trkpt>
   <trkpt lat="22.7377050" lon="120.3332210">
    <ele>21.9</ele>
    <time>2026-09-17T08:36:48Z</time>
   </trkpt>
   <trkpt lat="22.7377000" lon="120.3332110">
    <ele>21.9</ele>
    <time>2026-09-17T08:36:49Z</time>
   </trkpt>
   <trkpt lat="22.7376980" lon="120.3332020">
    <ele>21.9</ele>
    <time>2026-09-17T08:36:50Z</time>
   </trkpt>
   <trkpt lat="22.7377050" lon="120.3331980">
    <ele>21.9</ele>
    <time>2026-09-17T08:36:51Z</time>
   </trkpt>
   <trkpt lat="22.7376980" lon="120.3331950">
    <ele>21.9</ele>
    <time>2026-09-17T08:36:52Z</time>
   </trkpt>
   <trkpt lat="22.7377020" lon="120.3331960">
    <ele>21.9</ele>
    <time>2026-09-17T08:36:53Z</time>
   </trkpt>
   <trkpt lat="22.7376970" lon="120.3332010">
    <ele>21.9</ele>
    <time>2026-09-17T08:36:54Z</time>
   </trkpt>
   <trkpt lat="22.7376890" lon="120.3331970">
    <ele>21.9</ele>
    <time>2026-09-17T08:36:55Z</time>
   </trkpt>
   <trkpt lat="22.7376770" lon="120.3331870">
    <ele>21.9</ele>
    <time>2026-09-17T08:36:56Z</time>
   </trkpt>
   <trkpt lat="22.7376570" lon="120.3331730">
    <ele>21.9</ele>
    <time>2026-09-17T08:36:57Z</time>
   </trkpt>
   <trkpt lat="22.7376460" lon="120.3331690">
    <ele>21.9</ele>
    <time>2026-09-17T08:36:58Z</time>
   </trkpt>
   <trkpt lat="22.7376510" lon="120.3331580">
    <ele>21.9</ele>
    <time>2026-09-17T08:36:59Z</time>
   </trkpt>
   <trkpt lat="22.7376620" lon="120.3331470">
    <ele>21.9</ele>
    <time>2026-09-17T08:37:00Z</time>
   </trkpt>
   <trkpt lat="22.7376710" lon="120.3331500">
    <ele>21.9</ele>
    <time>2026-09-17T08:37:01Z</time>
   </trkpt>
   <trkpt lat="22.7376720" lon="120.3331440">
    <ele>21.9</ele>
    <time>2026-09-17T08:37:02Z</time>
   </trkpt>
   <trkpt lat="22.7376690" lon="120.3331460">
    <ele>21.9</ele>
    <time>2026-09-17T08:37:03Z</time>
   </trkpt>
   <trkpt lat="22.7376700" lon="120.3331500">
    <ele>21.9</ele>
    <time>2026-09-17T08:37:04Z</time>
   </trkpt>
   <trkpt lat="22.7376530" lon="120.3331640">
    <ele>21.9</ele>
    <time>2026-09-17T08:37:05Z</time>
   </trkpt>
   <trkpt lat="22.7376440" lon="120.3331690">
    <ele>21.9</ele>
    <time>2026-09-17T08:37:06Z</time>
   </trkpt>
   <trkpt lat="22.7376460" lon="120.3331660">
    <ele>21.9</ele>
    <time>2026-09-17T08:37:07Z</time>
   </trkpt>
   <trkpt lat="22.7376540" lon="120.3331690">
    <ele>21.9</ele>
    <time>2026-09-17T08:37:08Z</time>
   </trkpt>
   <trkpt lat="22.7376600" lon="120.3331790">
    <ele>21.9</ele>
    <time>2026-09-17T08:37:09Z</time>
   </trkpt>
   <trkpt lat="22.7376480" lon="120.3331810">
    <ele>21.9</ele>
    <time>2026-09-17T08:37:10Z</time>
   </trkpt>
   <trkpt lat="22.7376530" lon="120.3331870">
    <ele>21.9</ele>
    <time>2026-09-17T08:37:11Z</time>
   </trkpt>
   <trkpt lat="22.7376680" lon="120.3331770">
    <ele>21.9</ele>
    <time>2026-09-17T08:37:12Z</time>
   </trkpt>
   <trkpt lat="22.7376720" lon="120.3331740">
    <ele>21.9</ele>
    <time>2026-09-17T08:37:13Z</time>
   </trkpt>
   <trkpt lat="22.7376670" lon="120.3331570">
    <ele>21.9</ele>
    <time>2026-09-17T08:37:14Z</time>
   </trkpt>
   <trkpt lat="22.7376780" lon="120.3331420">
    <ele>21.9</ele>
    <time>2026-09-17T08:37:15Z</time>
   </trkpt>
   <trkpt lat="22.7376800" lon="120.3331190">
    <ele>21.9</ele>
    <time>2026-09-17T08:37:16Z</time>
   </trkpt>
   <trkpt lat="22.7376810" lon="120.3331130">
    <ele>21.9</ele>
    <time>2026-09-17T08:37:17Z</time>
   </trkpt>
   <trkpt lat="22.7376810" lon="120.3331010">
    <ele>21.9</ele>
    <time>2026-09-17T08:37:18Z</time>
   </trkpt>
   <trkpt lat="22.7376870" lon="120.3330940">
    <ele>21.9</ele>
    <time>2026-09-17T08:37:19Z</time>
   </trkpt>
   <trkpt lat="22.7376720" lon="120.3330810">
    <ele>21.9</ele>
    <time>2026-09-17T08:37:20Z</time>
   </trkpt>
   <trkpt lat="22.7376680" lon="120.3330640">
    <ele>21.9</ele>
    <time>2026-09-17T08:37:21Z</time>
   </trkpt>
   <trkpt lat="22.7376590" lon="120.3330510">
    <ele>21.9</ele>
    <time>2026-09-17T08:37:22Z</time>
   </trkpt>
   <trkpt lat="22.7376480" lon="120.3330410">
    <ele>21.9</ele>
    <time>2026-09-17T08:37:23Z</time>
   </trkpt>
   <trkpt lat="22.7376360" lon="120.3330250">
    <ele>21.9</ele>
    <time>2026-09-17T08:37:24Z</time>
   </trkpt>
   <trkpt lat="22.7376240" lon="120.3330170">
    <ele>21.9</ele>
    <time>2026-09-17T08:37:25Z</time>
   </trkpt>
   <trkpt lat="22.7376220" lon="120.3329940">
    <ele>21.9</ele>
    <time>2026-09-17T08:37:26Z</time>
   </trkpt>
   <trkpt lat="22.7376140" lon="120.3329720">
    <ele>21.9</ele>
    <time>2026-09-17T08:37:27Z</time>
   </trkpt>
   <trkpt lat="22.7376180" lon="120.3329590">
    <ele>21.9</ele>
    <time>2026-09-17T08:37:28Z</time>
   </trkpt>
   <trkpt lat="22.7376150" lon="120.3329400">
    <ele>21.9</ele>
    <time>2026-09-17T08:37:29Z</time>
   </trkpt>
   <trkpt lat="22.7376200" lon="120.3329280">
    <ele>21.9</ele>
    <time>2026-09-17T08:37:30Z</time>
   </trkpt>
   <trkpt lat="22.7376300" lon="120.3329230">
    <ele>21.9</ele>
    <time>2026-09-17T08:37:31Z</time>
   </trkpt>
   <trkpt lat="22.7376390" lon="120.3329120">
    <ele>21.9</ele>
    <time>2026-09-17T08:37:32Z</time>
   </trkpt>
   <trkpt lat="22.7376430" lon="120.3329010">
    <ele>21.9</ele>
    <time>2026-09-17T08:37:33Z</time>
   </trkpt>
   <trkpt lat="22.7376500" lon="120.3328940">
    <ele>21.9</ele>
    <time>2026-09-17T08:37:34Z</time>
   </trkpt>
   <trkpt lat="22.7376580" lon="120.3328910">
    <ele>21.9</ele>
    <time>2026-09-17T08:37:35Z</time>
   </trkpt>
   <trkpt lat="22.7376670" lon="120.3328920">
    <ele>21.9</ele>
    <time>2026-09-17T08:37:36Z</time>
   </trkpt>
   <trkpt lat="22.7376740" lon="120.3328920">
    <ele>21.9</ele>
    <time>2026-09-17T08:37:37Z</time>
   </trkpt>
   <trkpt lat="22.7376810" lon="120.3328910">
    <ele>21.9</ele>
    <time>2026-09-17T08:37:38Z</time>
   </trkpt>
   <trkpt lat="22.7376890" lon="120.3328910">
    <ele>21.9</ele>
    <time>2026-09-17T08:37:39Z</time>
   </trkpt>
   <trkpt lat="22.7376550" lon="120.3328650">
    <ele>21.9</ele>
    <time>2026-09-17T08:37:40Z</time>
   </trkpt>
   <trkpt lat="22.7376500" lon="120.3328170">
    <ele>21.9</ele>
    <time>2026-09-17T08:37:41Z</time>
   </trkpt>
   <trkpt lat="22.7376370" lon="120.3327710">
    <ele>21.8</ele>
    <time>2026-09-17T08:37:42Z</time>
   </trkpt>
   <trkpt lat="22.7376490" lon="120.3327540">
    <ele>21.8</ele>
    <time>2026-09-17T08:37:43Z</time>
   </trkpt>
   <trkpt lat="22.7376560" lon="120.3327360">
    <ele>21.8</ele>
    <time>2026-09-17T08:37:44Z</time>
   </trkpt>
   <trkpt lat="22.7376520" lon="120.3327110">
    <ele>21.8</ele>
    <time>2026-09-17T08:37:45Z</time>
   </trkpt>
   <trkpt lat="22.7376800" lon="120.3327020">
    <ele>21.7</ele>
    <time>2026-09-17T08:37:46Z</time>
   </trkpt>
   <trkpt lat="22.7376980" lon="120.3326860">
    <ele>21.6</ele>
    <time>2026-09-17T08:37:47Z</time>
   </trkpt>
   <trkpt lat="22.7376840" lon="120.3326770">
    <ele>21.6</ele>
    <time>2026-09-17T08:37:48Z</time>
   </trkpt>
   <trkpt lat="22.7376790" lon="120.3326760">
    <ele>21.6</ele>
    <time>2026-09-17T08:37:49Z</time>
   </trkpt>
   <trkpt lat="22.7376820" lon="120.3326730">
    <ele>21.6</ele>
    <time>2026-09-17T08:37:50Z</time>
   </trkpt>
   <trkpt lat="22.7376890" lon="120.3326890">
    <ele>21.5</ele>
    <time>2026-09-17T08:37:51Z</time>
   </trkpt>
   <trkpt lat="22.7377070" lon="120.3326960">
    <ele>21.5</ele>
    <time>2026-09-17T08:37:52Z</time>
   </trkpt>
   <trkpt lat="22.7377030" lon="120.3326800">
    <ele>21.4</ele>
    <time>2026-09-17T08:37:53Z</time>
   </trkpt>
   <trkpt lat="22.7377060" lon="120.3326670">
    <ele>21.4</ele>
    <time>2026-09-17T08:37:54Z</time>
   </trkpt>
   <trkpt lat="22.7377100" lon="120.3326730">
    <ele>21.4</ele>
    <time>2026-09-17T08:37:55Z</time>
   </trkpt>
   <trkpt lat="22.7377140" lon="120.3326620">
    <ele>21.4</ele>
    <time>2026-09-17T08:37:56Z</time>
   </trkpt>
   <trkpt lat="22.7377250" lon="120.3326660">
    <ele>21.3</ele>
    <time>2026-09-17T08:37:57Z</time>
   </trkpt>
   <trkpt lat="22.7377390" lon="120.3326700">
    <ele>21.3</ele>
    <time>2026-09-17T08:37:58Z</time>
   </trkpt>
   <trkpt lat="22.7377530" lon="120.3326710">
    <ele>21.3</ele>
    <time>2026-09-17T08:37:59Z</time>
   </trkpt>
   <trkpt lat="22.7377620" lon="120.3326630">
    <ele>21.3</ele>
    <time>2026-09-17T08:38:00Z</time>
   </trkpt>
   <trkpt lat="22.7377500" lon="120.3326750">
    <ele>21.2</ele>
    <time>2026-09-17T08:38:01Z</time>
   </trkpt>
   <trkpt lat="22.7377500" lon="120.3326810">
    <ele>21.2</ele>
    <time>2026-09-17T08:38:02Z</time>
   </trkpt>
   <trkpt lat="22.7377600" lon="120.3326920">
    <ele>21.2</ele>
    <time>2026-09-17T08:38:03Z</time>
   </trkpt>
   <trkpt lat="22.7377530" lon="120.3326520">
    <ele>21.1</ele>
    <time>2026-09-17T08:38:04Z</time>
   </trkpt>
   <trkpt lat="22.7377590" lon="120.3326320">
    <ele>21.1</ele>
    <time>2026-09-17T08:38:05Z</time>
   </trkpt>
   <trkpt lat="22.7377660" lon="120.3326430">
    <ele>21.0</ele>
    <time>2026-09-17T08:38:06Z</time>
   </trkpt>
   <trkpt lat="22.7377740" lon="120.3326260">
    <ele>21.0</ele>
    <time>2026-09-17T08:38:07Z</time>
   </trkpt>
   <trkpt lat="22.7377740" lon="120.3326220">
    <ele>21.0</ele>
    <time>2026-09-17T08:38:08Z</time>
   </trkpt>
   <trkpt lat="22.7378080" lon="120.3326060">
    <ele>20.9</ele>
    <time>2026-09-17T08:38:09Z</time>
   </trkpt>
   <trkpt lat="22.7378090" lon="120.3326030">
    <ele>20.9</ele>
    <time>2026-09-17T08:38:10Z</time>
   </trkpt>
   <trkpt lat="22.7378160" lon="120.3326070">
    <ele>20.9</ele>
    <time>2026-09-17T08:38:11Z</time>
   </trkpt>
   <trkpt lat="22.7378220" lon="120.3326010">
    <ele>20.9</ele>
    <time>2026-09-17T08:38:12Z</time>
   </trkpt>
   <trkpt lat="22.7378200" lon="120.3325960">
    <ele>20.9</ele>
    <time>2026-09-17T08:38:13Z</time>
   </trkpt>
   <trkpt lat="22.7378330" lon="120.3326080">
    <ele>20.8</ele>
    <time>2026-09-17T08:38:14Z</time>
   </trkpt>
   <trkpt lat="22.7378440" lon="120.3326220">
    <ele>20.8</ele>
    <time>2026-09-17T08:38:15Z</time>
   </trkpt>
   <trkpt lat="22.7378540" lon="120.3326180">
    <ele>20.8</ele>
    <time>2026-09-17T08:38:16Z</time>
   </trkpt>
   <trkpt lat="22.7378540" lon="120.3326190">
    <ele>20.8</ele>
    <time>2026-09-17T08:38:17Z</time>
   </trkpt>
   <trkpt lat="22.7378720" lon="120.3326170">
    <ele>20.7</ele>
    <time>2026-09-17T08:38:18Z</time>
   </trkpt>
   <trkpt lat="22.7378820" lon="120.3326330">
    <ele>20.7</ele>
    <time>2026-09-17T08:38:19Z</time>
   </trkpt>
   <trkpt lat="22.7378780" lon="120.3326470">
    <ele>20.7</ele>
    <time>2026-09-17T08:38:20Z</time>
   </trkpt>
   <trkpt lat="22.7378840" lon="120.3326490">
    <ele>20.6</ele>
    <time>2026-09-17T08:38:21Z</time>
   </trkpt>
   <trkpt lat="22.7378900" lon="120.3326550">
    <ele>20.6</ele>
    <time>2026-09-17T08:38:22Z</time>
   </trkpt>
   <trkpt lat="22.7379100" lon="120.3326490">
    <ele>20.6</ele>
    <time>2026-09-17T08:38:23Z</time>
   </trkpt>
   <trkpt lat="22.7379200" lon="120.3326650">
    <ele>20.6</ele>
    <time>2026-09-17T08:38:24Z</time>
   </trkpt>
   <trkpt lat="22.7379240" lon="120.3326710">
    <ele>20.5</ele>
    <time>2026-09-17T08:38:25Z</time>
   </trkpt>
   <trkpt lat="22.7379180" lon="120.3326850">
    <ele>20.5</ele>
    <time>2026-09-17T08:38:26Z</time>
   </trkpt>
   <trkpt lat="22.7379150" lon="120.3326790">
    <ele>20.5</ele>
    <time>2026-09-17T08:38:27Z</time>
   </trkpt>
   <trkpt lat="22.7379130" lon="120.3326730">
    <ele>20.5</ele>
    <time>2026-09-17T08:38:28Z</time>
   </trkpt>
   <trkpt lat="22.7379190" lon="120.3326610">
    <ele>20.5</ele>
    <time>2026-09-17T08:38:29Z</time>
   </trkpt>
   <trkpt lat="22.7379320" lon="120.3326570">
    <ele>20.4</ele>
    <time>2026-09-17T08:38:30Z</time>
   </trkpt>
   <trkpt lat="22.7379390" lon="120.3326630">
    <ele>20.4</ele>
    <time>2026-09-17T08:38:31Z</time>
   </trkpt>
   <trkpt lat="22.7379430" lon="120.3326820">
    <ele>20.4</ele>
    <time>2026-09-17T08:38:32Z</time>
   </trkpt>
   <trkpt lat="22.7379590" lon="120.3326780">
    <ele>20.3</ele>
    <time>2026-09-17T08:38:33Z</time>
   </trkpt>
   <trkpt lat="22.7379600" lon="120.3326540">
    <ele>20.3</ele>
    <time>2026-09-17T08:38:34Z</time>
   </trkpt>
   <trkpt lat="22.7379600" lon="120.3326400">
    <ele>20.2</ele>
    <time>2026-09-17T08:38:35Z</time>
   </trkpt>
   <trkpt lat="22.7379570" lon="120.3326370">
    <ele>20.2</ele>
    <time>2026-09-17T08:38:36Z</time>
   </trkpt>
   <trkpt lat="22.7379560" lon="120.3326370">
    <ele>20.2</ele>
    <time>2026-09-17T08:38:37Z</time>
   </trkpt>
   <trkpt lat="22.7379560" lon="120.3326380">
    <ele>20.2</ele>
    <time>2026-09-17T08:38:38Z</time>
   </trkpt>
   <trkpt lat="22.7379510" lon="120.3326390">
    <ele>20.2</ele>
    <time>2026-09-17T08:38:39Z</time>
   </trkpt>
   <trkpt lat="22.7379440" lon="120.3326380">
    <ele>20.2</ele>
    <time>2026-09-17T08:38:40Z</time>
   </trkpt>
   <trkpt lat="22.7379370" lon="120.3326340">
    <ele>20.2</ele>
    <time>2026-09-17T08:38:41Z</time>
   </trkpt>
   <trkpt lat="22.7379300" lon="120.3326360">
    <ele>20.2</ele>
    <time>2026-09-17T08:38:42Z</time>
   </trkpt>
   <trkpt lat="22.7379170" lon="120.3326330">
    <ele>20.2</ele>
    <time>2026-09-17T08:38:43Z</time>
   </trkpt>
   <trkpt lat="22.7379150" lon="120.3326460">
    <ele>20.2</ele>
    <time>2026-09-17T08:38:44Z</time>
   </trkpt>
   <trkpt lat="22.7379050" lon="120.3326630">
    <ele>20.3</ele>
    <time>2026-09-17T08:38:45Z</time>
   </trkpt>
   <trkpt lat="22.7378960" lon="120.3326750">
    <ele>20.4</ele>
    <time>2026-09-17T08:38:46Z</time>
   </trkpt>
   <trkpt lat="22.7378880" lon="120.3326960">
    <ele>20.4</ele>
    <time>2026-09-17T08:38:47Z</time>
   </trkpt>
   <trkpt lat="22.7378880" lon="120.3326960">
    <ele>20.4</ele>
    <time>2026-09-17T08:38:48Z</time>
   </trkpt>
   <trkpt lat="22.7378880" lon="120.3326960">
    <ele>20.4</ele>
    <time>2026-09-17T08:38:49Z</time>
   </trkpt>
   <trkpt lat="22.7378880" lon="120.3326960">
    <ele>20.4</ele>
    <time>2026-09-17T08:38:50Z</time>
   </trkpt>
   <trkpt lat="22.7378880" lon="120.3326960">
    <ele>20.4</ele>
    <time>2026-09-17T08:38:51Z</time>
   </trkpt>
   <trkpt lat="22.7378880" lon="120.3326960">
    <ele>20.4</ele>
    <time>2026-09-17T08:38:52Z</time>
   </trkpt>
   <trkpt lat="22.7378880" lon="120.3326960">
    <ele>20.4</ele>
    <time>2026-09-17T08:38:53Z</time>
   </trkpt>
   <trkpt lat="22.7378880" lon="120.3326960">
    <ele>20.4</ele>
    <time>2026-09-17T08:38:54Z</time>
   </trkpt>
   <trkpt lat="22.7378760" lon="120.3327210">
    <ele>20.5</ele>
    <time>2026-09-17T08:38:55Z</time>
   </trkpt>
   <trkpt lat="22.7378560" lon="120.3327620">
    <ele>20.6</ele>
    <time>2026-09-17T08:38:56Z</time>
   </trkpt>
   <trkpt lat="22.7378500" lon="120.3328020">
    <ele>20.7</ele>
    <time>2026-09-17T08:38:57Z</time>
   </trkpt>
   <trkpt lat="22.7378410" lon="120.3328130">
    <ele>20.8</ele>
    <time>2026-09-17T08:38:58Z</time>
   </trkpt>
   <trkpt lat="22.7378340" lon="120.3328230">
    <ele>20.8</ele>
    <time>2026-09-17T08:38:59Z</time>
   </trkpt>
   <trkpt lat="22.7378270" lon="120.3328280">
    <ele>20.8</ele>
    <time>2026-09-17T08:39:00Z</time>
   </trkpt>
   <trkpt lat="22.7378210" lon="120.3328400">
    <ele>20.9</ele>
    <time>2026-09-17T08:39:01Z</time>
   </trkpt>
   <trkpt lat="22.7378100" lon="120.3328510">
    <ele>20.9</ele>
    <time>2026-09-17T08:39:02Z</time>
   </trkpt>
   <trkpt lat="22.7378010" lon="120.3328540">
    <ele>20.9</ele>
    <time>2026-09-17T08:39:03Z</time>
   </trkpt>
   <trkpt lat="22.7377960" lon="120.3328580">
    <ele>20.9</ele>
    <time>2026-09-17T08:39:04Z</time>
   </trkpt>
   <trkpt lat="22.7377820" lon="120.3328630">
    <ele>21.0</ele>
    <time>2026-09-17T08:39:05Z</time>
   </trkpt>
   <trkpt lat="22.7377700" lon="120.3328740">
    <ele>21.0</ele>
    <time>2026-09-17T08:39:06Z</time>
   </trkpt>
   <trkpt lat="22.7377620" lon="120.3328680">
    <ele>21.1</ele>
    <time>2026-09-17T08:39:07Z</time>
   </trkpt>
   <trkpt lat="22.7377550" lon="120.3328670">
    <ele>21.1</ele>
    <time>2026-09-17T08:39:08Z</time>
   </trkpt>
   <trkpt lat="22.7377570" lon="120.3328610">
    <ele>21.1</ele>
    <time>2026-09-17T08:39:09Z</time>
   </trkpt>
   <trkpt lat="22.7377470" lon="120.3328590">
    <ele>21.1</ele>
    <time>2026-09-17T08:39:10Z</time>
   </trkpt>
   <trkpt lat="22.7377380" lon="120.3328390">
    <ele>21.2</ele>
    <time>2026-09-17T08:39:11Z</time>
   </trkpt>
   <trkpt lat="22.7377350" lon="120.3328390">
    <ele>21.2</ele>
    <time>2026-09-17T08:39:12Z</time>
   </trkpt>
   <trkpt lat="22.7377380" lon="120.3328470">
    <ele>21.2</ele>
    <time>2026-09-17T08:39:13Z</time>
   </trkpt>
   <trkpt lat="22.7377300" lon="120.3328630">
    <ele>21.3</ele>
    <time>2026-09-17T08:39:14Z</time>
   </trkpt>
   <trkpt lat="22.7377230" lon="120.3328690">
    <ele>21.3</ele>
    <time>2026-09-17T08:39:15Z</time>
   </trkpt>
   <trkpt lat="22.7377150" lon="120.3328690">
    <ele>21.3</ele>
    <time>2026-09-17T08:39:16Z</time>
   </trkpt>
   <trkpt lat="22.7377040" lon="120.3328640">
    <ele>21.4</ele>
    <time>2026-09-17T08:39:17Z</time>
   </trkpt>
   <trkpt lat="22.7376930" lon="120.3328700">
    <ele>21.4</ele>
    <time>2026-09-17T08:39:18Z</time>
   </trkpt>
   <trkpt lat="22.7376820" lon="120.3328700">
    <ele>21.4</ele>
    <time>2026-09-17T08:39:19Z</time>
   </trkpt>
   <trkpt lat="22.7376740" lon="120.3328750">
    <ele>21.5</ele>
    <time>2026-09-17T08:39:20Z</time>
   </trkpt>
   <trkpt lat="22.7376630" lon="120.3328760">
    <ele>21.5</ele>
    <time>2026-09-17T08:39:21Z</time>
   </trkpt>
   <trkpt lat="22.7376570" lon="120.3328780">
    <ele>21.5</ele>
    <time>2026-09-17T08:39:22Z</time>
   </trkpt>
   <trkpt lat="22.7376500" lon="120.3328710">
    <ele>21.6</ele>
    <time>2026-09-17T08:39:23Z</time>
   </trkpt>
   <trkpt lat="22.7376410" lon="120.3328630">
    <ele>21.6</ele>
    <time>2026-09-17T08:39:24Z</time>
   </trkpt>
   <trkpt lat="22.7376300" lon="120.3328610">
    <ele>21.6</ele>
    <time>2026-09-17T08:39:25Z</time>
   </trkpt>
   <trkpt lat="22.7376180" lon="120.3328610">
    <ele>21.7</ele>
    <time>2026-09-17T08:39:26Z</time>
   </trkpt>
   <trkpt lat="22.7376060" lon="120.3328650">
    <ele>21.7</ele>
    <time>2026-09-17T08:39:27Z</time>
   </trkpt>
   <trkpt lat="22.7375950" lon="120.3328720">
    <ele>21.8</ele>
    <time>2026-09-17T08:39:28Z</time>
   </trkpt>
   <trkpt lat="22.7375870" lon="120.3328710">
    <ele>21.8</ele>
    <time>2026-09-17T08:39:29Z</time>
   </trkpt>
   <trkpt lat="22.7375750" lon="120.3328660">
    <ele>21.8</ele>
    <time>2026-09-17T08:39:30Z</time>
   </trkpt>
   <trkpt lat="22.7375650" lon="120.3328620">
    <ele>21.8</ele>
    <time>2026-09-17T08:39:31Z</time>
   </trkpt>
   <trkpt lat="22.7375530" lon="120.3328600">
    <ele>21.8</ele>
    <time>2026-09-17T08:39:32Z</time>
   </trkpt>
   <trkpt lat="22.7375470" lon="120.3328530">
    <ele>21.7</ele>
    <time>2026-09-17T08:39:33Z</time>
   </trkpt>
   <trkpt lat="22.7375370" lon="120.3328500">
    <ele>21.7</ele>
    <time>2026-09-17T08:39:34Z</time>
   </trkpt>
   <trkpt lat="22.7375290" lon="120.3328500">
    <ele>21.7</ele>
    <time>2026-09-17T08:39:35Z</time>
   </trkpt>
   <trkpt lat="22.7375330" lon="120.3328460">
    <ele>21.7</ele>
    <time>2026-09-17T08:39:36Z</time>
   </trkpt>
   <trkpt lat="22.7375330" lon="120.3328360">
    <ele>21.6</ele>
    <time>2026-09-17T08:39:37Z</time>
   </trkpt>
   <trkpt lat="22.7375300" lon="120.3328360">
    <ele>21.6</ele>
    <time>2026-09-17T08:39:38Z</time>
   </trkpt>
   <trkpt lat="22.7375330" lon="120.3328430">
    <ele>21.6</ele>
    <time>2026-09-17T08:39:39Z</time>
   </trkpt>
   <trkpt lat="22.7375330" lon="120.3328690">
    <ele>21.5</ele>
    <time>2026-09-17T08:39:40Z</time>
   </trkpt>
   <trkpt lat="22.7375200" lon="120.3328800">
    <ele>21.5</ele>
    <time>2026-09-17T08:39:41Z</time>
   </trkpt>
   <trkpt lat="22.7375040" lon="120.3328890">
    <ele>21.4</ele>
    <time>2026-09-17T08:39:42Z</time>
   </trkpt>
   <trkpt lat="22.7374960" lon="120.3328940">
    <ele>21.4</ele>
    <time>2026-09-17T08:39:43Z</time>
   </trkpt>
   <trkpt lat="22.7374890" lon="120.3328940">
    <ele>21.3</ele>
    <time>2026-09-17T08:39:44Z</time>
   </trkpt>
   <trkpt lat="22.7374730" lon="120.3328890">
    <ele>21.3</ele>
    <time>2026-09-17T08:39:45Z</time>
   </trkpt>
   <trkpt lat="22.7374620" lon="120.3328800">
    <ele>21.2</ele>
    <time>2026-09-17T08:39:46Z</time>
   </trkpt>
   <trkpt lat="22.7374490" lon="120.3328770">
    <ele>21.2</ele>
    <time>2026-09-17T08:39:47Z</time>
   </trkpt>
   <trkpt lat="22.7374410" lon="120.3328690">
    <ele>21.2</ele>
    <time>2026-09-17T08:39:48Z</time>
   </trkpt>
   <trkpt lat="22.7374350" lon="120.3328760">
    <ele>21.1</ele>
    <time>2026-09-17T08:39:49Z</time>
   </trkpt>
   <trkpt lat="22.7374230" lon="120.3328910">
    <ele>21.1</ele>
    <time>2026-09-17T08:39:50Z</time>
   </trkpt>
   <trkpt lat="22.7374140" lon="120.3329030">
    <ele>21.0</ele>
    <time>2026-09-17T08:39:51Z</time>
   </trkpt>
   <trkpt lat="22.7374100" lon="120.3329000">
    <ele>21.0</ele>
    <time>2026-09-17T08:39:52Z</time>
   </trkpt>
   <trkpt lat="22.7373990" lon="120.3329040">
    <ele>20.9</ele>
    <time>2026-09-17T08:39:53Z</time>
   </trkpt>
   <trkpt lat="22.7373850" lon="120.3329020">
    <ele>20.9</ele>
    <time>2026-09-17T08:39:54Z</time>
   </trkpt>
   <trkpt lat="22.7373800" lon="120.3329080">
    <ele>20.9</ele>
    <time>2026-09-17T08:39:55Z</time>
   </trkpt>
   <trkpt lat="22.7373720" lon="120.3329080">
    <ele>20.8</ele>
    <time>2026-09-17T08:39:56Z</time>
   </trkpt>
   <trkpt lat="22.7373650" lon="120.3329090">
    <ele>20.8</ele>
    <time>2026-09-17T08:39:57Z</time>
   </trkpt>
   <trkpt lat="22.7373560" lon="120.3329150">
    <ele>20.8</ele>
    <time>2026-09-17T08:39:58Z</time>
   </trkpt>
   <trkpt lat="22.7373580" lon="120.3329160">
    <ele>20.8</ele>
    <time>2026-09-17T08:39:59Z</time>
   </trkpt>
   <trkpt lat="22.7373610" lon="120.3329030">
    <ele>20.8</ele>
    <time>2026-09-17T08:40:00Z</time>
   </trkpt>
   <trkpt lat="22.7373650" lon="120.3328850">
    <ele>20.9</ele>
    <time>2026-09-17T08:40:01Z</time>
   </trkpt>
   <trkpt lat="22.7373720" lon="120.3328760">
    <ele>20.9</ele>
    <time>2026-09-17T08:40:02Z</time>
   </trkpt>
   <trkpt lat="22.7373770" lon="120.3328700">
    <ele>20.9</ele>
    <time>2026-09-17T08:40:03Z</time>
   </trkpt>
   <trkpt lat="22.7373870" lon="120.3328600">
    <ele>21.0</ele>
    <time>2026-09-17T08:40:04Z</time>
   </trkpt>
   <trkpt lat="22.7373950" lon="120.3328600">
    <ele>21.0</ele>
    <time>2026-09-17T08:40:05Z</time>
   </trkpt>
   <trkpt lat="22.7373950" lon="120.3328660">
    <ele>21.0</ele>
    <time>2026-09-17T08:40:06Z</time>
   </trkpt>
   <trkpt lat="22.7374010" lon="120.3328820">
    <ele>21.1</ele>
    <time>2026-09-17T08:40:07Z</time>
   </trkpt>
   <trkpt lat="22.7374060" lon="120.3328940">
    <ele>21.1</ele>
    <time>2026-09-17T08:40:08Z</time>
   </trkpt>
   <trkpt lat="22.7374120" lon="120.3329160">
    <ele>21.2</ele>
    <time>2026-09-17T08:40:09Z</time>
   </trkpt>
   <trkpt lat="22.7374130" lon="120.3329180">
    <ele>21.2</ele>
    <time>2026-09-17T08:40:10Z</time>
   </trkpt>
   <trkpt lat="22.7374210" lon="120.3329240">
    <ele>21.2</ele>
    <time>2026-09-17T08:40:11Z</time>
   </trkpt>
   <trkpt lat="22.7374420" lon="120.3329320">
    <ele>21.3</ele>
    <time>2026-09-17T08:40:12Z</time>
   </trkpt>
   <trkpt lat="22.7374540" lon="120.3329380">
    <ele>21.3</ele>
    <time>2026-09-17T08:40:13Z</time>
   </trkpt>
   <trkpt lat="22.7374720" lon="120.3329330">
    <ele>21.4</ele>
    <time>2026-09-17T08:40:14Z</time>
   </trkpt>
   <trkpt lat="22.7374840" lon="120.3329280">
    <ele>21.4</ele>
    <time>2026-09-17T08:40:15Z</time>
   </trkpt>
   <trkpt lat="22.7374920" lon="120.3329250">
    <ele>21.4</ele>
    <time>2026-09-17T08:40:16Z</time>
   </trkpt>
   <trkpt lat="22.7375120" lon="120.3329200">
    <ele>21.5</ele>
    <time>2026-09-17T08:40:17Z</time>
   </trkpt>
   <trkpt lat="22.7375230" lon="120.3329210">
    <ele>21.5</ele>
    <time>2026-09-17T08:40:18Z</time>
   </trkpt>
   <trkpt lat="22.7375260" lon="120.3329170">
    <ele>21.6</ele>
    <time>2026-09-17T08:40:19Z</time>
   </trkpt>
   <trkpt lat="22.7375410" lon="120.3329160">
    <ele>21.6</ele>
    <time>2026-09-17T08:40:20Z</time>
   </trkpt>
   <trkpt lat="22.7375490" lon="120.3329180">
    <ele>21.6</ele>
    <time>2026-09-17T08:40:21Z</time>
   </trkpt>
   <trkpt lat="22.7375590" lon="120.3329170">
    <ele>21.7</ele>
    <time>2026-09-17T08:40:22Z</time>
   </trkpt>
   <trkpt lat="22.7375640" lon="120.3329180">
    <ele>21.7</ele>
    <time>2026-09-17T08:40:23Z</time>
   </trkpt>
   <trkpt lat="22.7375660" lon="120.3329200">
    <ele>21.7</ele>
    <time>2026-09-17T08:40:24Z</time>
   </trkpt>
   <trkpt lat="22.7375740" lon="120.3329230">
    <ele>21.7</ele>
    <time>2026-09-17T08:40:25Z</time>
   </trkpt>
   <trkpt lat="22.7375760" lon="120.3329240">
    <ele>21.7</ele>
    <time>2026-09-17T08:40:26Z</time>
   </trkpt>
   <trkpt lat="22.7375860" lon="120.3329180">
    <ele>21.8</ele>
    <time>2026-09-17T08:40:27Z</time>
   </trkpt>
   <trkpt lat="22.7375870" lon="120.3329160">
    <ele>21.8</ele>
    <time>2026-09-17T08:40:28Z</time>
   </trkpt>
   <trkpt lat="22.7375940" lon="120.3329210">
    <ele>21.8</ele>
    <time>2026-09-17T08:40:29Z</time>
   </trkpt>
   <trkpt lat="22.7376130" lon="120.3329220">
    <ele>21.8</ele>
    <time>2026-09-17T08:40:30Z</time>
   </trkpt>
   <trkpt lat="22.7376190" lon="120.3329350">
    <ele>21.8</ele>
    <time>2026-09-17T08:40:31Z</time>
   </trkpt>
   <trkpt lat="22.7376270" lon="120.3329450">
    <ele>21.8</ele>
    <time>2026-09-17T08:40:32Z</time>
   </trkpt>
   <trkpt lat="22.7376300" lon="120.3329520">
    <ele>21.8</ele>
    <time>2026-09-17T08:40:33Z</time>
   </trkpt>
   <trkpt lat="22.7376320" lon="120.3329600">
    <ele>21.9</ele>
    <time>2026-09-17T08:40:34Z</time>
   </trkpt>
   <trkpt lat="22.7376380" lon="120.3329730">
    <ele>21.9</ele>
    <time>2026-09-17T08:40:35Z</time>
   </trkpt>
   <trkpt lat="22.7376390" lon="120.3329750">
    <ele>21.9</ele>
    <time>2026-09-17T08:40:36Z</time>
   </trkpt>
   <trkpt lat="22.7376390" lon="120.3329750">
    <ele>21.9</ele>
    <time>2026-09-17T08:40:37Z</time>
   </trkpt>
   <trkpt lat="22.7376450" lon="120.3329840">
    <ele>21.9</ele>
    <time>2026-09-17T08:40:38Z</time>
   </trkpt>
   <trkpt lat="22.7376500" lon="120.3329970">
    <ele>21.9</ele>
    <time>2026-09-17T08:40:39Z</time>
   </trkpt>
   <trkpt lat="22.7376550" lon="120.3330130">
    <ele>21.9</ele>
    <time>2026-09-17T08:40:40Z</time>
   </trkpt>
   <trkpt lat="22.7376620" lon="120.3330260">
    <ele>21.9</ele>
    <time>2026-09-17T08:40:41Z</time>
   </trkpt>
   <trkpt lat="22.7376660" lon="120.3330440">
    <ele>21.9</ele>
    <time>2026-09-17T08:40:42Z</time>
   </trkpt>
   <trkpt lat="22.7376730" lon="120.3330580">
    <ele>21.9</ele>
    <time>2026-09-17T08:40:43Z</time>
   </trkpt>
   <trkpt lat="22.7376760" lon="120.3330750">
    <ele>21.9</ele>
    <time>2026-09-17T08:40:44Z</time>
   </trkpt>
   <trkpt lat="22.7376710" lon="120.3330990">
    <ele>21.9</ele>
    <time>2026-09-17T08:40:45Z</time>
   </trkpt>
   <trkpt lat="22.7376730" lon="120.3331150">
    <ele>21.9</ele>
    <time>2026-09-17T08:40:46Z</time>
   </trkpt>
   <trkpt lat="22.7376730" lon="120.3331250">
    <ele>21.9</ele>
    <time>2026-09-17T08:40:47Z</time>
   </trkpt>
   <trkpt lat="22.7376740" lon="120.3331290">
    <ele>21.9</ele>
    <time>2026-09-17T08:40:48Z</time>
   </trkpt>
   <trkpt lat="22.7376830" lon="120.3331400">
    <ele>21.9</ele>
    <time>2026-09-17T08:40:49Z</time>
   </trkpt>
   <trkpt lat="22.7376840" lon="120.3331430">
    <ele>21.9</ele>
    <time>2026-09-17T08:40:50Z</time>
   </trkpt>
   <trkpt lat="22.7376830" lon="120.3331500">
    <ele>21.9</ele>
    <time>2026-09-17T08:40:51Z</time>
   </trkpt>
   <trkpt lat="22.7376940" lon="120.3331630">
    <ele>21.9</ele>
    <time>2026-09-17T08:40:52Z</time>
   </trkpt>
   <trkpt lat="22.7376990" lon="120.3331710">
    <ele>21.9</ele>
    <time>2026-09-17T08:40:53Z</time>
   </trkpt>
   <trkpt lat="22.7377040" lon="120.3331920">
    <ele>21.9</ele>
    <time>2026-09-17T08:40:54Z</time>
   </trkpt>
   <trkpt lat="22.7377040" lon="120.3332030">
    <ele>21.9</ele>
    <time>2026-09-17T08:40:55Z</time>
   </trkpt>
   <trkpt lat="22.7377070" lon="120.3331990">
    <ele>21.9</ele>
    <time>2026-09-17T08:40:56Z</time>
   </trkpt>
   <trkpt lat="22.7377070" lon="120.3332110">
    <ele>21.9</ele>
    <time>2026-09-17T08:40:57Z</time>
   </trkpt>
   <trkpt lat="22.7377150" lon="120.3332260">
    <ele>21.9</ele>
    <time>2026-09-17T08:40:58Z</time>
   </trkpt>
   <trkpt lat="22.7377180" lon="120.3332390">
    <ele>21.9</ele>
    <time>2026-09-17T08:40:59Z</time>
   </trkpt>
   <trkpt lat="22.7377200" lon="120.3332390">
    <ele>21.9</ele>
    <time>2026-09-17T08:41:00Z</time>
   </trkpt>
   <trkpt lat="22.7377220" lon="120.3332420">
    <ele>21.9</ele>
    <time>2026-09-17T08:41:01Z</time>
   </trkpt>
   <trkpt lat="22.7377290" lon="120.3332650">
    <ele>21.9</ele>
    <time>2026-09-17T08:41:02Z</time>
   </trkpt>
   <trkpt lat="22.7377270" lon="120.3332820">
    <ele>21.9</ele>
    <time>2026-09-17T08:41:03Z</time>
   </trkpt>
   <trkpt lat="22.7377230" lon="120.3332950">
    <ele>21.9</ele>
    <time>2026-09-17T08:41:04Z</time>
   </trkpt>
   <trkpt lat="22.7377240" lon="120.3332940">
    <ele>21.9</ele>
    <time>2026-09-17T08:41:05Z</time>
   </trkpt>
   <trkpt lat="22.7377250" lon="120.3333100">
    <ele>21.9</ele>
    <time>2026-09-17T08:41:06Z</time>
   </trkpt>
   <trkpt lat="22.7377270" lon="120.3333210">
    <ele>21.9</ele>
    <time>2026-09-17T08:41:07Z</time>
   </trkpt>
   <trkpt lat="22.7377320" lon="120.3333400">
    <ele>21.9</ele>
    <time>2026-09-17T08:41:08Z</time>
   </trkpt>
   <trkpt lat="22.7377390" lon="120.3333480">
    <ele>21.9</ele>
    <time>2026-09-17T08:41:09Z</time>
   </trkpt>
   <trkpt lat="22.7377410" lon="120.3333590">
    <ele>21.9</ele>
    <time>2026-09-17T08:41:10Z</time>
   </trkpt>
   <trkpt lat="22.7377420" lon="120.3333720">
    <ele>21.9</ele>
    <time>2026-09-17T08:41:11Z</time>
   </trkpt>
   <trkpt lat="22.7377480" lon="120.3333840">
    <ele>21.9</ele>
    <time>2026-09-17T08:41:12Z</time>
   </trkpt>
   <trkpt lat="22.7377530" lon="120.3333940">
    <ele>21.8</ele>
    <time>2026-09-17T08:41:13Z</time>
   </trkpt>
   <trkpt lat="22.7377620" lon="120.3334010">
    <ele>21.8</ele>
    <time>2026-09-17T08:41:14Z</time>
   </trkpt>
   <trkpt lat="22.7377660" lon="120.3334080">
    <ele>21.7</ele>
    <time>2026-09-17T08:41:15Z</time>
   </trkpt>
   <trkpt lat="22.7377670" lon="120.3334260">
    <ele>21.6</ele>
    <time>2026-09-17T08:41:16Z</time>
   </trkpt>
   <trkpt lat="22.7377720" lon="120.3334420">
    <ele>21.6</ele>
    <time>2026-09-17T08:41:17Z</time>
   </trkpt>
   <trkpt lat="22.7377530" lon="120.3334570">
    <ele>21.4</ele>
    <time>2026-09-17T08:41:18Z</time>
   </trkpt>
   <trkpt lat="22.7377480" lon="120.3334640">
    <ele>21.4</ele>
    <time>2026-09-17T08:41:19Z</time>
   </trkpt>
   <trkpt lat="22.7377510" lon="120.3334800">
    <ele>21.3</ele>
    <time>2026-09-17T08:41:20Z</time>
   </trkpt>
   <trkpt lat="22.7377530" lon="120.3334920">
    <ele>21.2</ele>
    <time>2026-09-17T08:41:21Z</time>
   </trkpt>
   <trkpt lat="22.7377540" lon="120.3335080">
    <ele>21.2</ele>
    <time>2026-09-17T08:41:22Z</time>
   </trkpt>
   <trkpt lat="22.7377500" lon="120.3335200">
    <ele>21.1</ele>
    <time>2026-09-17T08:41:23Z</time>
   </trkpt>
   <trkpt lat="22.7377460" lon="120.3335350">
    <ele>21.0</ele>
    <time>2026-09-17T08:41:24Z</time>
   </trkpt>
   <trkpt lat="22.7377530" lon="120.3335500">
    <ele>20.9</ele>
    <time>2026-09-17T08:41:25Z</time>
   </trkpt>
   <trkpt lat="22.7377710" lon="120.3335620">
    <ele>20.8</ele>
    <time>2026-09-17T08:41:26Z</time>
   </trkpt>
   <trkpt lat="22.7377720" lon="120.3335690">
    <ele>20.8</ele>
    <time>2026-09-17T08:41:27Z</time>
   </trkpt>
   <trkpt lat="22.7377710" lon="120.3335800">
    <ele>20.7</ele>
    <time>2026-09-17T08:41:28Z</time>
   </trkpt>
   <trkpt lat="22.7377780" lon="120.3335940">
    <ele>20.7</ele>
    <time>2026-09-17T08:41:29Z</time>
   </trkpt>
  </trkseg>
 </trk>
</gpx>
