<?xml version="1.0" encoding="UTF-8"?>
<gpx creator="StravaGPX" version="1.1" xmlns="http://www.topografix.com/GPX/1/1" xmlns:xsi="http://www.w3.org/2001/XMLSchema-instance" xsi:schemaLocation="http://www.topografix.com/GPX/1/1 http://www.topografix.com/GPX/1/1/gpx.xsd">
 <metadata>
  <time>2026-09-17T08:42:29Z</time>
 </metadata>
 <trk>
  <name>午後電動自行車騎乘</name>
  <type>ebikeride</type>
  <trkseg>
   <trkpt lat="22.7377120" lon="120.3335630">
    <ele>20.8</ele>
    <time>2026-09-17T08:42:29Z</time>
   </trkpt>
   <trkpt lat="22.7377120" lon="120.3335630">
    <ele>20.8</ele>
    <time>2026-09-17T08:42:30Z</time>
   </trkpt>
   <trkpt lat="22.7377140" lon="120.3335640">
    <ele>20.8</ele>
    <time>2026-09-17T08:42:31Z</time>
   </trkpt>
   <trkpt lat="22.7377180" lon="120.3335680">
    <ele>20.8</ele>
    <time>2026-09-17T08:42:32Z</time>
   </trkpt>
   <trkpt lat="22.7377220" lon="120.3335660">
    <ele>20.8</ele>
    <time>2026-09-17T08:42:33Z</time>
   </trkpt>
   <trkpt lat="22.7377260" lon="120.3335610">
    <ele>20.9</ele>
    <time>2026-09-17T08:42:34Z</time>
   </trkpt>
   <trkpt lat="22.7377310" lon="120.3335380">
    <ele>21.0</ele>
    <time>2026-09-17T08:42:35Z</time>
   </trkpt>
   <trkpt lat="22.7377420" lon="120.3335070">
    <ele>21.2</ele>
    <time>2026-09-17T08:42:36Z</time>
   </trkpt>
   <trkpt lat="22.7377500" lon="120.3334330">
    <ele>21.6</ele>
    <time>2026-09-17T08:42:37Z</time>
   </trkpt>
   <trkpt lat="22.7377540" lon="120.3333540">
    <ele>21.9</ele>
    <time>2026-09-17T08:42:38Z</time>
   </trkpt>
   <trkpt lat="22.7377410" lon="120.3332790">
    <ele>21.9</ele>
    <time>2026-09-17T08:42:39Z</time>
   </trkpt>
   <trkpt lat="22.7377140" lon="120.3332030">
    <ele>21.9</ele>
    <time>2026-09-17T08:42:40Z</time>
   </trkpt>
   <trkpt lat="22.7376900" lon="120.3331300">
    <ele>21.9</ele>
    <time>2026-09-17T08:42:41Z</time>
   </trkpt>
   <trkpt lat="22.7376640" lon="120.3330600">
    <ele>21.9</ele>
    <time>2026-09-17T08:42:42Z</time>
   </trkpt>
   <trkpt lat="22.7376370" lon="120.3330010">
    <ele>21.9</ele>
    <time>2026-09-17T08:42:43Z</time>
   </trkpt>
   <trkpt lat="22.7376270" lon="120.3329480">
    <ele>21.9</ele>
    <time>2026-09-17T08:42:44Z</time>
   </trkpt>
   <trkpt lat="22.7376300" lon="120.3329080">
    <ele>21.9</ele>
    <time>2026-09-17T08:42:45Z</time>
   </trkpt>
   <trkpt lat="22.7376530" lon="120.3328760">
    <ele>21.7</ele>
    <time>2026-09-17T08:42:46Z</time>
   </trkpt>
   <trkpt lat="22.7376680" lon="120.3328450">
    <ele>21.6</ele>
    <time>2026-09-17T08:42:47Z</time>
   </trkpt>
   <trkpt lat="22.7376980" lon="120.3328270">
    <ele>21.4</ele>
    <time>2026-09-17T08:42:48Z</time>
   </trkpt>
   <trkpt lat="22.7377360" lon="120.3328140">
    <ele>21.2</ele>
    <time>2026-09-17T08:42:49Z</time>
   </trkpt>
   <trkpt lat="22.7377770" lon="120.3327980">
    <ele>21.0</ele>
    <time>2026-09-17T08:42:50Z</time>
   </trkpt>
   <trkpt lat="22.7378260" lon="120.3327770">
    <ele>20.8</ele>
    <time>2026-09-17T08:42:51Z</time>
   </trkpt>
   <trkpt lat="22.7378800" lon="120.3327550">
    <ele>20.6</ele>
    <time>2026-09-17T08:42:52Z</time>
   </trkpt>
   <trkpt lat="22.7379310" lon="120.3327290">
    <ele>20.3</ele>
    <time>2026-09-17T08:42:53Z</time>
   </trkpt>
   <trkpt lat="22.7379850" lon="120.3327040">
    <ele>20.0</ele>
    <time>2026-09-17T08:42:54Z</time>
   </trkpt>
   <trkpt lat="22.7380350" lon="120.3326840">
    <ele>19.7</ele>
    <time>2026-09-17T08:42:55Z</time>
   </trkpt>
   <trkpt lat="22.7380830" lon="120.3326740">
    <ele>19.4</ele>
    <time>2026-09-17T08:42:56Z</time>
   </trkpt>
   <trkpt lat="22.7381280" lon="120.3326680">
    <ele>19.3</ele>
    <time>2026-09-17T08:42:57Z</time>
   </trkpt>
   <trkpt lat="22.7381750" lon="120.3326690">
    <ele>19.3</ele>
    <time>2026-09-17T08:42:58Z</time>
   </trkpt>
   <trkpt lat="22.7382180" lon="120.3326730">
    <ele>19.3</ele>
    <time>2026-09-17T08:42:59Z</time>
   </trkpt>
   <trkpt lat="22.7382560" lon="120.3326780">
    <ele>19.3</ele>
    <time>2026-09-17T08:43:00Z</time>
   </trkpt>
   <trkpt lat="22.7382950" lon="120.3326780">
    <ele>19.3</ele>
    <time>2026-09-17T08:43:01Z</time>
   </trkpt>
   <trkpt lat="22.7383310" lon="120.3326790">
    <ele>19.3</ele>
    <time>2026-09-17T08:43:02Z</time>
   </trkpt>
   <trkpt lat="22.7383700" lon="120.3326840">
    <ele>19.3</ele>
    <time>2026-09-17T08:43:03Z</time>
   </trkpt>
   <trkpt lat="22.7384110" lon="120.3326930">
    <ele>19.3</ele>
    <time>2026-09-17T08:43:04Z</time>
   </trkpt>
   <trkpt lat="22.7384550" lon="120.3326900">
    <ele>19.3</ele>
    <time>2026-09-17T08:43:05Z</time>
   </trkpt>
   <trkpt lat="22.7385000" lon="120.3326960">
    <ele>19.3</ele>
    <time>2026-09-17T08:43:06Z</time>
   </trkpt>
   <trkpt lat="22.7385500" lon="120.3327010">
    <ele>19.3</ele>
    <time>2026-09-17T08:43:07Z</time>
   </trkpt>
   <trkpt lat="22.7385970" lon="120.3327080">
    <ele>19.3</ele>
    <time>2026-09-17T08:43:08Z</time>
   </trkpt>
   <trkpt lat="22.7386470" lon="120.3327140">
    <ele>19.3</ele>
    <time>2026-09-17T08:43:09Z</time>
   </trkpt>
   <trkpt lat="22.7386950" lon="120.3327220">
    <ele>19.2</ele>
    <time>2026-09-17T08:43:10Z</time>
   </trkpt>
   <trkpt lat="22.7387420" lon="120.3327270">
    <ele>19.2</ele>
    <time>2026-09-17T08:43:11Z</time>
   </trkpt>
   <trkpt lat="22.7387840" lon="120.3327320">
    <ele>19.2</ele>
    <time>2026-09-17T08:43:12Z</time>
   </trkpt>
   <trkpt lat="22.7388260" lon="120.3327360">
    <ele>19.1</ele>
    <time>2026-09-17T08:43:13Z</time>
   </trkpt>
   <trkpt lat="22.7388670" lon="120.3327450">
    <ele>19.1</ele>
    <time>2026-09-17T08:43:14Z</time>
   </trkpt>
   <trkpt lat="22.7389050" lon="120.3327600">
    <ele>19.1</ele>
    <time>2026-09-17T08:43:15Z</time>
   </trkpt>
   <trkpt lat="22.7389410" lon="120.3327770">
    <ele>19.1</ele>
    <time>2026-09-17T08:43:16Z</time>
   </trkpt>
   <trkpt lat="22.7389680" lon="120.3328110">
    <ele>19.0</ele>
    <time>2026-09-17T08:43:17Z</time>
   </trkpt>
   <trkpt lat="22.7389780" lon="120.3328520">
    <ele>19.0</ele>
    <time>2026-09-17T08:43:18Z</time>
   </trkpt>
   <trkpt lat="22.7389810" lon="120.3328980">
    <ele>19.0</ele>
    <time>2026-09-17T08:43:19Z</time>
   </trkpt>
   <trkpt lat="22.7389730" lon="120.3329470">
    <ele>18.9</ele>
    <time>2026-09-17T08:43:20Z</time>
   </trkpt>
   <trkpt lat="22.7389640" lon="120.3330030">
    <ele>18.9</ele>
    <time>2026-09-17T08:43:21Z</time>
   </trkpt>
   <trkpt lat="22.7389550" lon="120.3330630">
    <ele>18.9</ele>
    <time>2026-09-17T08:43:22Z</time>
   </trkpt>
   <trkpt lat="22.7389430" lon="120.3331250">
    <ele>18.9</ele>
    <time>2026-09-17T08:43:23Z</time>
   </trkpt>
   <trkpt lat="22.7389350" lon="120.3331870">
    <ele>18.9</ele>
    <time>2026-09-17T08:43:24Z</time>
   </trkpt>
   <trkpt lat="22.7389260" lon="120.3332480">
    <ele>18.9</ele>
    <time>2026-09-17T08:43:25Z</time>
   </trkpt>
   <trkpt lat="22.7389210" lon="120.3333090">
    <ele>18.9</ele>
    <time>2026-09-17T08:43:26Z</time>
   </trkpt>
   <trkpt lat="22.7389140" lon="120.3333640">
    <ele>18.8</ele>
    <time>2026-09-17T08:43:27Z</time>
   </trkpt>
   <trkpt lat="22.7389060" lon="120.3334210">
    <ele>18.8</ele>
    <time>2026-09-17T08:43:28Z</time>
   </trkpt>
   <trkpt lat="22.7389000" lon="120.3334760">
    <ele>18.8</ele>
    <time>2026-09-17T08:43:29Z</time>
   </trkpt>
   <trkpt lat="22.7389000" lon="120.3335410">
    <ele>18.7</ele>
    <time>2026-09-17T08:43:30Z</time>
   </trkpt>
   <trkpt lat="22.7388980" lon="120.3336090">
    <ele>18.7</ele>
    <time>2026-09-17T08:43:31Z</time>
   </trkpt>
   <trkpt lat="22.7388900" lon="120.3336750">
    <ele>18.7</ele>
    <time>2026-09-17T08:43:32Z</time>
   </trkpt>
   <trkpt lat="22.7388830" lon="120.3337400">
    <ele>18.6</ele>
    <time>2026-09-17T08:43:33Z</time>
   </trkpt>
   <trkpt lat="22.7388790" lon="120.3338000">
    <ele>18.6</ele>
    <time>2026-09-17T08:43:34Z</time>
   </trkpt>
   <trkpt lat="22.7388740" lon="120.3338600">
    <ele>18.6</ele>
    <time>2026-09-17T08:43:35Z</time>
   </trkpt>
   <trkpt lat="22.7388670" lon="120.3339140">
    <ele>18.6</ele>
    <time>2026-09-17T08:43:36Z</time>
   </trkpt>
   <trkpt lat="22.7388610" lon="120.3339570">
    <ele>18.7</ele>
    <time>2026-09-17T08:43:37Z</time>
   </trkpt>
   <trkpt lat="22.7388580" lon="120.3339850">
    <ele>18.7</ele>
    <time>2026-09-17T08:43:38Z</time>
   </trkpt>
   <trkpt lat="22.7388590" lon="120.3340040">
    <ele>18.7</ele>
    <time>2026-09-17T08:43:39Z</time>
   </trkpt>
   <trkpt lat="22.7388600" lon="120.3340210">
    <ele>18.7</ele>
    <time>2026-09-17T08:43:40Z</time>
   </trkpt>
   <trkpt lat="22.7388670" lon="120.3340400">
    <ele>18.8</ele>
    <time>2026-09-17T08:43:41Z</time>
   </trkpt>
   <trkpt lat="22.7388910" lon="120.3340620">
    <ele>18.7</ele>
    <time>2026-09-17T08:43:42Z</time>
   </trkpt>
   <trkpt lat="22.7389410" lon="120.3340700">
    <ele>18.7</ele>
    <time>2026-09-17T08:43:43Z</time>
   </trkpt>
   <trkpt lat="22.7389930" lon="120.3340590">
    <ele>18.7</ele>
    <time>2026-09-17T08:43:44Z</time>
   </trkpt>
   <trkpt lat="22.7390380" lon="120.3340620">
    <ele>18.7</ele>
    <time>2026-09-17T08:43:45Z</time>
   </trkpt>
   <trkpt lat="22.7390900" lon="120.3340710">
    <ele>18.7</ele>
    <time>2026-09-17T08:43:46Z</time>
   </trkpt>
   <trkpt lat="22.7391430" lon="120.3340770">
    <ele>18.8</ele>
    <time>2026-09-17T08:43:47Z</time>
   </trkpt>
   <trkpt lat="22.7392030" lon="120.3340840">
    <ele>18.9</ele>
    <time>2026-09-17T08:43:48Z</time>
   </trkpt>
   <trkpt lat="22.7392660" lon="120.3340910">
    <ele>18.9</ele>
    <time>2026-09-17T08:43:49Z</time>
   </trkpt>
   <trkpt lat="22.7393330" lon="120.3340990">
    <ele>19.0</ele>
    <time>2026-09-17T08:43:50Z</time>
   </trkpt>
   <trkpt lat="22.7393960" lon="120.3341050">
    <ele>19.0</ele>
    <time>2026-09-17T08:43:51Z</time>
   </trkpt>
   <trkpt lat="22.7394560" lon="120.3341110">
    <ele>19.0</ele>
    <time>2026-09-17T08:43:52Z</time>
   </trkpt>
   <trkpt lat="22.7395150" lon="120.3341180">
    <ele>19.1</ele>
    <time>2026-09-17T08:43:53Z</time>
   </trkpt>
   <trkpt lat="22.7395670" lon="120.3341240">
    <ele>19.1</ele>
    <time>2026-09-17T08:43:54Z</time>
   </trkpt>
   <trkpt lat="22.7396100" lon="120.3341340">
    <ele>19.1</ele>
    <time>2026-09-17T08:43:55Z</time>
   </trkpt>
   <trkpt lat="22.7396400" lon="120.3341380">
    <ele>19.1</ele>
    <time>2026-09-17T08:43:56Z</time>
   </trkpt>
   <trkpt lat="22.7396560" lon="120.3341400">
    <ele>19.1</ele>
    <time>2026-09-17T08:43:57Z</time>
   </trkpt>
   <trkpt lat="22.7396640" lon="120.3341420">
    <ele>19.1</ele>
    <time>2026-09-17T08:43:58Z</time>
   </trkpt>
   <trkpt lat="22.7396670" lon="120.3341410">
    <ele>19.1</ele>
    <time>2026-09-17T08:43:59Z</time>
   </trkpt>
   <trkpt lat="22.7396650" lon="120.3341400">
    <ele>19.1</ele>
    <time>2026-09-17T08:44:00Z</time>
   </trkpt>
   <trkpt lat="22.7396650" lon="120.3341400">
    <ele>19.1</ele>
    <time>2026-09-17T08:44:01Z</time>
   </trkpt>
   <trkpt lat="22.7396650" lon="120.3341400">
    <ele>19.1</ele>
    <time>2026-09-17T08:44:02Z</time>
   </trkpt>
   <trkpt lat="22.7396900" lon="120.3341380">
    <ele>19.1</ele>
    <time>2026-09-17T08:44:03Z</time>
   </trkpt>
   <trkpt lat="22.7397190" lon="120.3341430">
    <ele>19.1</ele>
    <time>2026-09-17T08:44:04Z</time>
   </trkpt>
   <trkpt lat="22.7397610" lon="120.3341480">
    <ele>19.1</ele>
    <time>2026-09-17T08:44:05Z</time>
   </trkpt>
   <trkpt lat="22.7398150" lon="120.3341530">
    <ele>19.1</ele>
    <time>2026-09-17T08:44:06Z</time>
   </trkpt>
   <trkpt lat="22.7398750" lon="120.3341590">
    <ele>19.0</ele>
    <time>2026-09-17T08:44:07Z</time>
   </trkpt>
   <trkpt lat="22.7399370" lon="120.3341650">
    <ele>19.0</ele>
    <time>2026-09-17T08:44:08Z</time>
   </trkpt>
   <trkpt lat="22.7399990" lon="120.3341750">
    <ele>18.9</ele>
    <time>2026-09-17T08:44:09Z</time>
   </trkpt>
   <trkpt lat="22.7400660" lon="120.3341830">
    <ele>18.9</ele>
    <time>2026-09-17T08:44:10Z</time>
   </trkpt>
   <trkpt lat="22.7401330" lon="120.3341950">
    <ele>18.9</ele>
    <time>2026-09-17T08:44:11Z</time>
   </trkpt>
   <trkpt lat="22.7402010" lon="120.3342000">
    <ele>18.9</ele>
    <time>2026-09-17T08:44:12Z</time>
   </trkpt>
   <trkpt lat="22.7402670" lon="120.3342100">
    <ele>18.9</ele>
    <time>2026-09-17T08:44:13Z</time>
   </trkpt>
   <trkpt lat="22.7403300" lon="120.3342320">
    <ele>18.9</ele>
    <time>2026-09-17T08:44:14Z</time>
   </trkpt>
   <trkpt lat="22.7403970" lon="120.3342390">
    <ele>19.0</ele>
    <time>2026-09-17T08:44:15Z</time>
   </trkpt>
   <trkpt lat="22.7404610" lon="120.3342460">
    <ele>19.0</ele>
    <time>2026-09-17T08:44:16Z</time>
   </trkpt>
   <trkpt lat="22.7405230" lon="120.3342640">
    <ele>19.0</ele>
    <time>2026-09-17T08:44:17Z</time>
   </trkpt>
   <trkpt lat="22.7405860" lon="120.3342660">
    <ele>19.0</ele>
    <time>2026-09-17T08:44:18Z</time>
   </trkpt>
   <trkpt lat="22.7406480" lon="120.3342730">
    <ele>19.0</ele>
    <time>2026-09-17T08:44:19Z</time>
   </trkpt>
   <trkpt lat="22.7407130" lon="120.3342800">
    <ele>19.0</ele>
    <time>2026-09-17T08:44:20Z</time>
   </trkpt>
   <trkpt lat="22.7407830" lon="120.3342830">
    <ele>19.0</ele>
    <time>2026-09-17T08:44:21Z</time>
   </trkpt>
   <trkpt lat="22.7408530" lon="120.3342870">
    <ele>19.0</ele>
    <time>2026-09-17T08:44:22Z</time>
   </trkpt>
   <trkpt lat="22.7409230" lon="120.3342910">
    <ele>18.9</ele>
    <time>2026-09-17T08:44:23Z</time>
   </trkpt>
   <trkpt lat="22.7409950" lon="120.3342950">
    <ele>18.9</ele>
    <time>2026-09-17T08:44:24Z</time>
   </trkpt>
   <trkpt lat="22.7410650" lon="120.3343010">
    <ele>18.8</ele>
    <time>2026-09-17T08:44:25Z</time>
   </trkpt>
   <trkpt lat="22.7411300" lon="120.3343010">
    <ele>18.7</ele>
    <time>2026-09-17T08:44:26Z</time>
   </trkpt>
   <trkpt lat="22.7411930" lon="120.3343110">
    <ele>18.6</ele>
    <time>2026-09-17T08:44:27Z</time>
   </trkpt>
   <trkpt lat="22.7412540" lon="120.3343140">
    <ele>18.5</ele>
    <time>2026-09-17T08:44:28Z</time>
   </trkpt>
   <trkpt lat="22.7413140" lon="120.3343150">
    <ele>18.4</ele>
    <time>2026-09-17T08:44:29Z</time>
   </trkpt>
   <trkpt lat="22.7413660" lon="120.3343130">
    <ele>18.4</ele>
    <time>2026-09-17T08:44:30Z</time>
   </trkpt>
   <trkpt lat="22.7414030" lon="120.3343130">
    <ele>18.3</ele>
    <time>2026-09-17T08:44:31Z</time>
   </trkpt>
   <trkpt lat="22.7414330" lon="120.3343100">
    <ele>18.3</ele>
    <time>2026-09-17T08:44:32Z</time>
   </trkpt>
   <trkpt lat="22.7414540" lon="120.3343060">
    <ele>18.3</ele>
    <time>2026-09-17T08:44:33Z</time>
   </trkpt>
   <trkpt lat="22.7414700" lon="120.3343030">
    <ele>18.3</ele>
    <time>2026-09-17T08:44:34Z</time>
   </trkpt>
   <trkpt lat="22.7414830" lon="120.3343020">
    <ele>18.3</ele>
    <time>2026-09-17T08:44:35Z</time>
   </trkpt>
   <trkpt lat="22.7414940" lon="120.3343020">
    <ele>18.2</ele>
    <time>2026-09-17T08:44:36Z</time>
   </trkpt>
   <trkpt lat="22.7415040" lon="120.3342980">
    <ele>18.2</ele>
    <time>2026-09-17T08:44:37Z</time>
   </trkpt>
   <trkpt lat="22.7415130" lon="120.3342930">
    <ele>18.2</ele>
    <time>2026-09-17T08:44:38Z</time>
   </trkpt>
   <trkpt lat="22.7415220" lon="120.3342820">
    <ele>18.2</ele>
    <time>2026-09-17T08:44:39Z</time>
   </trkpt>
   <trkpt lat="22.7415250" lon="120.3342650">
    <ele>18.2</ele>
    <time>2026-09-17T08:44:40Z</time>
   </trkpt>
   <trkpt lat="22.7415220" lon="120.3342480">
    <ele>18.2</ele>
    <time>2026-09-17T08:44:41Z</time>
   </trkpt>
   <trkpt lat="22.7415130" lon="120.3342240">
    <ele>18.2</ele>
    <time>2026-09-17T08:44:42Z</time>
   </trkpt>
   <trkpt lat="22.7415080" lon="120.3342010">
    <ele>18.2</ele>
    <time>2026-09-17T08:44:43Z</time>
   </trkpt>
   <trkpt lat="22.7415050" lon="120.3341690">
    <ele>18.2</ele>
    <time>2026-09-17T08:44:44Z</time>
   </trkpt>
   <trkpt lat="22.7415040" lon="120.3341140">
    <ele>18.3</ele>
    <time>2026-09-17T08:44:45Z</time>
   </trkpt>
   <trkpt lat="22.7415160" lon="120.3340710">
    <ele>18.3</ele>
    <time>2026-09-17T08:44:46Z</time>
   </trkpt>
   <trkpt lat="22.7415360" lon="120.3340230">
    <ele>18.3</ele>
    <time>2026-09-17T08:44:47Z</time>
   </trkpt>
   <trkpt lat="22.7415650" lon="120.3339680">
    <ele>18.3</ele>
    <time>2026-09-17T08:44:48Z</time>
   </trkpt>
   <trkpt lat="22.7415930" lon="120.3339020">
    <ele>18.3</ele>
    <time>2026-09-17T08:44:49Z</time>
   </trkpt>
   <trkpt lat="22.7416290" lon="120.3338330">
    <ele>18.3</ele>
    <time>2026-09-17T08:44:50Z</time>
   </trkpt>
   <trkpt lat="22.7416650" lon="120.3337580">
    <ele>18.3</ele>
    <time>2026-09-17T08:44:51Z</time>
   </trkpt>
   <trkpt lat="22.7417030" lon="120.3336780">
    <ele>18.3</ele>
    <time>2026-09-17T08:44:52Z</time>
   </trkpt>
   <trkpt lat="22.7417410" lon="120.3335970">
    <ele>18.3</ele>
    <time>2026-09-17T08:44:53Z</time>
   </trkpt>
   <trkpt lat="22.7417810" lon="120.3335230">
    <ele>18.3</ele>
    <time>2026-09-17T08:44:54Z</time>
   </trkpt>
   <trkpt lat="22.7418160" lon="120.3334540">
    <ele>18.3</ele>
    <time>2026-09-17T08:44:55Z</time>
   </trkpt>
   <trkpt lat="22.7418490" lon="120.3333870">
    <ele>18.4</ele>
    <time>2026-09-17T08:44:56Z</time>
   </trkpt>
   <trkpt lat="22.7418750" lon="120.3333260">
    <ele>18.4</ele>
    <time>2026-09-17T08:44:57Z</time>
   </trkpt>
   <trkpt lat="22.7418880" lon="120.3332630">
    <ele>18.4</ele>
    <time>2026-09-17T08:44:58Z</time>
   </trkpt>
   <trkpt lat="22.7418810" lon="120.3332040">
    <ele>18.4</ele>
    <time>2026-09-17T08:44:59Z</time>
   </trkpt>
   <trkpt lat="22.7418560" lon="120.3331580">
    <ele>18.4</ele>
    <time>2026-09-17T08:45:00Z</time>
   </trkpt>
   <trkpt lat="22.7418200" lon="120.3331320">
    <ele>18.5</ele>
    <time>2026-09-17T08:45:01Z</time>
   </trkpt>
   <trkpt lat="22.7417780" lon="120.3331190">
    <ele>18.5</ele>
    <time>2026-09-17T08:45:02Z</time>
   </trkpt>
   <trkpt lat="22.7417300" lon="120.3331140">
    <ele>18.6</ele>
    <time>2026-09-17T08:45:03Z</time>
   </trkpt>
   <trkpt lat="22.7416780" lon="120.3331030">
    <ele>18.6</ele>
    <time>2026-09-17T08:45:04Z</time>
   </trkpt>
   <trkpt lat="22.7416260" lon="120.3330900">
    <ele>18.7</ele>
    <time>2026-09-17T08:45:05Z</time>
   </trkpt>
   <trkpt lat="22.7415760" lon="120.3330750">
    <ele>18.7</ele>
    <time>2026-09-17T08:45:06Z</time>
   </trkpt>
   <trkpt lat="22.7415370" lon="120.3330470">
    <ele>18.8</ele>
    <time>2026-09-17T08:45:07Z</time>
   </trkpt>
   <trkpt lat="22.7415200" lon="120.3330070">
    <ele>18.8</ele>
    <time>2026-09-17T08:45:08Z</time>
   </trkpt>
   <trkpt lat="22.7415230" lon="120.3329550">
    <ele>18.8</ele>
    <time>2026-09-17T08:45:09Z</time>
   </trkpt>
   <trkpt lat="22.7415400" lon="120.3329040">
    <ele>18.8</ele>
    <time>2026-09-17T08:45:10Z</time>
   </trkpt>
   <trkpt lat="22.7415590" lon="120.3328530">
    <ele>18.8</ele>
    <time>2026-09-17T08:45:11Z</time>
   </trkpt>
   <trkpt lat="22.7415870" lon="120.3328040">
    <ele>18.8</ele>
    <time>2026-09-17T08:45:12Z</time>
   </trkpt>
   <trkpt lat="22.7416160" lon="120.3327480">
    <ele>18.8</ele>
    <time>2026-09-17T08:45:13Z</time>
   </trkpt>
   <trkpt lat="22.7416480" lon="120.3326900">
    <ele>18.8</ele>
    <time>2026-09-17T08:45:14Z</time>
   </trkpt>
   <trkpt lat="22.7416790" lon="120.3326360">
    <ele>18.8</ele>
    <time>2026-09-17T08:45:15Z</time>
   </trkpt>
   <trkpt lat="22.7417040" lon="120.3325820">
    <ele>18.8</ele>
    <time>2026-09-17T08:45:16Z</time>
   </trkpt>
   <trkpt lat="22.7417210" lon="120.3325360">
    <ele>18.8</ele>
    <time>2026-09-17T08:45:17Z</time>
   </trkpt>
   <trkpt lat="22.7417340" lon="120.3325070">
    <ele>18.8</ele>
    <time>2026-09-17T08:45:18Z</time>
   </trkpt>
   <trkpt lat="22.7417430" lon="120.3324870">
    <ele>18.8</ele>
    <time>2026-09-17T08:45:19Z</time>
   </trkpt>
   <trkpt lat="22.7417430" lon="120.3324660">
    <ele>18.8</ele>
    <time>2026-09-17T08:45:20Z</time>
   </trkpt>
   <trkpt lat="22.7417240" lon="120.3324370">
    <ele>18.8</ele>
    <time>2026-09-17T08:45:21Z</time>
   </trkpt>
   <trkpt lat="22.7416640" lon="120.3324140">
    <ele>18.8</ele>
    <time>2026-09-17T08:45:22Z</time>
   </trkpt>
   <trkpt lat="22.7415980" lon="120.3323910">
    <ele>18.9</ele>
    <time>2026-09-17T08:45:23Z</time>
   </trkpt>
   <trkpt lat="22.7415410" lon="120.3323570">
    <ele>18.9</ele>
    <time>2026-09-17T08:45:24Z</time>
   </trkpt>
   <trkpt lat="22.7414830" lon="120.3323230">
    <ele>18.9</ele>
    <time>2026-09-17T08:45:25Z</time>
   </trkpt>
   <trkpt lat="22.7414220" lon="120.3322900">
    <ele>18.9</ele>
    <time>2026-09-17T08:45:26Z</time>
   </trkpt>
   <trkpt lat="22.7413640" lon="120.3322580">
    <ele>18.9</ele>
    <time>2026-09-17T08:45:27Z</time>
   </trkpt>
   <trkpt lat="22.7413100" lon="120.3322230">
    <ele>18.9</ele>
    <time>2026-09-17T08:45:28Z</time>
   </trkpt>
   <trkpt lat="22.7412500" lon="120.3321950">
    <ele>18.9</ele>
    <time>2026-09-17T08:45:29Z</time>
   </trkpt>
   <trkpt lat="22.7411960" lon="120.3321590">
    <ele>18.9</ele>
    <time>2026-09-17T08:45:30Z</time>
   </trkpt>
   <trkpt lat="22.7411410" lon="120.3321230">
    <ele>18.9</ele>
    <time>2026-09-17T08:45:31Z</time>
   </trkpt>
   <trkpt lat="22.7410790" lon="120.3320890">
    <ele>18.9</ele>
    <time>2026-09-17T08:45:32Z</time>
   </trkpt>
   <trkpt lat="22.7410150" lon="120.3320520">
    <ele>18.9</ele>
    <time>2026-09-17T08:45:33Z</time>
   </trkpt>
   <trkpt lat="22.7409490" lon="120.3320150">
    <ele>18.8</ele>
    <time>2026-09-17T08:45:34Z</time>
   </trkpt>
   <trkpt lat="22.7408840" lon="120.3319770">
    <ele>18.8</ele>
    <time>2026-09-17T08:45:35Z</time>
   </trkpt>
   <trkpt lat="22.7408190" lon="120.3319360">
    <ele>18.8</ele>
    <time>2026-09-17T08:45:36Z</time>
   </trkpt>
   <trkpt lat="22.7407580" lon="120.3319050">
    <ele>18.7</ele>
    <time>2026-09-17T08:45:37Z</time>
   </trkpt>
   <trkpt lat="22.7407000" lon="120.3318700">
    <ele>18.8</ele>
    <time>2026-09-17T08:45:38Z</time>
   </trkpt>
   <trkpt lat="22.7406460" lon="120.3318350">
    <ele>18.8</ele>
    <time>2026-09-17T08:45:39Z</time>
   </trkpt>
   <trkpt lat="22.7405890" lon="120.3318010">
    <ele>18.9</ele>
    <time>2026-09-17T08:45:40Z</time>
   </trkpt>
   <trkpt lat="22.7405340" lon="120.3317660">
    <ele>19.1</ele>
    <time>2026-09-17T08:45:41Z</time>
   </trkpt>
   <trkpt lat="22.7404860" lon="120.3317340">
    <ele>19.2</ele>
    <time>2026-09-17T08:45:42Z</time>
   </trkpt>
   <trkpt lat="22.7404470" lon="120.3317000">
    <ele>19.2</ele>
    <time>2026-09-17T08:45:43Z</time>
   </trkpt>
   <trkpt lat="22.7404170" lon="120.3316660">
    <ele>19.2</ele>
    <time>2026-09-17T08:45:44Z</time>
   </trkpt>
   <trkpt lat="22.7403940" lon="120.3316420">
    <ele>19.2</ele>
    <time>2026-09-17T08:45:45Z</time>
   </trkpt>
   <trkpt lat="22.7403800" lon="120.3316280">
    <ele>19.2</ele>
    <time>2026-09-17T08:45:46Z</time>
   </trkpt>
   <trkpt lat="22.7403760" lon="120.3316220">
    <ele>19.2</ele>
    <time>2026-09-17T08:45:47Z</time>
   </trkpt>
   <trkpt lat="22.7403780" lon="120.3316240">
    <ele>19.2</ele>
    <time>2026-09-17T08:45:48Z</time>
   </trkpt>
   <trkpt lat="22.7403760" lon="120.3316250">
    <ele>19.2</ele>
    <time>2026-09-17T08:45:49Z</time>
   </trkpt>
   <trkpt lat="22.7403750" lon="120.3316260">
    <ele>19.2</ele>
    <time>2026-09-17T08:45:50Z</time>
   </trkpt>
   <trkpt lat="22.7403750" lon="120.3316290">
    <ele>19.2</ele>
    <time>2026-09-17T08:45:51Z</time>
   </trkpt>
   <trkpt lat="22.7403740" lon="120.3316260">
    <ele>19.2</ele>
    <time>2026-09-17T08:45:52Z</time>
   </trkpt>
   <trkpt lat="22.7403720" lon="120.3316290">
    <ele>19.2</ele>
    <time>2026-09-17T08:45:53Z</time>
   </trkpt>
   <trkpt lat="22.7403690" lon="120.3316300">
    <ele>19.2</ele>
    <time>2026-09-17T08:45:54Z</time>
   </trkpt>
   <trkpt lat="22.7403680" lon="120.3316320">
    <ele>19.2</ele>
    <time>2026-09-17T08:45:55Z</time>
   </trkpt>
   <trkpt lat="22.7403710" lon="120.3316350">
    <ele>19.2</ele>
    <time>2026-09-17T08:45:56Z</time>
   </trkpt>
  </trkseg>
 </trk>
</gpx>
