<?xml version="1.0" encoding="UTF-8"?>
<gpx creator="StravaGPX" version="1.1" xmlns="http://www.topografix.com/GPX/1/1" xmlns:xsi="http://www.w3.org/2001/XMLSchema-instance" xsi:schemaLocation="http://www.topografix.com/GPX/1/1 http://www.topografix.com/GPX/1/1/gpx.xsd">
 <metadata>
  <time>2026-09-17T08:11:14Z</time>
 </metadata>
 <trk>
  <name>午後騎乘</name>
  <type>cycling</type>
  <trkseg>
   <trkpt lat="22.7293380" lon="120.3372080">
    <ele>25.0</ele>
    <time>2026-09-17T08:11:14Z</time>
   </trkpt>
   <trkpt lat="22.7293380" lon="120.3372080">
    <ele>25.0</ele>
    <time>2026-09-17T08:11:15Z</time>
   </trkpt>
   <trkpt lat="22.7293660" lon="120.3372260">
    <ele>24.9</ele>
    <time>2026-09-17T08:11:16Z</time>
   </trkpt>
   <trkpt lat="22.7294070" lon="120.3372380">
    <ele>24.9</ele>
    <time>2026-09-17T08:11:17Z</time>
   </trkpt>
   <trkpt lat="22.7294400" lon="120.3372220">
    <ele>24.9</ele>
    <time>2026-09-17T08:11:18Z</time>
   </trkpt>
   <trkpt lat="22.7294420" lon="120.3372540">
    <ele>24.9</ele>
    <time>2026-09-17T08:11:19Z</time>
   </trkpt>
   <trkpt lat="22.7294530" lon="120.3372700">
    <ele>24.9</ele>
    <time>2026-09-17T08:11:20Z</time>
   </trkpt>
   <trkpt lat="22.7294580" lon="120.3372970">
    <ele>24.9</ele>
    <time>2026-09-17T08:11:22Z</time>
   </trkpt>
   <trkpt lat="22.7294550" lon="120.3373200">
    <ele>24.9</ele>
    <time>2026-09-17T08:11:23Z</time>
   </trkpt>
   <trkpt lat="22.7294600" lon="120.3373280">
    <ele>24.9</ele>
    <time>2026-09-17T08:11:24Z</time>
   </trkpt>
   <trkpt lat="22.7294710" lon="120.3373410">
    <ele>24.8</ele>
    <time>2026-09-17T08:11:25Z</time>
   </trkpt>
   <trkpt lat="22.7294760" lon="120.3373510">
    <ele>24.8</ele>
    <time>2026-09-17T08:11:26Z</time>
   </trkpt>
   <trkpt lat="22.7294770" lon="120.3373480">
    <ele>24.8</ele>
    <time>2026-09-17T08:11:27Z</time>
   </trkpt>
   <trkpt lat="22.7294840" lon="120.3373550">
    <ele>24.8</ele>
    <time>2026-09-17T08:11:28Z</time>
   </trkpt>
   <trkpt lat="22.7294910" lon="120.3373650">
    <ele>24.8</ele>
    <time>2026-09-17T08:11:29Z</time>
   </trkpt>
   <trkpt lat="22.7294960" lon="120.3373730">
    <ele>24.8</ele>
    <time>2026-09-17T08:11:30Z</time>
   </trkpt>
   <trkpt lat="22.7294970" lon="120.3373730">
    <ele>24.8</ele>
    <time>2026-09-17T08:11:31Z</time>
   </trkpt>
   <trkpt lat="22.7294970" lon="120.3373740">
    <ele>24.8</ele>
    <time>2026-09-17T08:11:32Z</time>
   </trkpt>
   <trkpt lat="22.7294990" lon="120.3373740">
    <ele>24.8</ele>
    <time>2026-09-17T08:11:33Z</time>
   </trkpt>
   <trkpt lat="22.7295040" lon="120.3373710">
    <ele>24.8</ele>
    <time>2026-09-17T08:11:34Z</time>
   </trkpt>
   <trkpt lat="22.7295040" lon="120.3373760">
    <ele>24.8</ele>
    <time>2026-09-17T08:11:35Z</time>
   </trkpt>
   <trkpt lat="22.7295080" lon="120.3373830">
    <ele>24.8</ele>
    <time>2026-09-17T08:11:36Z</time>
   </trkpt>
   <trkpt lat="22.7295130" lon="120.3373910">
    <ele>24.8</ele>
    <time>2026-09-17T08:11:37Z</time>
   </trkpt>
   <trkpt lat="22.7295160" lon="120.3374000">
    <ele>24.8</ele>
    <time>2026-09-17T08:11:38Z</time>
   </trkpt>
   <trkpt lat="22.7295210" lon="120.3374050">
    <ele>24.8</ele>
    <time>2026-09-17T08:11:39Z</time>
   </trkpt>
   <trkpt lat="22.7295200" lon="120.3374090">
    <ele>24.8</ele>
    <time>2026-09-17T08:11:40Z</time>
   </trkpt>
   <trkpt lat="22.7295220" lon="120.3374150">
    <ele>24.8</ele>
    <time>2026-09-17T08:11:41Z</time>
   </trkpt>
   <trkpt lat="22.7295230" lon="120.3374190">
    <ele>24.8</ele>
    <time>2026-09-17T08:11:42Z</time>
   </trkpt>
   <trkpt lat="22.7295230" lon="120.3374160">
    <ele>24.8</ele>
    <time>2026-09-17T08:11:43Z</time>
   </trkpt>
   <trkpt lat="22.7295230" lon="120.3374190">
    <ele>24.8</ele>
    <time>2026-09-17T08:11:44Z</time>
   </trkpt>
   <trkpt lat="22.7295220" lon="120.3374210">
    <ele>24.8</ele>
    <time>2026-09-17T08:11:45Z</time>
   </trkpt>
   <trkpt lat="22.7295200" lon="120.3374220">
    <ele>24.8</ele>
    <time>2026-09-17T08:11:46Z</time>
   </trkpt>
   <trkpt lat="22.7295200" lon="120.3374220">
    <ele>24.8</ele>
    <time>2026-09-17T08:11:47Z</time>
   </trkpt>
   <trkpt lat="22.7295410" lon="120.3374220">
    <ele>24.8</ele>
    <time>2026-09-17T08:11:48Z</time>
   </trkpt>
   <trkpt lat="22.7294940" lon="120.3374390">
    <ele>24.7</ele>
    <time>2026-09-17T08:12:16Z</time>
   </trkpt>
   <trkpt lat="22.7294890" lon="120.3374290">
    <ele>24.7</ele>
    <time>2026-09-17T08:12:17Z</time>
   </trkpt>
   <trkpt lat="22.7294920" lon="120.3374240">
    <ele>24.7</ele>
    <time>2026-09-17T08:12:18Z</time>
   </trkpt>
   <trkpt lat="22.7295210" lon="120.3374440">
    <ele>24.7</ele>
    <time>2026-09-17T08:12:19Z</time>
   </trkpt>
   <trkpt lat="22.7295200" lon="120.3374440">
    <ele>24.7</ele>
    <time>2026-09-17T08:12:20Z</time>
   </trkpt>
   <trkpt lat="22.7295210" lon="120.3374400">
    <ele>24.7</ele>
    <time>2026-09-17T08:12:21Z</time>
   </trkpt>
   <trkpt lat="22.7295190" lon="120.3374410">
    <ele>24.7</ele>
    <time>2026-09-17T08:12:22Z</time>
   </trkpt>
   <trkpt lat="22.7295200" lon="120.3374370">
    <ele>24.7</ele>
    <time>2026-09-17T08:12:23Z</time>
   </trkpt>
   <trkpt lat="22.7295200" lon="120.3374370">
    <ele>24.7</ele>
    <time>2026-09-17T08:12:24Z</time>
   </trkpt>
   <trkpt lat="22.7295200" lon="120.3374370">
    <ele>24.7</ele>
    <time>2026-09-17T08:12:25Z</time>
   </trkpt>
   <trkpt lat="22.7295200" lon="120.3374370">
    <ele>24.7</ele>
    <time>2026-09-17T08:12:26Z</time>
   </trkpt>
   <trkpt lat="22.7295200" lon="120.3374370">
    <ele>24.7</ele>
    <time>2026-09-17T08:12:27Z</time>
   </trkpt>
   <trkpt lat="22.7295730" lon="120.3374290">
    <ele>24.7</ele>
    <time>2026-09-17T08:13:04Z</time>
   </trkpt>
   <trkpt lat="22.7295660" lon="120.3374360">
    <ele>24.7</ele>
    <time>2026-09-17T08:13:05Z</time>
   </trkpt>
   <trkpt lat="22.7295710" lon="120.3374380">
    <ele>24.7</ele>
    <time>2026-09-17T08:13:06Z</time>
   </trkpt>
   <trkpt lat="22.7295710" lon="120.3374300">
    <ele>24.7</ele>
    <time>2026-09-17T08:13:07Z</time>
   </trkpt>
   <trkpt lat="22.7295810" lon="120.3374400">
    <ele>24.7</ele>
    <time>2026-09-17T08:13:08Z</time>
   </trkpt>
   <trkpt lat="22.7295830" lon="120.3374430">
    <ele>24.7</ele>
    <time>2026-09-17T08:13:09Z</time>
   </trkpt>
   <trkpt lat="22.7295810" lon="120.3374420">
    <ele>24.7</ele>
    <time>2026-09-17T08:13:10Z</time>
   </trkpt>
   <trkpt lat="22.7295730" lon="120.3374390">
    <ele>24.7</ele>
    <time>2026-09-17T08:13:11Z</time>
   </trkpt>
   <trkpt lat="22.7295660" lon="120.3374420">
    <ele>24.7</ele>
    <time>2026-09-17T08:13:12Z</time>
   </trkpt>
   <trkpt lat="22.7295680" lon="120.3374400">
    <ele>24.6</ele>
    <time>2026-09-17T08:13:13Z</time>
   </trkpt>
   <trkpt lat="22.7295690" lon="120.3374310">
    <ele>24.6</ele>
    <time>2026-09-17T08:13:14Z</time>
   </trkpt>
   <trkpt lat="22.7295660" lon="120.3374480">
    <ele>24.6</ele>
    <time>2026-09-17T08:13:15Z</time>
   </trkpt>
   <trkpt lat="22.7295770" lon="120.3374600">
    <ele>24.6</ele>
    <time>2026-09-17T08:13:16Z</time>
   </trkpt>
   <trkpt lat="22.7295910" lon="120.3374650">
    <ele>24.6</ele>
    <time>2026-09-17T08:13:17Z</time>
   </trkpt>
   <trkpt lat="22.7295960" lon="120.3374630">
    <ele>24.6</ele>
    <time>2026-09-17T08:13:18Z</time>
   </trkpt>
   <trkpt lat="22.7295900" lon="120.3374620">
    <ele>24.6</ele>
    <time>2026-09-17T08:13:19Z</time>
   </trkpt>
   <trkpt lat="22.7295880" lon="120.3374650">
    <ele>24.6</ele>
    <time>2026-09-17T08:13:20Z</time>
   </trkpt>
   <trkpt lat="22.7295830" lon="120.3374920">
    <ele>24.6</ele>
    <time>2026-09-17T08:13:21Z</time>
   </trkpt>
   <trkpt lat="22.7295840" lon="120.3374930">
    <ele>24.6</ele>
    <time>2026-09-17T08:13:22Z</time>
   </trkpt>
   <trkpt lat="22.7295850" lon="120.3374960">
    <ele>24.6</ele>
    <time>2026-09-17T08:13:23Z</time>
   </trkpt>
   <trkpt lat="22.7295880" lon="120.3374950">
    <ele>24.6</ele>
    <time>2026-09-17T08:13:24Z</time>
   </trkpt>
   <trkpt lat="22.7295910" lon="120.3374970">
    <ele>24.6</ele>
    <time>2026-09-17T08:13:25Z</time>
   </trkpt>
   <trkpt lat="22.7295900" lon="120.3374970">
    <ele>24.6</ele>
    <time>2026-09-17T08:13:26Z</time>
   </trkpt>
   <trkpt lat="22.7296010" lon="120.3374870">
    <ele>24.6</ele>
    <time>2026-09-17T08:13:27Z</time>
   </trkpt>
   <trkpt lat="22.7296010" lon="120.3374840">
    <ele>24.6</ele>
    <time>2026-09-17T08:13:28Z</time>
   </trkpt>
   <trkpt lat="22.7296130" lon="120.3374940">
    <ele>24.6</ele>
    <time>2026-09-17T08:13:29Z</time>
   </trkpt>
   <trkpt lat="22.7296320" lon="120.3374920">
    <ele>24.6</ele>
    <time>2026-09-17T08:13:30Z</time>
   </trkpt>
   <trkpt lat="22.7296270" lon="120.3374970">
    <ele>24.6</ele>
    <time>2026-09-17T08:13:31Z</time>
   </trkpt>
   <trkpt lat="22.7296210" lon="120.3375030">
    <ele>24.6</ele>
    <time>2026-09-17T08:13:32Z</time>
   </trkpt>
   <trkpt lat="22.7296160" lon="120.3375080">
    <ele>24.6</ele>
    <time>2026-09-17T08:13:33Z</time>
   </trkpt>
   <trkpt lat="22.7296100" lon="120.3375130">
    <ele>24.5</ele>
    <time>2026-09-17T08:13:34Z</time>
   </trkpt>
   <trkpt lat="22.7296050" lon="120.3375190">
    <ele>24.5</ele>
    <time>2026-09-17T08:13:35Z</time>
   </trkpt>
   <trkpt lat="22.7295990" lon="120.3375240">
    <ele>24.5</ele>
    <time>2026-09-17T08:13:36Z</time>
   </trkpt>
   <trkpt lat="22.7295940" lon="120.3375290">
    <ele>24.5</ele>
    <time>2026-09-17T08:13:37Z</time>
   </trkpt>
   <trkpt lat="22.7295880" lon="120.3375350">
    <ele>24.5</ele>
    <time>2026-09-17T08:13:38Z</time>
   </trkpt>
   <trkpt lat="22.7295830" lon="120.3375400">
    <ele>24.5</ele>
    <time>2026-09-17T08:13:39Z</time>
   </trkpt>
   <trkpt lat="22.7295630" lon="120.3375450">
    <ele>24.5</ele>
    <time>2026-09-17T08:13:40Z</time>
   </trkpt>
   <trkpt lat="22.7295660" lon="120.3375370">
    <ele>24.5</ele>
    <time>2026-09-17T08:13:41Z</time>
   </trkpt>
   <trkpt lat="22.7295660" lon="120.3375350">
    <ele>24.5</ele>
    <time>2026-09-17T08:13:42Z</time>
   </trkpt>
   <trkpt lat="22.7295690" lon="120.3375340">
    <ele>24.5</ele>
    <time>2026-09-17T08:13:43Z</time>
   </trkpt>
   <trkpt lat="22.7295690" lon="120.3375340">
    <ele>24.5</ele>
    <time>2026-09-17T08:13:44Z</time>
   </trkpt>
   <trkpt lat="22.7295690" lon="120.3375340">
    <ele>24.5</ele>
    <time>2026-09-17T08:13:45Z</time>
   </trkpt>
   <trkpt lat="22.7295760" lon="120.3375280">
    <ele>24.5</ele>
    <time>2026-09-17T08:13:46Z</time>
   </trkpt>
   <trkpt lat="22.7295770" lon="120.3375280">
    <ele>24.5</ele>
    <time>2026-09-17T08:13:47Z</time>
   </trkpt>
   <trkpt lat="22.7295770" lon="120.3375280">
    <ele>24.5</ele>
    <time>2026-09-17T08:13:48Z</time>
   </trkpt>
   <trkpt lat="22.7295780" lon="120.3375280">
    <ele>24.5</ele>
    <time>2026-09-17T08:13:49Z</time>
   </trkpt>
   <trkpt lat="22.7295760" lon="120.3375260">
    <ele>24.5</ele>
    <time>2026-09-17T08:13:50Z</time>
   </trkpt>
   <trkpt lat="22.7295890" lon="120.3375120">
    <ele>24.5</ele>
    <time>2026-09-17T08:13:51Z</time>
   </trkpt>
   <trkpt lat="22.7296280" lon="120.3375560">
    <ele>24.5</ele>
    <time>2026-09-17T08:14:35Z</time>
   </trkpt>
   <trkpt lat="22.7296180" lon="120.3375700">
    <ele>24.5</ele>
    <time>2026-09-17T08:14:36Z</time>
   </trkpt>
   <trkpt lat="22.7296190" lon="120.3375890">
    <ele>24.4</ele>
    <time>2026-09-17T08:14:37Z</time>
   </trkpt>
   <trkpt lat="22.7296180" lon="120.3375960">
    <ele>24.4</ele>
    <time>2026-09-17T08:14:38Z</time>
   </trkpt>
   <trkpt lat="22.7296260" lon="120.3376090">
    <ele>24.4</ele>
    <time>2026-09-17T08:14:39Z</time>
   </trkpt>
   <trkpt lat="22.7296320" lon="120.3376170">
    <ele>24.4</ele>
    <time>2026-09-17T08:14:40Z</time>
   </trkpt>
   <trkpt lat="22.7296440" lon="120.3376220">
    <ele>24.4</ele>
    <time>2026-09-17T08:14:41Z</time>
   </trkpt>
   <trkpt lat="22.7296450" lon="120.3376320">
    <ele>24.4</ele>
    <time>2026-09-17T08:14:42Z</time>
   </trkpt>
   <trkpt lat="22.7296410" lon="120.3376420">
    <ele>24.4</ele>
    <time>2026-09-17T08:14:43Z</time>
   </trkpt>
   <trkpt lat="22.7296410" lon="120.3376510">
    <ele>24.4</ele>
    <time>2026-09-17T08:14:44Z</time>
   </trkpt>
   <trkpt lat="22.7296440" lon="120.3376520">
    <ele>24.4</ele>
    <time>2026-09-17T08:14:45Z</time>
   </trkpt>
   <trkpt lat="22.7296470" lon="120.3376540">
    <ele>24.4</ele>
    <time>2026-09-17T08:14:46Z</time>
   </trkpt>
   <trkpt lat="22.7296490" lon="120.3376570">
    <ele>24.4</ele>
    <time>2026-09-17T08:14:47Z</time>
   </trkpt>
   <trkpt lat="22.7296500" lon="120.3376620">
    <ele>24.4</ele>
    <time>2026-09-17T08:14:48Z</time>
   </trkpt>
   <trkpt lat="22.7296410" lon="120.3376620">
    <ele>24.4</ele>
    <time>2026-09-17T08:14:49Z</time>
   </trkpt>
   <trkpt lat="22.7296410" lon="120.3376620">
    <ele>24.4</ele>
    <time>2026-09-17T08:14:50Z</time>
   </trkpt>
   <trkpt lat="22.7296440" lon="120.3376610">
    <ele>24.4</ele>
    <time>2026-09-17T08:14:51Z</time>
   </trkpt>
   <trkpt lat="22.7296450" lon="120.3376610">
    <ele>24.4</ele>
    <time>2026-09-17T08:14:52Z</time>
   </trkpt>
   <trkpt lat="22.7296460" lon="120.3376710">
    <ele>24.4</ele>
    <time>2026-09-17T08:14:53Z</time>
   </trkpt>
   <trkpt lat="22.7296500" lon="120.3376690">
    <ele>24.4</ele>
    <time>2026-09-17T08:14:54Z</time>
   </trkpt>
   <trkpt lat="22.7296860" lon="120.3376800">
    <ele>24.4</ele>
    <time>2026-09-17T08:15:03Z</time>
   </trkpt>
   <trkpt lat="22.7296810" lon="120.3376790">
    <ele>24.4</ele>
    <time>2026-09-17T08:15:04Z</time>
   </trkpt>
   <trkpt lat="22.7296650" lon="120.3376740">
    <ele>24.4</ele>
    <time>2026-09-17T08:15:05Z</time>
   </trkpt>
   <trkpt lat="22.7296670" lon="120.3376740">
    <ele>24.4</ele>
    <time>2026-09-17T08:15:06Z</time>
   </trkpt>
   <trkpt lat="22.7296650" lon="120.3376770">
    <ele>24.3</ele>
    <time>2026-09-17T08:15:07Z</time>
   </trkpt>
   <trkpt lat="22.7296650" lon="120.3376730">
    <ele>24.3</ele>
    <time>2026-09-17T08:15:08Z</time>
   </trkpt>
   <trkpt lat="22.7296660" lon="120.3376730">
    <ele>24.3</ele>
    <time>2026-09-17T08:15:09Z</time>
   </trkpt>
   <trkpt lat="22.7296660" lon="120.3376730">
    <ele>24.3</ele>
    <time>2026-09-17T08:15:10Z</time>
   </trkpt>
   <trkpt lat="22.7296660" lon="120.3376730">
    <ele>24.3</ele>
    <time>2026-09-17T08:15:11Z</time>
   </trkpt>
   <trkpt lat="22.7296760" lon="120.3376660">
    <ele>24.3</ele>
    <time>2026-09-17T08:15:12Z</time>
   </trkpt>
   <trkpt lat="22.7296760" lon="120.3376660">
    <ele>24.3</ele>
    <time>2026-09-17T08:15:13Z</time>
   </trkpt>
   <trkpt lat="22.7296920" lon="120.3377220">
    <ele>24.3</ele>
    <time>2026-09-17T08:15:59Z</time>
   </trkpt>
   <trkpt lat="22.7296970" lon="120.3377210">
    <ele>24.3</ele>
    <time>2026-09-17T08:16:00Z</time>
   </trkpt>
   <trkpt lat="22.7297100" lon="120.3377350">
    <ele>24.3</ele>
    <time>2026-09-17T08:16:01Z</time>
   </trkpt>
   <trkpt lat="22.7297240" lon="120.3377270">
    <ele>24.3</ele>
    <time>2026-09-17T08:16:02Z</time>
   </trkpt>
   <trkpt lat="22.7297290" lon="120.3377260">
    <ele>24.3</ele>
    <time>2026-09-17T08:16:03Z</time>
   </trkpt>
   <trkpt lat="22.7297340" lon="120.3377360">
    <ele>24.3</ele>
    <time>2026-09-17T08:16:04Z</time>
   </trkpt>
   <trkpt lat="22.7297370" lon="120.3377460">
    <ele>24.3</ele>
    <time>2026-09-17T08:16:05Z</time>
   </trkpt>
   <trkpt lat="22.7297380" lon="120.3377550">
    <ele>24.3</ele>
    <time>2026-09-17T08:16:06Z</time>
   </trkpt>
   <trkpt lat="22.7297300" lon="120.3377600">
    <ele>24.3</ele>
    <time>2026-09-17T08:16:07Z</time>
   </trkpt>
   <trkpt lat="22.7297290" lon="120.3377600">
    <ele>24.3</ele>
    <time>2026-09-17T08:16:08Z</time>
   </trkpt>
   <trkpt lat="22.7297290" lon="120.3377660">
    <ele>24.3</ele>
    <time>2026-09-17T08:16:09Z</time>
   </trkpt>
   <trkpt lat="22.7297300" lon="120.3377650">
    <ele>24.3</ele>
    <time>2026-09-17T08:16:10Z</time>
   </trkpt>
   <trkpt lat="22.7297310" lon="120.3377650">
    <ele>24.3</ele>
    <time>2026-09-17T08:16:11Z</time>
   </trkpt>
   <trkpt lat="22.7297350" lon="120.3377680">
    <ele>24.3</ele>
    <time>2026-09-17T08:16:12Z</time>
   </trkpt>
   <trkpt lat="22.7298010" lon="120.3378000">
    <ele>24.2</ele>
    <time>2026-09-17T08:17:07Z</time>
   </trkpt>
   <trkpt lat="22.7298050" lon="120.3378040">
    <ele>24.2</ele>
    <time>2026-09-17T08:17:08Z</time>
   </trkpt>
   <trkpt lat="22.7298180" lon="120.3378020">
    <ele>24.2</ele>
    <time>2026-09-17T08:17:09Z</time>
   </trkpt>
   <trkpt lat="22.7298260" lon="120.3378030">
    <ele>24.2</ele>
    <time>2026-09-17T08:17:10Z</time>
   </trkpt>
   <trkpt lat="22.7298240" lon="120.3378080">
    <ele>24.2</ele>
    <time>2026-09-17T08:17:11Z</time>
   </trkpt>
   <trkpt lat="22.7298320" lon="120.3378170">
    <ele>24.2</ele>
    <time>2026-09-17T08:17:12Z</time>
   </trkpt>
   <trkpt lat="22.7298300" lon="120.3378210">
    <ele>24.2</ele>
    <time>2026-09-17T08:17:13Z</time>
   </trkpt>
   <trkpt lat="22.7298290" lon="120.3378330">
    <ele>24.2</ele>
    <time>2026-09-17T08:17:14Z</time>
   </trkpt>
   <trkpt lat="22.7298380" lon="120.3378440">
    <ele>24.2</ele>
    <time>2026-09-17T08:17:15Z</time>
   </trkpt>
   <trkpt lat="22.7298470" lon="120.3378490">
    <ele>24.2</ele>
    <time>2026-09-17T08:17:16Z</time>
   </trkpt>
   <trkpt lat="22.7298470" lon="120.3378560">
    <ele>24.2</ele>
    <time>2026-09-17T08:17:17Z</time>
   </trkpt>
   <trkpt lat="22.7298460" lon="120.3378640">
    <ele>24.2</ele>
    <time>2026-09-17T08:17:18Z</time>
   </trkpt>
   <trkpt lat="22.7298410" lon="120.3378680">
    <ele>24.2</ele>
    <time>2026-09-17T08:17:19Z</time>
   </trkpt>
   <trkpt lat="22.7298420" lon="120.3378690">
    <ele>24.2</ele>
    <time>2026-09-17T08:17:20Z</time>
   </trkpt>
   <trkpt lat="22.7298330" lon="120.3378620">
    <ele>24.2</ele>
    <time>2026-09-17T08:17:21Z</time>
   </trkpt>
   <trkpt lat="22.7298310" lon="120.3378570">
    <ele>24.2</ele>
    <time>2026-09-17T08:17:22Z</time>
   </trkpt>
   <trkpt lat="22.7298330" lon="120.3378580">
    <ele>24.2</ele>
    <time>2026-09-17T08:17:23Z</time>
   </trkpt>
   <trkpt lat="22.7298370" lon="120.3378710">
    <ele>24.1</ele>
    <time>2026-09-17T08:17:24Z</time>
   </trkpt>
   <trkpt lat="22.7298460" lon="120.3378720">
    <ele>24.1</ele>
    <time>2026-09-17T08:17:25Z</time>
   </trkpt>
   <trkpt lat="22.7298500" lon="120.3378650">
    <ele>24.1</ele>
    <time>2026-09-17T08:17:26Z</time>
   </trkpt>
   <trkpt lat="22.7298590" lon="120.3378670">
    <ele>24.1</ele>
    <time>2026-09-17T08:17:27Z</time>
   </trkpt>
   <trkpt lat="22.7298740" lon="120.3378680">
    <ele>24.1</ele>
    <time>2026-09-17T08:17:28Z</time>
   </trkpt>
   <trkpt lat="22.7298830" lon="120.3378630">
    <ele>24.1</ele>
    <time>2026-09-17T08:17:29Z</time>
   </trkpt>
   <trkpt lat="22.7298870" lon="120.3378700">
    <ele>24.1</ele>
    <time>2026-09-17T08:17:30Z</time>
   </trkpt>
   <trkpt lat="22.7298820" lon="120.3378870">
    <ele>24.1</ele>
    <time>2026-09-17T08:17:31Z</time>
   </trkpt>
   <trkpt lat="22.7298700" lon="120.3378920">
    <ele>24.1</ele>
    <time>2026-09-17T08:17:32Z</time>
   </trkpt>
   <trkpt lat="22.7298670" lon="120.3378960">
    <ele>24.1</ele>
    <time>2026-09-17T08:17:33Z</time>
   </trkpt>
   <trkpt lat="22.7298670" lon="120.3378950">
    <ele>24.1</ele>
    <time>2026-09-17T08:17:34Z</time>
   </trkpt>
   <trkpt lat="22.7298670" lon="120.3378950">
    <ele>24.1</ele>
    <time>2026-09-17T08:17:35Z</time>
   </trkpt>
   <trkpt lat="22.7298670" lon="120.3378950">
    <ele>24.1</ele>
    <time>2026-09-17T08:17:36Z</time>
   </trkpt>
   <trkpt lat="22.7298440" lon="120.3379060">
    <ele>24.1</ele>
    <time>2026-09-17T08:17:37Z</time>
   </trkpt>
   <trkpt lat="22.7298390" lon="120.3379060">
    <ele>24.1</ele>
    <time>2026-09-17T08:17:38Z</time>
   </trkpt>
   <trkpt lat="22.7298340" lon="120.3379070">
    <ele>24.1</ele>
    <time>2026-09-17T08:17:39Z</time>
   </trkpt>
   <trkpt lat="22.7298340" lon="120.3379080">
    <ele>24.1</ele>
    <time>2026-09-17T08:17:40Z</time>
   </trkpt>
   <trkpt lat="22.7298340" lon="120.3379060">
    <ele>24.1</ele>
    <time>2026-09-17T08:17:41Z</time>
   </trkpt>
   <trkpt lat="22.7299340" lon="120.3380240">
    <ele>24.1</ele>
    <time>2026-09-17T08:18:27Z</time>
   </trkpt>
   <trkpt lat="22.7299430" lon="120.3380320">
    <ele>24.1</ele>
    <time>2026-09-17T08:18:28Z</time>
   </trkpt>
   <trkpt lat="22.7299490" lon="120.3380400">
    <ele>24.1</ele>
    <time>2026-09-17T08:18:29Z</time>
   </trkpt>
   <trkpt lat="22.7299570" lon="120.3380350">
    <ele>24.1</ele>
    <time>2026-09-17T08:18:30Z</time>
   </trkpt>
   <trkpt lat="22.7299750" lon="120.3380320">
    <ele>24.1</ele>
    <time>2026-09-17T08:18:31Z</time>
   </trkpt>
   <trkpt lat="22.7299760" lon="120.3380320">
    <ele>24.1</ele>
    <time>2026-09-17T08:18:32Z</time>
   </trkpt>
   <trkpt lat="22.7299740" lon="120.3380330">
    <ele>24.1</ele>
    <time>2026-09-17T08:18:33Z</time>
   </trkpt>
   <trkpt lat="22.7299720" lon="120.3380260">
    <ele>24.1</ele>
    <time>2026-09-17T08:18:34Z</time>
   </trkpt>
   <trkpt lat="22.7299780" lon="120.3380320">
    <ele>24.1</ele>
    <time>2026-09-17T08:18:35Z</time>
   </trkpt>
   <trkpt lat="22.7299830" lon="120.3380380">
    <ele>24.1</ele>
    <time>2026-09-17T08:18:36Z</time>
   </trkpt>
   <trkpt lat="22.7299810" lon="120.3380370">
    <ele>24.1</ele>
    <time>2026-09-17T08:18:37Z</time>
   </trkpt>
   <trkpt lat="22.7299820" lon="120.3380410">
    <ele>24.1</ele>
    <time>2026-09-17T08:18:38Z</time>
   </trkpt>
   <trkpt lat="22.7299850" lon="120.3380430">
    <ele>24.1</ele>
    <time>2026-09-17T08:18:39Z</time>
   </trkpt>
   <trkpt lat="22.7299850" lon="120.3380460">
    <ele>24.1</ele>
    <time>2026-09-17T08:18:40Z</time>
   </trkpt>
   <trkpt lat="22.7299810" lon="120.3380440">
    <ele>24.1</ele>
    <time>2026-09-17T08:18:41Z</time>
   </trkpt>
   <trkpt lat="22.7299810" lon="120.3380440">
    <ele>24.1</ele>
    <time>2026-09-17T08:18:42Z</time>
   </trkpt>
   <trkpt lat="22.7299810" lon="120.3380440">
    <ele>24.1</ele>
    <time>2026-09-17T08:18:43Z</time>
   </trkpt>
   <trkpt lat="22.7299810" lon="120.3380440">
    <ele>24.1</ele>
    <time>2026-09-17T08:18:44Z</time>
   </trkpt>
   <trkpt lat="22.7299810" lon="120.3380440">
    <ele>24.1</ele>
    <time>2026-09-17T08:18:45Z</time>
   </trkpt>
   <trkpt lat="22.7299810" lon="120.3380440">
    <ele>24.1</ele>
    <time>2026-09-17T08:18:46Z</time>
   </trkpt>
   <trkpt lat="22.7299150" lon="120.3379980">
    <ele>24.2</ele>
    <time>2026-09-17T08:19:38Z</time>
   </trkpt>
   <trkpt lat="22.7299250" lon="120.3379980">
    <ele>24.2</ele>
    <time>2026-09-17T08:19:39Z</time>
   </trkpt>
   <trkpt lat="22.7299330" lon="120.3379970">
    <ele>24.2</ele>
    <time>2026-09-17T08:19:40Z</time>
   </trkpt>
   <trkpt lat="22.7299450" lon="120.3379790">
    <ele>24.3</ele>
    <time>2026-09-17T08:19:41Z</time>
   </trkpt>
   <trkpt lat="22.7299460" lon="120.3379740">
    <ele>24.3</ele>
    <time>2026-09-17T08:19:42Z</time>
   </trkpt>
   <trkpt lat="22.7299510" lon="120.3379710">
    <ele>24.3</ele>
    <time>2026-09-17T08:19:43Z</time>
   </trkpt>
   <trkpt lat="22.7299570" lon="120.3379650">
    <ele>24.4</ele>
    <time>2026-09-17T08:19:44Z</time>
   </trkpt>
   <trkpt lat="22.7299770" lon="120.3379570">
    <ele>24.4</ele>
    <time>2026-09-17T08:19:45Z</time>
   </trkpt>
   <trkpt lat="22.7299920" lon="120.3379500">
    <ele>24.5</ele>
    <time>2026-09-17T08:19:46Z</time>
   </trkpt>
   <trkpt lat="22.7300080" lon="120.3379410">
    <ele>24.5</ele>
    <time>2026-09-17T08:19:47Z</time>
   </trkpt>
   <trkpt lat="22.7300090" lon="120.3379310">
    <ele>24.6</ele>
    <time>2026-09-17T08:19:48Z</time>
   </trkpt>
   <trkpt lat="22.7300110" lon="120.3379200">
    <ele>24.6</ele>
    <time>2026-09-17T08:19:49Z</time>
   </trkpt>
   <trkpt lat="22.7300120" lon="120.3379100">
    <ele>24.6</ele>
    <time>2026-09-17T08:19:50Z</time>
   </trkpt>
   <trkpt lat="22.7300120" lon="120.3379100">
    <ele>24.6</ele>
    <time>2026-09-17T08:19:51Z</time>
   </trkpt>
   <trkpt lat="22.7300120" lon="120.3379100">
    <ele>24.6</ele>
    <time>2026-09-17T08:19:52Z</time>
   </trkpt>
   <trkpt lat="22.7300120" lon="120.3379100">
    <ele>24.6</ele>
    <time>2026-09-17T08:19:53Z</time>
   </trkpt>
   <trkpt lat="22.7300120" lon="120.3379100">
    <ele>24.6</ele>
    <time>2026-09-17T08:19:54Z</time>
   </trkpt>
   <trkpt lat="22.7300120" lon="120.3379100">
    <ele>24.6</ele>
    <time>2026-09-17T08:19:55Z</time>
   </trkpt>
   <trkpt lat="22.7300120" lon="120.3379100">
    <ele>24.6</ele>
    <time>2026-09-17T08:19:56Z</time>
   </trkpt>
   <trkpt lat="22.7300150" lon="120.3378860">
    <ele>24.7</ele>
    <time>2026-09-17T08:19:57Z</time>
   </trkpt>
   <trkpt lat="22.7300190" lon="120.3378500">
    <ele>24.8</ele>
    <time>2026-09-17T08:19:58Z</time>
   </trkpt>
   <trkpt lat="22.7300240" lon="120.3378130">
    <ele>24.9</ele>
    <time>2026-09-17T08:19:59Z</time>
   </trkpt>
   <trkpt lat="22.7300290" lon="120.3378250">
    <ele>25.0</ele>
    <time>2026-09-17T08:20:00Z</time>
   </trkpt>
   <trkpt lat="22.7300430" lon="120.3378280">
    <ele>25.0</ele>
    <time>2026-09-17T08:20:01Z</time>
   </trkpt>
   <trkpt lat="22.7300470" lon="120.3378290">
    <ele>25.0</ele>
    <time>2026-09-17T08:20:02Z</time>
   </trkpt>
   <trkpt lat="22.7300640" lon="120.3378400">
    <ele>25.1</ele>
    <time>2026-09-17T08:20:03Z</time>
   </trkpt>
   <trkpt lat="22.7300600" lon="120.3378500">
    <ele>25.0</ele>
    <time>2026-09-17T08:20:04Z</time>
   </trkpt>
   <trkpt lat="22.7300540" lon="120.3378530">
    <ele>25.0</ele>
    <time>2026-09-17T08:20:05Z</time>
   </trkpt>
   <trkpt lat="22.7300500" lon="120.3378510">
    <ele>25.0</ele>
    <time>2026-09-17T08:20:06Z</time>
   </trkpt>
   <trkpt lat="22.7300550" lon="120.3378570">
    <ele>25.0</ele>
    <time>2026-09-17T08:20:07Z</time>
   </trkpt>
   <trkpt lat="22.7300610" lon="120.3378630">
    <ele>25.0</ele>
    <time>2026-09-17T08:20:08Z</time>
   </trkpt>
   <trkpt lat="22.7300630" lon="120.3378660">
    <ele>25.0</ele>
    <time>2026-09-17T08:20:09Z</time>
   </trkpt>
   <trkpt lat="22.7300670" lon="120.3378750">
    <ele>25.0</ele>
    <time>2026-09-17T08:20:10Z</time>
   </trkpt>
   <trkpt lat="22.7300740" lon="120.3378630">
    <ele>24.9</ele>
    <time>2026-09-17T08:20:11Z</time>
   </trkpt>
   <trkpt lat="22.7300770" lon="120.3378700">
    <ele>24.9</ele>
    <time>2026-09-17T08:20:12Z</time>
   </trkpt>
   <trkpt lat="22.7300750" lon="120.3378780">
    <ele>24.9</ele>
    <time>2026-09-17T08:20:13Z</time>
   </trkpt>
   <trkpt lat="22.7300620" lon="120.3378980">
    <ele>24.8</ele>
    <time>2026-09-17T08:20:14Z</time>
   </trkpt>
   <trkpt lat="22.7300520" lon="120.3379050">
    <ele>24.8</ele>
    <time>2026-09-17T08:20:15Z</time>
   </trkpt>
   <trkpt lat="22.7300460" lon="120.3379120">
    <ele>24.8</ele>
    <time>2026-09-17T08:20:16Z</time>
   </trkpt>
   <trkpt lat="22.7300370" lon="120.3379210">
    <ele>24.7</ele>
    <time>2026-09-17T08:20:17Z</time>
   </trkpt>
   <trkpt lat="22.7300300" lon="120.3379290">
    <ele>24.7</ele>
    <time>2026-09-17T08:20:18Z</time>
   </trkpt>
   <trkpt lat="22.7300300" lon="120.3379350">
    <ele>24.7</ele>
    <time>2026-09-17T08:20:19Z</time>
   </trkpt>
   <trkpt lat="22.7300290" lon="120.3379290">
    <ele>24.7</ele>
    <time>2026-09-17T08:20:20Z</time>
   </trkpt>
   <trkpt lat="22.7300280" lon="120.3379310">
    <ele>24.7</ele>
    <time>2026-09-17T08:20:21Z</time>
   </trkpt>
   <trkpt lat="22.7300260" lon="120.3379400">
    <ele>24.7</ele>
    <time>2026-09-17T08:20:22Z</time>
   </trkpt>
   <trkpt lat="22.7300300" lon="120.3379450">
    <ele>24.6</ele>
    <time>2026-09-17T08:20:23Z</time>
   </trkpt>
   <trkpt lat="22.7300290" lon="120.3379520">
    <ele>24.6</ele>
    <time>2026-09-17T08:20:24Z</time>
   </trkpt>
   <trkpt lat="22.7300200" lon="120.3379710">
    <ele>24.6</ele>
    <time>2026-09-17T08:20:25Z</time>
   </trkpt>
   <trkpt lat="22.7300130" lon="120.3379740">
    <ele>24.6</ele>
    <time>2026-09-17T08:20:26Z</time>
   </trkpt>
   <trkpt lat="22.7300050" lon="120.3379760">
    <ele>24.5</ele>
    <time>2026-09-17T08:20:27Z</time>
   </trkpt>
   <trkpt lat="22.7299930" lon="120.3379810">
    <ele>24.5</ele>
    <time>2026-09-17T08:20:28Z</time>
   </trkpt>
   <trkpt lat="22.7299840" lon="120.3379860">
    <ele>24.5</ele>
    <time>2026-09-17T08:20:29Z</time>
   </trkpt>
   <trkpt lat="22.7299700" lon="120.3379870">
    <ele>24.4</ele>
    <time>2026-09-17T08:20:30Z</time>
   </trkpt>
   <trkpt lat="22.7299560" lon="120.3379950">
    <ele>24.4</ele>
    <time>2026-09-17T08:20:31Z</time>
   </trkpt>
   <trkpt lat="22.7299490" lon="120.3380050">
    <ele>24.4</ele>
    <time>2026-09-17T08:20:32Z</time>
   </trkpt>
   <trkpt lat="22.7299400" lon="120.3380110">
    <ele>24.4</ele>
    <time>2026-09-17T08:20:33Z</time>
   </trkpt>
   <trkpt lat="22.7299210" lon="120.3380090">
    <ele>24.3</ele>
    <time>2026-09-17T08:20:34Z</time>
   </trkpt>
   <trkpt lat="22.7299120" lon="120.3380210">
    <ele>24.3</ele>
    <time>2026-09-17T08:20:35Z</time>
   </trkpt>
   <trkpt lat="22.7299030" lon="120.3380300">
    <ele>24.2</ele>
    <time>2026-09-17T08:20:36Z</time>
   </trkpt>
   <trkpt lat="22.7298990" lon="120.3380360">
    <ele>24.2</ele>
    <time>2026-09-17T08:20:37Z</time>
   </trkpt>
   <trkpt lat="22.7298870" lon="120.3380420">
    <ele>24.2</ele>
    <time>2026-09-17T08:20:38Z</time>
   </trkpt>
   <trkpt lat="22.7298820" lon="120.3380540">
    <ele>24.2</ele>
    <time>2026-09-17T08:20:39Z</time>
   </trkpt>
   <trkpt lat="22.7298790" lon="120.3380560">
    <ele>24.2</ele>
    <time>2026-09-17T08:20:40Z</time>
   </trkpt>
   <trkpt lat="22.7298760" lon="120.3380520">
    <ele>24.1</ele>
    <time>2026-09-17T08:20:41Z</time>
   </trkpt>
   <trkpt lat="22.7298700" lon="120.3380530">
    <ele>24.1</ele>
    <time>2026-09-17T08:20:42Z</time>
   </trkpt>
   <trkpt lat="22.7298610" lon="120.3380530">
    <ele>24.1</ele>
    <time>2026-09-17T08:20:43Z</time>
   </trkpt>
   <trkpt lat="22.7298740" lon="120.3380560">
    <ele>24.1</ele>
    <time>2026-09-17T08:20:44Z</time>
   </trkpt>
   <trkpt lat="22.7298770" lon="120.3380540">
    <ele>24.1</ele>
    <time>2026-09-17T08:20:45Z</time>
   </trkpt>
   <trkpt lat="22.7298360" lon="120.3380400">
    <ele>24.1</ele>
    <time>2026-09-17T08:20:49Z</time>
   </trkpt>
   <trkpt lat="22.7298310" lon="120.3380370">
    <ele>24.1</ele>
    <time>2026-09-17T08:20:50Z</time>
   </trkpt>
   <trkpt lat="22.7298290" lon="120.3380380">
    <ele>24.1</ele>
    <time>2026-09-17T08:20:51Z</time>
   </trkpt>
   <trkpt lat="22.7298200" lon="120.3380350">
    <ele>24.1</ele>
    <time>2026-09-17T08:20:52Z</time>
   </trkpt>
   <trkpt lat="22.7298150" lon="120.3380330">
    <ele>24.1</ele>
    <time>2026-09-17T08:20:53Z</time>
   </trkpt>
   <trkpt lat="22.7298130" lon="120.3380350">
    <ele>24.1</ele>
    <time>2026-09-17T08:20:54Z</time>
   </trkpt>
   <trkpt lat="22.7298110" lon="120.3380330">
    <ele>24.1</ele>
    <time>2026-09-17T08:20:55Z</time>
   </trkpt>
   <trkpt lat="22.7298070" lon="120.3380270">
    <ele>24.1</ele>
    <time>2026-09-17T08:20:56Z</time>
   </trkpt>
   <trkpt lat="22.7298040" lon="120.3380170">
    <ele>24.1</ele>
    <time>2026-09-17T08:20:57Z</time>
   </trkpt>
   <trkpt lat="22.7297940" lon="120.3380050">
    <ele>24.1</ele>
    <time>2026-09-17T08:20:58Z</time>
   </trkpt>
   <trkpt lat="22.7297950" lon="120.3380050">
    <ele>24.1</ele>
    <time>2026-09-17T08:20:59Z</time>
   </trkpt>
   <trkpt lat="22.7297640" lon="120.3379150">
    <ele>24.1</ele>
    <time>2026-09-17T08:21:19Z</time>
   </trkpt>
   <trkpt lat="22.7297520" lon="120.3379050">
    <ele>24.1</ele>
    <time>2026-09-17T08:21:20Z</time>
   </trkpt>
   <trkpt lat="22.7297540" lon="120.3379010">
    <ele>24.1</ele>
    <time>2026-09-17T08:21:21Z</time>
   </trkpt>
   <trkpt lat="22.7297420" lon="120.3378940">
    <ele>24.1</ele>
    <time>2026-09-17T08:21:22Z</time>
   </trkpt>
   <trkpt lat="22.7297340" lon="120.3378890">
    <ele>24.1</ele>
    <time>2026-09-17T08:21:23Z</time>
   </trkpt>
   <trkpt lat="22.7297290" lon="120.3378760">
    <ele>24.1</ele>
    <time>2026-09-17T08:21:24Z</time>
   </trkpt>
   <trkpt lat="22.7297210" lon="120.3378710">
    <ele>24.2</ele>
    <time>2026-09-17T08:21:25Z</time>
   </trkpt>
   <trkpt lat="22.7297160" lon="120.3378680">
    <ele>24.2</ele>
    <time>2026-09-17T08:21:26Z</time>
   </trkpt>
   <trkpt lat="22.7297080" lon="120.3378650">
    <ele>24.2</ele>
    <time>2026-09-17T08:21:27Z</time>
   </trkpt>
   <trkpt lat="22.7297090" lon="120.3378650">
    <ele>24.2</ele>
    <time>2026-09-17T08:21:28Z</time>
   </trkpt>
   <trkpt lat="22.7297080" lon="120.3378640">
    <ele>24.2</ele>
    <time>2026-09-17T08:21:29Z</time>
   </trkpt>
   <trkpt lat="22.7297110" lon="120.3378680">
    <ele>24.2</ele>
    <time>2026-09-17T08:21:30Z</time>
   </trkpt>
   <trkpt lat="22.7297120" lon="120.3378670">
    <ele>24.2</ele>
    <time>2026-09-17T08:21:31Z</time>
   </trkpt>
   <trkpt lat="22.7297070" lon="120.3378660">
    <ele>24.2</ele>
    <time>2026-09-17T08:21:32Z</time>
   </trkpt>
   <trkpt lat="22.7296840" lon="120.3377940">
    <ele>24.2</ele>
    <time>2026-09-17T08:21:41Z</time>
   </trkpt>
   <trkpt lat="22.7296890" lon="120.3377840">
    <ele>24.3</ele>
    <time>2026-09-17T08:21:42Z</time>
   </trkpt>
   <trkpt lat="22.7296920" lon="120.3377700">
    <ele>24.3</ele>
    <time>2026-09-17T08:21:43Z</time>
   </trkpt>
   <trkpt lat="22.7296960" lon="120.3377560">
    <ele>24.3</ele>
    <time>2026-09-17T08:21:44Z</time>
   </trkpt>
   <trkpt lat="22.7296920" lon="120.3377390">
    <ele>24.3</ele>
    <time>2026-09-17T08:21:45Z</time>
   </trkpt>
   <trkpt lat="22.7296920" lon="120.3377260">
    <ele>24.3</ele>
    <time>2026-09-17T08:21:46Z</time>
   </trkpt>
   <trkpt lat="22.7296900" lon="120.3377150">
    <ele>24.3</ele>
    <time>2026-09-17T08:21:47Z</time>
   </trkpt>
   <trkpt lat="22.7296860" lon="120.3377100">
    <ele>24.3</ele>
    <time>2026-09-17T08:21:48Z</time>
   </trkpt>
   <trkpt lat="22.7296810" lon="120.3377060">
    <ele>24.3</ele>
    <time>2026-09-17T08:21:49Z</time>
   </trkpt>
   <trkpt lat="22.7296800" lon="120.3377070">
    <ele>24.3</ele>
    <time>2026-09-17T08:21:50Z</time>
   </trkpt>
   <trkpt lat="22.7296770" lon="120.3377040">
    <ele>24.3</ele>
    <time>2026-09-17T08:21:51Z</time>
   </trkpt>
   <trkpt lat="22.7296380" lon="120.3376800">
    <ele>24.4</ele>
    <time>2026-09-17T08:21:54Z</time>
   </trkpt>
   <trkpt lat="22.7296250" lon="120.3376770">
    <ele>24.4</ele>
    <time>2026-09-17T08:21:55Z</time>
   </trkpt>
   <trkpt lat="22.7296180" lon="120.3376790">
    <ele>24.4</ele>
    <time>2026-09-17T08:21:56Z</time>
   </trkpt>
   <trkpt lat="22.7296080" lon="120.3376770">
    <ele>24.4</ele>
    <time>2026-09-17T08:21:57Z</time>
   </trkpt>
   <trkpt lat="22.7295990" lon="120.3376790">
    <ele>24.4</ele>
    <time>2026-09-17T08:21:58Z</time>
   </trkpt>
   <trkpt lat="22.7295920" lon="120.3376810">
    <ele>24.4</ele>
    <time>2026-09-17T08:21:59Z</time>
   </trkpt>
   <trkpt lat="22.7295860" lon="120.3376860">
    <ele>24.4</ele>
    <time>2026-09-17T08:22:00Z</time>
   </trkpt>
   <trkpt lat="22.7295780" lon="120.3376910">
    <ele>24.4</ele>
    <time>2026-09-17T08:22:01Z</time>
   </trkpt>
   <trkpt lat="22.7295700" lon="120.3376870">
    <ele>24.4</ele>
    <time>2026-09-17T08:22:02Z</time>
   </trkpt>
   <trkpt lat="22.7295680" lon="120.3376890">
    <ele>24.4</ele>
    <time>2026-09-17T08:22:03Z</time>
   </trkpt>
   <trkpt lat="22.7295620" lon="120.3376900">
    <ele>24.4</ele>
    <time>2026-09-17T08:22:04Z</time>
   </trkpt>
   <trkpt lat="22.7295560" lon="120.3376920">
    <ele>24.5</ele>
    <time>2026-09-17T08:22:05Z</time>
   </trkpt>
   <trkpt lat="22.7295470" lon="120.3376360">
    <ele>24.5</ele>
    <time>2026-09-17T08:22:12Z</time>
   </trkpt>
   <trkpt lat="22.7295480" lon="120.3376300">
    <ele>24.5</ele>
    <time>2026-09-17T08:22:13Z</time>
   </trkpt>
   <trkpt lat="22.7295470" lon="120.3376220">
    <ele>24.5</ele>
    <time>2026-09-17T08:22:14Z</time>
   </trkpt>
   <trkpt lat="22.7295470" lon="120.3376080">
    <ele>24.5</ele>
    <time>2026-09-17T08:22:15Z</time>
   </trkpt>
   <trkpt lat="22.7295420" lon="120.3376030">
    <ele>24.5</ele>
    <time>2026-09-17T08:22:16Z</time>
   </trkpt>
   <trkpt lat="22.7295370" lon="120.3376030">
    <ele>24.5</ele>
    <time>2026-09-17T08:22:17Z</time>
   </trkpt>
   <trkpt lat="22.7295350" lon="120.3375970">
    <ele>24.5</ele>
    <time>2026-09-17T08:22:18Z</time>
   </trkpt>
   <trkpt lat="22.7295420" lon="120.3375980">
    <ele>24.5</ele>
    <time>2026-09-17T08:22:19Z</time>
   </trkpt>
   <trkpt lat="22.7295480" lon="120.3375970">
    <ele>24.6</ele>
    <time>2026-09-17T08:22:20Z</time>
   </trkpt>
   <trkpt lat="22.7295410" lon="120.3375960">
    <ele>24.6</ele>
    <time>2026-09-17T08:22:21Z</time>
   </trkpt>
   <trkpt lat="22.7295380" lon="120.3375950">
    <ele>24.6</ele>
    <time>2026-09-17T08:22:22Z</time>
   </trkpt>
   <trkpt lat="22.7295260" lon="120.3375840">
    <ele>24.6</ele>
    <time>2026-09-17T08:22:23Z</time>
   </trkpt>
   <trkpt lat="22.7295270" lon="120.3375830">
    <ele>24.6</ele>
    <time>2026-09-17T08:22:24Z</time>
   </trkpt>
   <trkpt lat="22.7295270" lon="120.3375850">
    <ele>24.6</ele>
    <time>2026-09-17T08:22:25Z</time>
   </trkpt>
   <trkpt lat="22.7295220" lon="120.3375850">
    <ele>24.6</ele>
    <time>2026-09-17T08:22:26Z</time>
   </trkpt>
   <trkpt lat="22.7295170" lon="120.3375820">
    <ele>24.6</ele>
    <time>2026-09-17T08:22:27Z</time>
   </trkpt>
   <trkpt lat="22.7295150" lon="120.3375870">
    <ele>24.6</ele>
    <time>2026-09-17T08:22:28Z</time>
   </trkpt>
   <trkpt lat="22.7295170" lon="120.3375890">
    <ele>24.6</ele>
    <time>2026-09-17T08:22:29Z</time>
   </trkpt>
   <trkpt lat="22.7295170" lon="120.3375900">
    <ele>24.6</ele>
    <time>2026-09-17T08:22:30Z</time>
   </trkpt>
   <trkpt lat="22.7295110" lon="120.3375890">
    <ele>24.6</ele>
    <time>2026-09-17T08:22:31Z</time>
   </trkpt>
   <trkpt lat="22.7295020" lon="120.3375870">
    <ele>24.6</ele>
    <time>2026-09-17T08:22:32Z</time>
   </trkpt>
   <trkpt lat="22.7294990" lon="120.3375870">
    <ele>24.6</ele>
    <time>2026-09-17T08:22:33Z</time>
   </trkpt>
   <trkpt lat="22.7294360" lon="120.3374560">
    <ele>24.7</ele>
    <time>2026-09-17T08:22:47Z</time>
   </trkpt>
   <trkpt lat="22.7294320" lon="120.3374440">
    <ele>24.8</ele>
    <time>2026-09-17T08:22:48Z</time>
   </trkpt>
   <trkpt lat="22.7294310" lon="120.3374310">
    <ele>24.8</ele>
    <time>2026-09-17T08:22:49Z</time>
   </trkpt>
   <trkpt lat="22.7294310" lon="120.3374200">
    <ele>24.8</ele>
    <time>2026-09-17T08:22:50Z</time>
   </trkpt>
   <trkpt lat="22.7294310" lon="120.3374110">
    <ele>24.8</ele>
    <time>2026-09-17T08:22:51Z</time>
   </trkpt>
   <trkpt lat="22.7294370" lon="120.3374000">
    <ele>24.8</ele>
    <time>2026-09-17T08:22:52Z</time>
   </trkpt>
   <trkpt lat="22.7294360" lon="120.3373870">
    <ele>24.8</ele>
    <time>2026-09-17T08:22:53Z</time>
   </trkpt>
   <trkpt lat="22.7294350" lon="120.3373770">
    <ele>24.8</ele>
    <time>2026-09-17T08:22:54Z</time>
   </trkpt>
   <trkpt lat="22.7294350" lon="120.3373710">
    <ele>24.8</ele>
    <time>2026-09-17T08:22:55Z</time>
   </trkpt>
   <trkpt lat="22.7294340" lon="120.3373680">
    <ele>24.8</ele>
    <time>2026-09-17T08:22:56Z</time>
   </trkpt>
   <trkpt lat="22.7294310" lon="120.3373700">
    <ele>24.8</ele>
    <time>2026-09-17T08:22:57Z</time>
   </trkpt>
   <trkpt lat="22.7294260" lon="120.3373670">
    <ele>24.8</ele>
    <time>2026-09-17T08:22:58Z</time>
   </trkpt>
   <trkpt lat="22.7294210" lon="120.3373590">
    <ele>24.8</ele>
    <time>2026-09-17T08:22:59Z</time>
   </trkpt>
   <trkpt lat="22.7294210" lon="120.3373530">
    <ele>24.8</ele>
    <time>2026-09-17T08:23:00Z</time>
   </trkpt>
   <trkpt lat="22.7294210" lon="120.3373450">
    <ele>24.9</ele>
    <time>2026-09-17T08:23:01Z</time>
   </trkpt>
   <trkpt lat="22.7294180" lon="120.3373360">
    <ele>24.9</ele>
    <time>2026-09-17T08:23:02Z</time>
   </trkpt>
   <trkpt lat="22.7294220" lon="120.3373280">
    <ele>24.9</ele>
    <time>2026-09-17T08:23:03Z</time>
   </trkpt>
   <trkpt lat="22.7294220" lon="120.3373200">
    <ele>24.9</ele>
    <time>2026-09-17T08:23:04Z</time>
   </trkpt>
   <trkpt lat="22.7294000" lon="120.3372300">
    <ele>25.0</ele>
    <time>2026-09-17T08:23:21Z</time>
   </trkpt>
   <trkpt lat="22.7294010" lon="120.3372140">
    <ele>25.0</ele>
    <time>2026-09-17T08:23:22Z</time>
   </trkpt>
   <trkpt lat="22.7294170" lon="120.3372030">
    <ele>25.0</ele>
    <time>2026-09-17T08:23:23Z</time>
   </trkpt>
   <trkpt lat="22.7294500" lon="120.3371810">
    <ele>25.1</ele>
    <time>2026-09-17T08:23:24Z</time>
   </trkpt>
   <trkpt lat="22.7294900" lon="120.3371330">
    <ele>25.3</ele>
    <time>2026-09-17T08:23:25Z</time>
   </trkpt>
   <trkpt lat="22.7295260" lon="120.3371050">
    <ele>25.4</ele>
    <time>2026-09-17T08:23:26Z</time>
   </trkpt>
   <trkpt lat="22.7295510" lon="120.3370830">
    <ele>25.5</ele>
    <time>2026-09-17T08:23:27Z</time>
   </trkpt>
   <trkpt lat="22.7295720" lon="120.3370610">
    <ele>25.6</ele>
    <time>2026-09-17T08:23:28Z</time>
   </trkpt>
   <trkpt lat="22.7295930" lon="120.3370400">
    <ele>25.7</ele>
    <time>2026-09-17T08:23:29Z</time>
   </trkpt>
   <trkpt lat="22.7296160" lon="120.3370280">
    <ele>25.7</ele>
    <time>2026-09-17T08:23:30Z</time>
   </trkpt>
   <trkpt lat="22.7296260" lon="120.3370050">
    <ele>25.8</ele>
    <time>2026-09-17T08:23:31Z</time>
   </trkpt>
   <trkpt lat="22.7296380" lon="120.3370020">
    <ele>25.8</ele>
    <time>2026-09-17T08:23:32Z</time>
   </trkpt>
   <trkpt lat="22.7296390" lon="120.3369920">
    <ele>25.9</ele>
    <time>2026-09-17T08:23:33Z</time>
   </trkpt>
   <trkpt lat="22.7296410" lon="120.3369860">
    <ele>25.9</ele>
    <time>2026-09-17T08:23:34Z</time>
   </trkpt>
   <trkpt lat="22.7296390" lon="120.3369800">
    <ele>25.9</ele>
    <time>2026-09-17T08:23:35Z</time>
   </trkpt>
   <trkpt lat="22.7296350" lon="120.3369600">
    <ele>25.9</ele>
    <time>2026-09-17T08:23:36Z</time>
   </trkpt>
   <trkpt lat="22.7296240" lon="120.3369380">
    <ele>25.9</ele>
    <time>2026-09-17T08:23:37Z</time>
   </trkpt>
   <trkpt lat="22.7296010" lon="120.3369040">
    <ele>25.9</ele>
    <time>2026-09-17T08:23:38Z</time>
   </trkpt>
   <trkpt lat="22.7295790" lon="120.3368880">
    <ele>25.9</ele>
    <time>2026-09-17T08:23:39Z</time>
   </trkpt>
   <trkpt lat="22.7295680" lon="120.3368620">
    <ele>25.8</ele>
    <time>2026-09-17T08:23:40Z</time>
   </trkpt>
   <trkpt lat="22.7295530" lon="120.3368370">
    <ele>25.8</ele>
    <time>2026-09-17T08:23:41Z</time>
   </trkpt>
   <trkpt lat="22.7295430" lon="120.3368220">
    <ele>25.8</ele>
    <time>2026-09-17T08:23:42Z</time>
   </trkpt>
   <trkpt lat="22.7295350" lon="120.3368260">
    <ele>25.8</ele>
    <time>2026-09-17T08:23:43Z</time>
   </trkpt>
   <trkpt lat="22.7295320" lon="120.3368270">
    <ele>25.8</ele>
    <time>2026-09-17T08:23:44Z</time>
   </trkpt>
   <trkpt lat="22.7295340" lon="120.3368250">
    <ele>25.8</ele>
    <time>2026-09-17T08:23:45Z</time>
   </trkpt>
   <trkpt lat="22.7295380" lon="120.3368270">
    <ele>25.8</ele>
    <time>2026-09-17T08:23:46Z</time>
   </trkpt>
   <trkpt lat="22.7295370" lon="120.3368280">
    <ele>25.8</ele>
    <time>2026-09-17T08:23:47Z</time>
   </trkpt>
   <trkpt lat="22.7295410" lon="120.3368290">
    <ele>25.8</ele>
    <time>2026-09-17T08:23:48Z</time>
   </trkpt>
   <trkpt lat="22.7295390" lon="120.3368340">
    <ele>25.8</ele>
    <time>2026-09-17T08:23:49Z</time>
   </trkpt>
   <trkpt lat="22.7295360" lon="120.3368270">
    <ele>25.8</ele>
    <time>2026-09-17T08:23:50Z</time>
   </trkpt>
   <trkpt lat="22.7295450" lon="120.3368290">
    <ele>25.8</ele>
    <time>2026-09-17T08:23:51Z</time>
   </trkpt>
   <trkpt lat="22.7295500" lon="120.3368260">
    <ele>25.8</ele>
    <time>2026-09-17T08:23:52Z</time>
   </trkpt>
   <trkpt lat="22.7295560" lon="120.3368220">
    <ele>25.8</ele>
    <time>2026-09-17T08:23:53Z</time>
   </trkpt>
   <trkpt lat="22.7295570" lon="120.3368220">
    <ele>25.8</ele>
    <time>2026-09-17T08:23:54Z</time>
   </trkpt>
   <trkpt lat="22.7295570" lon="120.3368230">
    <ele>25.8</ele>
    <time>2026-09-17T08:23:55Z</time>
   </trkpt>
   <trkpt lat="22.7295590" lon="120.3368220">
    <ele>25.8</ele>
    <time>2026-09-17T08:23:56Z</time>
   </trkpt>
   <trkpt lat="22.7295600" lon="120.3368230">
    <ele>25.8</ele>
    <time>2026-09-17T08:23:57Z</time>
   </trkpt>
   <trkpt lat="22.7295600" lon="120.3368230">
    <ele>25.8</ele>
    <time>2026-09-17T08:23:58Z</time>
   </trkpt>
   <trkpt lat="22.7295610" lon="120.3368160">
    <ele>25.8</ele>
    <time>2026-09-17T08:23:59Z</time>
   </trkpt>
   <trkpt lat="22.7295630" lon="120.3368170">
    <ele>25.8</ele>
    <time>2026-09-17T08:24:00Z</time>
   </trkpt>
   <trkpt lat="22.7295130" lon="120.3367910">
    <ele>25.8</ele>
    <time>2026-09-17T08:24:47Z</time>
   </trkpt>
   <trkpt lat="22.7295120" lon="120.3367890">
    <ele>25.8</ele>
    <time>2026-09-17T08:24:48Z</time>
   </trkpt>
   <trkpt lat="22.7295110" lon="120.3367830">
    <ele>25.8</ele>
    <time>2026-09-17T08:24:49Z</time>
   </trkpt>
   <trkpt lat="22.7295120" lon="120.3367850">
    <ele>25.8</ele>
    <time>2026-09-17T08:24:50Z</time>
   </trkpt>
   <trkpt lat="22.7295110" lon="120.3367850">
    <ele>25.8</ele>
    <time>2026-09-17T08:24:51Z</time>
   </trkpt>
   <trkpt lat="22.7295110" lon="120.3367850">
    <ele>25.8</ele>
    <time>2026-09-17T08:24:52Z</time>
   </trkpt>
   <trkpt lat="22.7295100" lon="120.3367850">
    <ele>25.8</ele>
    <time>2026-09-17T08:24:53Z</time>
   </trkpt>
   <trkpt lat="22.7295090" lon="120.3367850">
    <ele>25.8</ele>
    <time>2026-09-17T08:24:54Z</time>
   </trkpt>
   <trkpt lat="22.7295060" lon="120.3367830">
    <ele>25.8</ele>
    <time>2026-09-17T08:24:55Z</time>
   </trkpt>
   <trkpt lat="22.7295070" lon="120.3367830">
    <ele>25.8</ele>
    <time>2026-09-17T08:24:56Z</time>
   </trkpt>
   <trkpt lat="22.7295060" lon="120.3367820">
    <ele>25.8</ele>
    <time>2026-09-17T08:24:57Z</time>
   </trkpt>
   <trkpt lat="22.7294970" lon="120.3367660">
    <ele>25.8</ele>
    <time>2026-09-17T08:25:00Z</time>
   </trkpt>
   <trkpt lat="22.7295000" lon="120.3367770">
    <ele>25.8</ele>
    <time>2026-09-17T08:25:01Z</time>
   </trkpt>
   <trkpt lat="22.7294970" lon="120.3367830">
    <ele>25.8</ele>
    <time>2026-09-17T08:25:02Z</time>
   </trkpt>
   <trkpt lat="22.7295000" lon="120.3367820">
    <ele>25.8</ele>
    <time>2026-09-17T08:25:03Z</time>
   </trkpt>
   <trkpt lat="22.7295050" lon="120.3367820">
    <ele>25.8</ele>
    <time>2026-09-17T08:25:04Z</time>
   </trkpt>
   <trkpt lat="22.7294920" lon="120.3367960">
    <ele>25.8</ele>
    <time>2026-09-17T08:25:05Z</time>
   </trkpt>
   <trkpt lat="22.7294870" lon="120.3368020">
    <ele>25.8</ele>
    <time>2026-09-17T08:25:06Z</time>
   </trkpt>
   <trkpt lat="22.7294850" lon="120.3368000">
    <ele>25.8</ele>
    <time>2026-09-17T08:25:07Z</time>
   </trkpt>
   <trkpt lat="22.7294940" lon="120.3367950">
    <ele>25.8</ele>
    <time>2026-09-17T08:25:08Z</time>
   </trkpt>
   <trkpt lat="22.7294920" lon="120.3367950">
    <ele>25.8</ele>
    <time>2026-09-17T08:25:09Z</time>
   </trkpt>
   <trkpt lat="22.7294930" lon="120.3367940">
    <ele>25.8</ele>
    <time>2026-09-17T08:25:10Z</time>
   </trkpt>
   <trkpt lat="22.7294930" lon="120.3367940">
    <ele>25.8</ele>
    <time>2026-09-17T08:25:11Z</time>
   </trkpt>
   <trkpt lat="22.7294930" lon="120.3367920">
    <ele>25.8</ele>
    <time>2026-09-17T08:25:12Z</time>
   </trkpt>
   <trkpt lat="22.7294840" lon="120.3367650">
    <ele>25.8</ele>
    <time>2026-09-17T08:25:13Z</time>
   </trkpt>
   <trkpt lat="22.7295030" lon="120.3367590">
    <ele>25.8</ele>
    <time>2026-09-17T08:25:14Z</time>
   </trkpt>
   <trkpt lat="22.7294840" lon="120.3367670">
    <ele>25.8</ele>
    <time>2026-09-17T08:25:15Z</time>
   </trkpt>
   <trkpt lat="22.7294830" lon="120.3367560">
    <ele>25.7</ele>
    <time>2026-09-17T08:25:16Z</time>
   </trkpt>
   <trkpt lat="22.7294800" lon="120.3367510">
    <ele>25.7</ele>
    <time>2026-09-17T08:25:17Z</time>
   </trkpt>
   <trkpt lat="22.7294800" lon="120.3367540">
    <ele>25.7</ele>
    <time>2026-09-17T08:25:18Z</time>
   </trkpt>
   <trkpt lat="22.7294770" lon="120.3367560">
    <ele>25.7</ele>
    <time>2026-09-17T08:25:19Z</time>
   </trkpt>
   <trkpt lat="22.7294720" lon="120.3367740">
    <ele>25.7</ele>
    <time>2026-09-17T08:25:20Z</time>
   </trkpt>
   <trkpt lat="22.7294620" lon="120.3367770">
    <ele>25.7</ele>
    <time>2026-09-17T08:25:21Z</time>
   </trkpt>
   <trkpt lat="22.7294570" lon="120.3367800">
    <ele>25.7</ele>
    <time>2026-09-17T08:25:22Z</time>
   </trkpt>
   <trkpt lat="22.7294380" lon="120.3367870">
    <ele>25.7</ele>
    <time>2026-09-17T08:25:23Z</time>
   </trkpt>
   <trkpt lat="22.7294420" lon="120.3367830">
    <ele>25.7</ele>
    <time>2026-09-17T08:25:24Z</time>
   </trkpt>
   <trkpt lat="22.7294480" lon="120.3367610">
    <ele>25.7</ele>
    <time>2026-09-17T08:25:25Z</time>
   </trkpt>
   <trkpt lat="22.7294440" lon="120.3367630">
    <ele>25.7</ele>
    <time>2026-09-17T08:25:26Z</time>
   </trkpt>
   <trkpt lat="22.7294460" lon="120.3367640">
    <ele>25.7</ele>
    <time>2026-09-17T08:25:27Z</time>
   </trkpt>
   <trkpt lat="22.7294580" lon="120.3367710">
    <ele>25.7</ele>
    <time>2026-09-17T08:25:28Z</time>
   </trkpt>
   <trkpt lat="22.7294680" lon="120.3367740">
    <ele>25.7</ele>
    <time>2026-09-17T08:25:29Z</time>
   </trkpt>
   <trkpt lat="22.7294680" lon="120.3367750">
    <ele>25.7</ele>
    <time>2026-09-17T08:25:30Z</time>
   </trkpt>
   <trkpt lat="22.7294680" lon="120.3367750">
    <ele>25.7</ele>
    <time>2026-09-17T08:25:31Z</time>
   </trkpt>
   <trkpt lat="22.7294860" lon="120.3367730">
    <ele>25.7</ele>
    <time>2026-09-17T08:25:32Z</time>
   </trkpt>
   <trkpt lat="22.7294950" lon="120.3367720">
    <ele>25.7</ele>
    <time>2026-09-17T08:25:33Z</time>
   </trkpt>
   <trkpt lat="22.7295040" lon="120.3367730">
    <ele>25.7</ele>
    <time>2026-09-17T08:25:34Z</time>
   </trkpt>
   <trkpt lat="22.7295050" lon="120.3367740">
    <ele>25.7</ele>
    <time>2026-09-17T08:25:35Z</time>
   </trkpt>
   <trkpt lat="22.7295100" lon="120.3367750">
    <ele>25.7</ele>
    <time>2026-09-17T08:25:36Z</time>
   </trkpt>
   <trkpt lat="22.7295330" lon="120.3367300">
    <ele>25.7</ele>
    <time>2026-09-17T08:26:19Z</time>
   </trkpt>
   <trkpt lat="22.7295250" lon="120.3367250">
    <ele>25.7</ele>
    <time>2026-09-17T08:26:20Z</time>
   </trkpt>
   <trkpt lat="22.7295250" lon="120.3367230">
    <ele>25.7</ele>
    <time>2026-09-17T08:26:21Z</time>
   </trkpt>
   <trkpt lat="22.7295260" lon="120.3367220">
    <ele>25.7</ele>
    <time>2026-09-17T08:26:22Z</time>
   </trkpt>
   <trkpt lat="22.7295470" lon="120.3367180">
    <ele>25.7</ele>
    <time>2026-09-17T08:26:23Z</time>
   </trkpt>
   <trkpt lat="22.7295500" lon="120.3367110">
    <ele>25.7</ele>
    <time>2026-09-17T08:26:24Z</time>
   </trkpt>
   <trkpt lat="22.7295480" lon="120.3367250">
    <ele>25.7</ele>
    <time>2026-09-17T08:26:25Z</time>
   </trkpt>
   <trkpt lat="22.7295410" lon="120.3367290">
    <ele>25.7</ele>
    <time>2026-09-17T08:26:26Z</time>
   </trkpt>
   <trkpt lat="22.7295270" lon="120.3367290">
    <ele>25.7</ele>
    <time>2026-09-17T08:26:27Z</time>
   </trkpt>
   <trkpt lat="22.7295250" lon="120.3367250">
    <ele>25.7</ele>
    <time>2026-09-17T08:26:28Z</time>
   </trkpt>
   <trkpt lat="22.7295280" lon="120.3367160">
    <ele>25.7</ele>
    <time>2026-09-17T08:26:29Z</time>
   </trkpt>
   <trkpt lat="22.7295130" lon="120.3367160">
    <ele>25.7</ele>
    <time>2026-09-17T08:26:30Z</time>
   </trkpt>
   <trkpt lat="22.7294980" lon="120.3367080">
    <ele>25.7</ele>
    <time>2026-09-17T08:26:31Z</time>
   </trkpt>
   <trkpt lat="22.7294900" lon="120.3367020">
    <ele>25.6</ele>
    <time>2026-09-17T08:26:32Z</time>
   </trkpt>
   <trkpt lat="22.7294910" lon="120.3366940">
    <ele>25.6</ele>
    <time>2026-09-17T08:26:33Z</time>
   </trkpt>
   <trkpt lat="22.7294920" lon="120.3366990">
    <ele>25.6</ele>
    <time>2026-09-17T08:26:34Z</time>
   </trkpt>
   <trkpt lat="22.7294990" lon="120.3367620">
    <ele>25.6</ele>
    <time>2026-09-17T08:26:43Z</time>
   </trkpt>
   <trkpt lat="22.7294960" lon="120.3367720">
    <ele>25.6</ele>
    <time>2026-09-17T08:26:44Z</time>
   </trkpt>
   <trkpt lat="22.7294920" lon="120.3367770">
    <ele>25.6</ele>
    <time>2026-09-17T08:26:45Z</time>
   </trkpt>
   <trkpt lat="22.7294900" lon="120.3367750">
    <ele>25.6</ele>
    <time>2026-09-17T08:26:46Z</time>
   </trkpt>
   <trkpt lat="22.7294830" lon="120.3367840">
    <ele>25.6</ele>
    <time>2026-09-17T08:26:47Z</time>
   </trkpt>
   <trkpt lat="22.7294790" lon="120.3367870">
    <ele>25.6</ele>
    <time>2026-09-17T08:26:48Z</time>
   </trkpt>
   <trkpt lat="22.7294750" lon="120.3367890">
    <ele>25.6</ele>
    <time>2026-09-17T08:26:49Z</time>
   </trkpt>
   <trkpt lat="22.7294720" lon="120.3367940">
    <ele>25.6</ele>
    <time>2026-09-17T08:26:50Z</time>
   </trkpt>
   <trkpt lat="22.7294830" lon="120.3367880">
    <ele>25.6</ele>
    <time>2026-09-17T08:26:51Z</time>
   </trkpt>
   <trkpt lat="22.7294710" lon="120.3367920">
    <ele>25.6</ele>
    <time>2026-09-17T08:26:52Z</time>
   </trkpt>
   <trkpt lat="22.7294580" lon="120.3367880">
    <ele>25.6</ele>
    <time>2026-09-17T08:26:53Z</time>
   </trkpt>
   <trkpt lat="22.7294530" lon="120.3367810">
    <ele>25.6</ele>
    <time>2026-09-17T08:26:54Z</time>
   </trkpt>
   <trkpt lat="22.7294520" lon="120.3367810">
    <ele>25.6</ele>
    <time>2026-09-17T08:26:55Z</time>
   </trkpt>
   <trkpt lat="22.7294530" lon="120.3367820">
    <ele>25.6</ele>
    <time>2026-09-17T08:26:56Z</time>
   </trkpt>
   <trkpt lat="22.7294530" lon="120.3367820">
    <ele>25.6</ele>
    <time>2026-09-17T08:26:57Z</time>
   </trkpt>
   <trkpt lat="22.7294460" lon="120.3367750">
    <ele>25.6</ele>
    <time>2026-09-17T08:26:58Z</time>
   </trkpt>
   <trkpt lat="22.7294420" lon="120.3367700">
    <ele>25.6</ele>
    <time>2026-09-17T08:26:59Z</time>
   </trkpt>
   <trkpt lat="22.7294410" lon="120.3367670">
    <ele>25.6</ele>
    <time>2026-09-17T08:27:00Z</time>
   </trkpt>
   <trkpt lat="22.7294320" lon="120.3367730">
    <ele>25.6</ele>
    <time>2026-09-17T08:27:01Z</time>
   </trkpt>
   <trkpt lat="22.7294640" lon="120.3366190">
    <ele>25.5</ele>
    <time>2026-09-17T08:29:04Z</time>
   </trkpt>
   <trkpt lat="22.7294690" lon="120.3366170">
    <ele>25.5</ele>
    <time>2026-09-17T08:29:05Z</time>
   </trkpt>
   <trkpt lat="22.7294710" lon="120.3366140">
    <ele>25.5</ele>
    <time>2026-09-17T08:29:06Z</time>
   </trkpt>
   <trkpt lat="22.7294710" lon="120.3366140">
    <ele>25.5</ele>
    <time>2026-09-17T08:29:07Z</time>
   </trkpt>
   <trkpt lat="22.7294670" lon="120.3366170">
    <ele>25.5</ele>
    <time>2026-09-17T08:29:08Z</time>
   </trkpt>
   <trkpt lat="22.7294610" lon="120.3366190">
    <ele>25.5</ele>
    <time>2026-09-17T08:29:09Z</time>
   </trkpt>
   <trkpt lat="22.7294640" lon="120.3366160">
    <ele>25.5</ele>
    <time>2026-09-17T08:29:10Z</time>
   </trkpt>
   <trkpt lat="22.7294640" lon="120.3366150">
    <ele>25.5</ele>
    <time>2026-09-17T08:29:11Z</time>
   </trkpt>
   <trkpt lat="22.7294720" lon="120.3366140">
    <ele>25.5</ele>
    <time>2026-09-17T08:29:12Z</time>
   </trkpt>
   <trkpt lat="22.7294750" lon="120.3366150">
    <ele>25.5</ele>
    <time>2026-09-17T08:29:13Z</time>
   </trkpt>
   <trkpt lat="22.7294130" lon="120.3366550">
    <ele>25.5</ele>
    <time>2026-09-17T08:29:29Z</time>
   </trkpt>
   <trkpt lat="22.7294250" lon="120.3366450">
    <ele>25.5</ele>
    <time>2026-09-17T08:29:30Z</time>
   </trkpt>
   <trkpt lat="22.7294210" lon="120.3366380">
    <ele>25.5</ele>
    <time>2026-09-17T08:29:31Z</time>
   </trkpt>
   <trkpt lat="22.7294070" lon="120.3366330">
    <ele>25.5</ele>
    <time>2026-09-17T08:29:32Z</time>
   </trkpt>
   <trkpt lat="22.7294010" lon="120.3366360">
    <ele>25.5</ele>
    <time>2026-09-17T08:29:33Z</time>
   </trkpt>
   <trkpt lat="22.7294020" lon="120.3366370">
    <ele>25.5</ele>
    <time>2026-09-17T08:29:34Z</time>
   </trkpt>
   <trkpt lat="22.7294000" lon="120.3366380">
    <ele>25.5</ele>
    <time>2026-09-17T08:29:35Z</time>
   </trkpt>
   <trkpt lat="22.7293920" lon="120.3366370">
    <ele>25.5</ele>
    <time>2026-09-17T08:29:36Z</time>
   </trkpt>
   <trkpt lat="22.7293910" lon="120.3366240">
    <ele>25.5</ele>
    <time>2026-09-17T08:29:37Z</time>
   </trkpt>
   <trkpt lat="22.7293750" lon="120.3366140">
    <ele>25.5</ele>
    <time>2026-09-17T08:29:38Z</time>
   </trkpt>
   <trkpt lat="22.7293630" lon="120.3366090">
    <ele>25.5</ele>
    <time>2026-09-17T08:29:39Z</time>
   </trkpt>
   <trkpt lat="22.7293550" lon="120.3366090">
    <ele>25.5</ele>
    <time>2026-09-17T08:29:40Z</time>
   </trkpt>
   <trkpt lat="22.7293380" lon="120.3366080">
    <ele>25.5</ele>
    <time>2026-09-17T08:29:41Z</time>
   </trkpt>
   <trkpt lat="22.7293190" lon="120.3366010">
    <ele>25.5</ele>
    <time>2026-09-17T08:29:42Z</time>
   </trkpt>
   <trkpt lat="22.7293040" lon="120.3366000">
    <ele>25.5</ele>
    <time>2026-09-17T08:29:43Z</time>
   </trkpt>
   <trkpt lat="22.7292990" lon="120.3365970">
    <ele>25.5</ele>
    <time>2026-09-17T08:29:44Z</time>
   </trkpt>
   <trkpt lat="22.7293020" lon="120.3366010">
    <ele>25.5</ele>
    <time>2026-09-17T08:29:45Z</time>
   </trkpt>
   <trkpt lat="22.7293110" lon="120.3365980">
    <ele>25.5</ele>
    <time>2026-09-17T08:29:46Z</time>
   </trkpt>
   <trkpt lat="22.7293170" lon="120.3365910">
    <ele>25.5</ele>
    <time>2026-09-17T08:29:47Z</time>
   </trkpt>
   <trkpt lat="22.7293220" lon="120.3365890">
    <ele>25.5</ele>
    <time>2026-09-17T08:29:48Z</time>
   </trkpt>
   <trkpt lat="22.7293260" lon="120.3365850">
    <ele>25.5</ele>
    <time>2026-09-17T08:29:49Z</time>
   </trkpt>
   <trkpt lat="22.7293250" lon="120.3365800">
    <ele>25.5</ele>
    <time>2026-09-17T08:29:50Z</time>
   </trkpt>
   <trkpt lat="22.7293180" lon="120.3365750">
    <ele>25.5</ele>
    <time>2026-09-17T08:29:51Z</time>
   </trkpt>
   <trkpt lat="22.7293270" lon="120.3365580">
    <ele>25.5</ele>
    <time>2026-09-17T08:29:52Z</time>
   </trkpt>
   <trkpt lat="22.7293350" lon="120.3365550">
    <ele>25.4</ele>
    <time>2026-09-17T08:29:53Z</time>
   </trkpt>
   <trkpt lat="22.7293490" lon="120.3364840">
    <ele>25.4</ele>
    <time>2026-09-17T08:30:26Z</time>
   </trkpt>
   <trkpt lat="22.7293400" lon="120.3364810">
    <ele>25.4</ele>
    <time>2026-09-17T08:30:27Z</time>
   </trkpt>
   <trkpt lat="22.7293350" lon="120.3364830">
    <ele>25.4</ele>
    <time>2026-09-17T08:30:28Z</time>
   </trkpt>
   <trkpt lat="22.7293310" lon="120.3364900">
    <ele>25.4</ele>
    <time>2026-09-17T08:30:29Z</time>
   </trkpt>
   <trkpt lat="22.7293400" lon="120.3364920">
    <ele>25.4</ele>
    <time>2026-09-17T08:30:30Z</time>
   </trkpt>
   <trkpt lat="22.7293440" lon="120.3364870">
    <ele>25.4</ele>
    <time>2026-09-17T08:30:31Z</time>
   </trkpt>
   <trkpt lat="22.7293440" lon="120.3364900">
    <ele>25.4</ele>
    <time>2026-09-17T08:30:32Z</time>
   </trkpt>
   <trkpt lat="22.7293360" lon="120.3364920">
    <ele>25.4</ele>
    <time>2026-09-17T08:30:33Z</time>
   </trkpt>
   <trkpt lat="22.7293410" lon="120.3364910">
    <ele>25.4</ele>
    <time>2026-09-17T08:30:34Z</time>
   </trkpt>
   <trkpt lat="22.7293460" lon="120.3364850">
    <ele>25.4</ele>
    <time>2026-09-17T08:30:35Z</time>
   </trkpt>
   <trkpt lat="22.7293530" lon="120.3364700">
    <ele>25.4</ele>
    <time>2026-09-17T08:30:36Z</time>
   </trkpt>
   <trkpt lat="22.7293520" lon="120.3364660">
    <ele>25.4</ele>
    <time>2026-09-17T08:30:37Z</time>
   </trkpt>
   <trkpt lat="22.7292930" lon="120.3363810">
    <ele>25.4</ele>
    <time>2026-09-17T08:31:23Z</time>
   </trkpt>
   <trkpt lat="22.7292860" lon="120.3363810">
    <ele>25.4</ele>
    <time>2026-09-17T08:31:24Z</time>
   </trkpt>
   <trkpt lat="22.7292830" lon="120.3363740">
    <ele>25.4</ele>
    <time>2026-09-17T08:31:25Z</time>
   </trkpt>
   <trkpt lat="22.7292760" lon="120.3363640">
    <ele>25.4</ele>
    <time>2026-09-17T08:31:26Z</time>
   </trkpt>
   <trkpt lat="22.7292750" lon="120.3363610">
    <ele>25.4</ele>
    <time>2026-09-17T08:31:27Z</time>
   </trkpt>
   <trkpt lat="22.7292720" lon="120.3363620">
    <ele>25.4</ele>
    <time>2026-09-17T08:31:28Z</time>
   </trkpt>
   <trkpt lat="22.7292730" lon="120.3363610">
    <ele>25.4</ele>
    <time>2026-09-17T08:31:29Z</time>
   </trkpt>
   <trkpt lat="22.7292720" lon="120.3363520">
    <ele>25.4</ele>
    <time>2026-09-17T08:31:30Z</time>
   </trkpt>
   <trkpt lat="22.7292650" lon="120.3363490">
    <ele>25.4</ele>
    <time>2026-09-17T08:31:31Z</time>
   </trkpt>
   <trkpt lat="22.7292540" lon="120.3363380">
    <ele>25.4</ele>
    <time>2026-09-17T08:31:32Z</time>
   </trkpt>
   <trkpt lat="22.7292600" lon="120.3363310">
    <ele>25.4</ele>
    <time>2026-09-17T08:31:33Z</time>
   </trkpt>
   <trkpt lat="22.7292550" lon="120.3363270">
    <ele>25.4</ele>
    <time>2026-09-17T08:31:34Z</time>
   </trkpt>
   <trkpt lat="22.7292590" lon="120.3363250">
    <ele>25.4</ele>
    <time>2026-09-17T08:31:35Z</time>
   </trkpt>
   <trkpt lat="22.7292670" lon="120.3363190">
    <ele>25.4</ele>
    <time>2026-09-17T08:31:36Z</time>
   </trkpt>
   <trkpt lat="22.7292690" lon="120.3363190">
    <ele>25.4</ele>
    <time>2026-09-17T08:31:37Z</time>
   </trkpt>
   <trkpt lat="22.7292690" lon="120.3363240">
    <ele>25.3</ele>
    <time>2026-09-17T08:31:38Z</time>
   </trkpt>
   <trkpt lat="22.7292670" lon="120.3363300">
    <ele>25.3</ele>
    <time>2026-09-17T08:31:39Z</time>
   </trkpt>
   <trkpt lat="22.7292620" lon="120.3363190">
    <ele>25.3</ele>
    <time>2026-09-17T08:31:40Z</time>
   </trkpt>
   <trkpt lat="22.7292590" lon="120.3363140">
    <ele>25.3</ele>
    <time>2026-09-17T08:31:41Z</time>
   </trkpt>
   <trkpt lat="22.7292620" lon="120.3363010">
    <ele>25.3</ele>
    <time>2026-09-17T08:31:42Z</time>
   </trkpt>
   <trkpt lat="22.7292540" lon="120.3362980">
    <ele>25.3</ele>
    <time>2026-09-17T08:31:43Z</time>
   </trkpt>
   <trkpt lat="22.7292570" lon="120.3362940">
    <ele>25.3</ele>
    <time>2026-09-17T08:31:44Z</time>
   </trkpt>
   <trkpt lat="22.7292450" lon="120.3362840">
    <ele>25.3</ele>
    <time>2026-09-17T08:31:45Z</time>
   </trkpt>
   <trkpt lat="22.7292380" lon="120.3362800">
    <ele>25.3</ele>
    <time>2026-09-17T08:31:46Z</time>
   </trkpt>
   <trkpt lat="22.7292380" lon="120.3362790">
    <ele>25.3</ele>
    <time>2026-09-17T08:31:47Z</time>
   </trkpt>
   <trkpt lat="22.7292460" lon="120.3362750">
    <ele>25.3</ele>
    <time>2026-09-17T08:31:48Z</time>
   </trkpt>
   <trkpt lat="22.7292500" lon="120.3362760">
    <ele>25.3</ele>
    <time>2026-09-17T08:31:49Z</time>
   </trkpt>
   <trkpt lat="22.7292500" lon="120.3362760">
    <ele>25.3</ele>
    <time>2026-09-17T08:31:50Z</time>
   </trkpt>
   <trkpt lat="22.7292470" lon="120.3362810">
    <ele>25.3</ele>
    <time>2026-09-17T08:31:51Z</time>
   </trkpt>
   <trkpt lat="22.7292470" lon="120.3362800">
    <ele>25.3</ele>
    <time>2026-09-17T08:31:52Z</time>
   </trkpt>
   <trkpt lat="22.7292470" lon="120.3362800">
    <ele>25.3</ele>
    <time>2026-09-17T08:31:53Z</time>
   </trkpt>
   <trkpt lat="22.7292470" lon="120.3362800">
    <ele>25.3</ele>
    <time>2026-09-17T08:31:54Z</time>
   </trkpt>
   <trkpt lat="22.7292470" lon="120.3362800">
    <ele>25.3</ele>
    <time>2026-09-17T08:31:55Z</time>
   </trkpt>
   <trkpt lat="22.7292450" lon="120.3362430">
    <ele>25.3</ele>
    <time>2026-09-17T08:32:25Z</time>
   </trkpt>
   <trkpt lat="22.7292380" lon="120.3362330">
    <ele>25.3</ele>
    <time>2026-09-17T08:32:26Z</time>
   </trkpt>
   <trkpt lat="22.7292310" lon="120.3362380">
    <ele>25.3</ele>
    <time>2026-09-17T08:32:27Z</time>
   </trkpt>
   <trkpt lat="22.7292370" lon="120.3362440">
    <ele>25.3</ele>
    <time>2026-09-17T08:32:28Z</time>
   </trkpt>
   <trkpt lat="22.7292410" lon="120.3362420">
    <ele>25.3</ele>
    <time>2026-09-17T08:32:29Z</time>
   </trkpt>
   <trkpt lat="22.7292400" lon="120.3362410">
    <ele>25.3</ele>
    <time>2026-09-17T08:32:30Z</time>
   </trkpt>
   <trkpt lat="22.7292410" lon="120.3362420">
    <ele>25.3</ele>
    <time>2026-09-17T08:32:31Z</time>
   </trkpt>
   <trkpt lat="22.7292480" lon="120.3362350">
    <ele>25.3</ele>
    <time>2026-09-17T08:32:32Z</time>
   </trkpt>
   <trkpt lat="22.7292450" lon="120.3362420">
    <ele>25.3</ele>
    <time>2026-09-17T08:32:33Z</time>
   </trkpt>
   <trkpt lat="22.7292450" lon="120.3362420">
    <ele>25.3</ele>
    <time>2026-09-17T08:32:34Z</time>
   </trkpt>
   <trkpt lat="22.7292400" lon="120.3362350">
    <ele>25.3</ele>
    <time>2026-09-17T08:32:35Z</time>
   </trkpt>
   <trkpt lat="22.7292300" lon="120.3362290">
    <ele>25.3</ele>
    <time>2026-09-17T08:32:36Z</time>
   </trkpt>
   <trkpt lat="22.7292130" lon="120.3362200">
    <ele>25.3</ele>
    <time>2026-09-17T08:32:38Z</time>
   </trkpt>
   <trkpt lat="22.7292020" lon="120.3362130">
    <ele>25.3</ele>
    <time>2026-09-17T08:32:39Z</time>
   </trkpt>
   <trkpt lat="22.7291970" lon="120.3362220">
    <ele>25.3</ele>
    <time>2026-09-17T08:32:40Z</time>
   </trkpt>
   <trkpt lat="22.7291910" lon="120.3362240">
    <ele>25.3</ele>
    <time>2026-09-17T08:32:41Z</time>
   </trkpt>
   <trkpt lat="22.7291880" lon="120.3362250">
    <ele>25.3</ele>
    <time>2026-09-17T08:32:42Z</time>
   </trkpt>
   <trkpt lat="22.7291880" lon="120.3362240">
    <ele>25.3</ele>
    <time>2026-09-17T08:32:43Z</time>
   </trkpt>
   <trkpt lat="22.7291840" lon="120.3362360">
    <ele>25.3</ele>
    <time>2026-09-17T08:32:44Z</time>
   </trkpt>
   <trkpt lat="22.7291820" lon="120.3362450">
    <ele>25.3</ele>
    <time>2026-09-17T08:32:45Z</time>
   </trkpt>
   <trkpt lat="22.7291900" lon="120.3362440">
    <ele>25.3</ele>
    <time>2026-09-17T08:32:46Z</time>
   </trkpt>
   <trkpt lat="22.7291900" lon="120.3362430">
    <ele>25.3</ele>
    <time>2026-09-17T08:32:47Z</time>
   </trkpt>
   <trkpt lat="22.7291860" lon="120.3362380">
    <ele>25.3</ele>
    <time>2026-09-17T08:32:49Z</time>
   </trkpt>
   <trkpt lat="22.7291790" lon="120.3362280">
    <ele>25.3</ele>
    <time>2026-09-17T08:32:50Z</time>
   </trkpt>
   <trkpt lat="22.7291780" lon="120.3362200">
    <ele>25.3</ele>
    <time>2026-09-17T08:32:51Z</time>
   </trkpt>
   <trkpt lat="22.7291690" lon="120.3362130">
    <ele>25.3</ele>
    <time>2026-09-17T08:32:52Z</time>
   </trkpt>
   <trkpt lat="22.7291690" lon="120.3362080">
    <ele>25.3</ele>
    <time>2026-09-17T08:32:53Z</time>
   </trkpt>
   <trkpt lat="22.7291620" lon="120.3362160">
    <ele>25.3</ele>
    <time>2026-09-17T08:32:54Z</time>
   </trkpt>
   <trkpt lat="22.7291510" lon="120.3362010">
    <ele>25.2</ele>
    <time>2026-09-17T08:32:55Z</time>
   </trkpt>
   <trkpt lat="22.7291630" lon="120.3361950">
    <ele>25.2</ele>
    <time>2026-09-17T08:32:56Z</time>
   </trkpt>
   <trkpt lat="22.7291660" lon="120.3361930">
    <ele>25.2</ele>
    <time>2026-09-17T08:32:57Z</time>
   </trkpt>
   <trkpt lat="22.7291680" lon="120.3361920">
    <ele>25.2</ele>
    <time>2026-09-17T08:32:58Z</time>
   </trkpt>
   <trkpt lat="22.7291680" lon="120.3361920">
    <ele>25.2</ele>
    <time>2026-09-17T08:32:59Z</time>
   </trkpt>
   <trkpt lat="22.7291680" lon="120.3361920">
    <ele>25.2</ele>
    <time>2026-09-17T08:33:00Z</time>
   </trkpt>
   <trkpt lat="22.7291680" lon="120.3361920">
    <ele>25.2</ele>
    <time>2026-09-17T08:33:01Z</time>
   </trkpt>
   <trkpt lat="22.7291680" lon="120.3361920">
    <ele>25.2</ele>
    <time>2026-09-17T08:33:02Z</time>
   </trkpt>
   <trkpt lat="22.7291730" lon="120.3361890">
    <ele>25.2</ele>
    <time>2026-09-17T08:33:03Z</time>
   </trkpt>
   <trkpt lat="22.7291720" lon="120.3361860">
    <ele>25.2</ele>
    <time>2026-09-17T08:33:04Z</time>
   </trkpt>
   <trkpt lat="22.7291700" lon="120.3361970">
    <ele>25.2</ele>
    <time>2026-09-17T08:33:32Z</time>
   </trkpt>
   <trkpt lat="22.7291790" lon="120.3361860">
    <ele>25.2</ele>
    <time>2026-09-17T08:33:33Z</time>
   </trkpt>
   <trkpt lat="22.7291700" lon="120.3361890">
    <ele>25.2</ele>
    <time>2026-09-17T08:33:34Z</time>
   </trkpt>
   <trkpt lat="22.7291750" lon="120.3361860">
    <ele>25.2</ele>
    <time>2026-09-17T08:33:35Z</time>
   </trkpt>
   <trkpt lat="22.7291820" lon="120.3361910">
    <ele>25.2</ele>
    <time>2026-09-17T08:33:36Z</time>
   </trkpt>
   <trkpt lat="22.7291850" lon="120.3361930">
    <ele>25.2</ele>
    <time>2026-09-17T08:33:37Z</time>
   </trkpt>
   <trkpt lat="22.7291890" lon="120.3362000">
    <ele>25.2</ele>
    <time>2026-09-17T08:33:38Z</time>
   </trkpt>
   <trkpt lat="22.7291840" lon="120.3362150">
    <ele>25.2</ele>
    <time>2026-09-17T08:33:39Z</time>
   </trkpt>
   <trkpt lat="22.7291830" lon="120.3362270">
    <ele>25.2</ele>
    <time>2026-09-17T08:33:40Z</time>
   </trkpt>
   <trkpt lat="22.7291790" lon="120.3362410">
    <ele>25.2</ele>
    <time>2026-09-17T08:33:41Z</time>
   </trkpt>
   <trkpt lat="22.7291460" lon="120.3362350">
    <ele>25.2</ele>
    <time>2026-09-17T08:33:47Z</time>
   </trkpt>
   <trkpt lat="22.7291410" lon="120.3362410">
    <ele>25.2</ele>
    <time>2026-09-17T08:33:48Z</time>
   </trkpt>
   <trkpt lat="22.7291370" lon="120.3362370">
    <ele>25.2</ele>
    <time>2026-09-17T08:33:49Z</time>
   </trkpt>
   <trkpt lat="22.7291300" lon="120.3362280">
    <ele>25.2</ele>
    <time>2026-09-17T08:33:50Z</time>
   </trkpt>
   <trkpt lat="22.7291260" lon="120.3362300">
    <ele>25.2</ele>
    <time>2026-09-17T08:33:51Z</time>
   </trkpt>
   <trkpt lat="22.7291250" lon="120.3362290">
    <ele>25.2</ele>
    <time>2026-09-17T08:33:52Z</time>
   </trkpt>
   <trkpt lat="22.7291270" lon="120.3362210">
    <ele>25.2</ele>
    <time>2026-09-17T08:33:53Z</time>
   </trkpt>
   <trkpt lat="22.7291270" lon="120.3362200">
    <ele>25.2</ele>
    <time>2026-09-17T08:33:54Z</time>
   </trkpt>
   <trkpt lat="22.7291190" lon="120.3362240">
    <ele>25.2</ele>
    <time>2026-09-17T08:33:55Z</time>
   </trkpt>
   <trkpt lat="22.7291110" lon="120.3362280">
    <ele>25.2</ele>
    <time>2026-09-17T08:33:56Z</time>
   </trkpt>
   <trkpt lat="22.7291070" lon="120.3362200">
    <ele>25.2</ele>
    <time>2026-09-17T08:33:57Z</time>
   </trkpt>
   <trkpt lat="22.7291010" lon="120.3362160">
    <ele>25.2</ele>
    <time>2026-09-17T08:33:58Z</time>
   </trkpt>
   <trkpt lat="22.7290930" lon="120.3362050">
    <ele>25.2</ele>
    <time>2026-09-17T08:33:59Z</time>
   </trkpt>
   <trkpt lat="22.7290950" lon="120.3361870">
    <ele>25.2</ele>
    <time>2026-09-17T08:34:00Z</time>
   </trkpt>
   <trkpt lat="22.7291060" lon="120.3361740">
    <ele>25.2</ele>
    <time>2026-09-17T08:34:01Z</time>
   </trkpt>
   <trkpt lat="22.7291080" lon="120.3361720">
    <ele>25.2</ele>
    <time>2026-09-17T08:34:02Z</time>
   </trkpt>
   <trkpt lat="22.7291140" lon="120.3361790">
    <ele>25.2</ele>
    <time>2026-09-17T08:34:03Z</time>
   </trkpt>
   <trkpt lat="22.7291130" lon="120.3361790">
    <ele>25.2</ele>
    <time>2026-09-17T08:34:04Z</time>
   </trkpt>
   <trkpt lat="22.7291130" lon="120.3361790">
    <ele>25.2</ele>
    <time>2026-09-17T08:34:05Z</time>
   </trkpt>
   <trkpt lat="22.7291250" lon="120.3361690">
    <ele>25.2</ele>
    <time>2026-09-17T08:34:06Z</time>
   </trkpt>
   <trkpt lat="22.7291250" lon="120.3361660">
    <ele>25.2</ele>
    <time>2026-09-17T08:34:07Z</time>
   </trkpt>
   <trkpt lat="22.7291240" lon="120.3361650">
    <ele>25.2</ele>
    <time>2026-09-17T08:34:08Z</time>
   </trkpt>
   <trkpt lat="22.7291210" lon="120.3361670">
    <ele>25.2</ele>
    <time>2026-09-17T08:34:09Z</time>
   </trkpt>
   <trkpt lat="22.7291250" lon="120.3361620">
    <ele>25.2</ele>
    <time>2026-09-17T08:34:10Z</time>
   </trkpt>
   <trkpt lat="22.7291240" lon="120.3361530">
    <ele>25.2</ele>
    <time>2026-09-17T08:34:11Z</time>
   </trkpt>
   <trkpt lat="22.7290530" lon="120.3361170">
    <ele>25.1</ele>
    <time>2026-09-17T08:34:33Z</time>
   </trkpt>
   <trkpt lat="22.7290510" lon="120.3361130">
    <ele>25.1</ele>
    <time>2026-09-17T08:34:34Z</time>
   </trkpt>
   <trkpt lat="22.7290540" lon="120.3361140">
    <ele>25.1</ele>
    <time>2026-09-17T08:34:35Z</time>
   </trkpt>
   <trkpt lat="22.7290540" lon="120.3361140">
    <ele>25.1</ele>
    <time>2026-09-17T08:34:36Z</time>
   </trkpt>
   <trkpt lat="22.7290580" lon="120.3361110">
    <ele>25.1</ele>
    <time>2026-09-17T08:34:37Z</time>
   </trkpt>
   <trkpt lat="22.7290610" lon="120.3361090">
    <ele>25.1</ele>
    <time>2026-09-17T08:34:38Z</time>
   </trkpt>
   <trkpt lat="22.7290540" lon="120.3361080">
    <ele>25.1</ele>
    <time>2026-09-17T08:34:39Z</time>
   </trkpt>
   <trkpt lat="22.7290510" lon="120.3361070">
    <ele>25.1</ele>
    <time>2026-09-17T08:34:40Z</time>
   </trkpt>
   <trkpt lat="22.7290550" lon="120.3361120">
    <ele>25.1</ele>
    <time>2026-09-17T08:34:41Z</time>
   </trkpt>
   <trkpt lat="22.7290470" lon="120.3360990">
    <ele>25.1</ele>
    <time>2026-09-17T08:34:42Z</time>
   </trkpt>
   <trkpt lat="22.7290550" lon="120.3360970">
    <ele>25.1</ele>
    <time>2026-09-17T08:34:43Z</time>
   </trkpt>
   <trkpt lat="22.7290930" lon="120.3361110">
    <ele>25.1</ele>
    <time>2026-09-17T08:35:20Z</time>
   </trkpt>
   <trkpt lat="22.7290980" lon="120.3361230">
    <ele>25.1</ele>
    <time>2026-09-17T08:35:21Z</time>
   </trkpt>
   <trkpt lat="22.7291000" lon="120.3361240">
    <ele>25.2</ele>
    <time>2026-09-17T08:35:22Z</time>
   </trkpt>
   <trkpt lat="22.7290990" lon="120.3361190">
    <ele>25.2</ele>
    <time>2026-09-17T08:35:23Z</time>
   </trkpt>
   <trkpt lat="22.7291010" lon="120.3361270">
    <ele>25.2</ele>
    <time>2026-09-17T08:35:24Z</time>
   </trkpt>
   <trkpt lat="22.7291090" lon="120.3361330">
    <ele>25.2</ele>
    <time>2026-09-17T08:35:25Z</time>
   </trkpt>
   <trkpt lat="22.7291070" lon="120.3361380">
    <ele>25.2</ele>
    <time>2026-09-17T08:35:26Z</time>
   </trkpt>
   <trkpt lat="22.7291100" lon="120.3361500">
    <ele>25.2</ele>
    <time>2026-09-17T08:35:27Z</time>
   </trkpt>
   <trkpt lat="22.7291050" lon="120.3361540">
    <ele>25.2</ele>
    <time>2026-09-17T08:35:28Z</time>
   </trkpt>
   <trkpt lat="22.7291060" lon="120.3361650">
    <ele>25.2</ele>
    <time>2026-09-17T08:35:29Z</time>
   </trkpt>
   <trkpt lat="22.7291090" lon="120.3361720">
    <ele>25.2</ele>
    <time>2026-09-17T08:35:30Z</time>
   </trkpt>
   <trkpt lat="22.7291140" lon="120.3361810">
    <ele>25.2</ele>
    <time>2026-09-17T08:35:31Z</time>
   </trkpt>
   <trkpt lat="22.7291180" lon="120.3361930">
    <ele>25.2</ele>
    <time>2026-09-17T08:35:32Z</time>
   </trkpt>
   <trkpt lat="22.7291210" lon="120.3362040">
    <ele>25.2</ele>
    <time>2026-09-17T08:35:33Z</time>
   </trkpt>
   <trkpt lat="22.7291210" lon="120.3362090">
    <ele>25.2</ele>
    <time>2026-09-17T08:35:34Z</time>
   </trkpt>
   <trkpt lat="22.7291310" lon="120.3362160">
    <ele>25.2</ele>
    <time>2026-09-17T08:35:35Z</time>
   </trkpt>
   <trkpt lat="22.7291430" lon="120.3362250">
    <ele>25.2</ele>
    <time>2026-09-17T08:35:36Z</time>
   </trkpt>
   <trkpt lat="22.7291510" lon="120.3362330">
    <ele>25.2</ele>
    <time>2026-09-17T08:35:37Z</time>
   </trkpt>
   <trkpt lat="22.7291550" lon="120.3362410">
    <ele>25.2</ele>
    <time>2026-09-17T08:35:38Z</time>
   </trkpt>
   <trkpt lat="22.7291570" lon="120.3362490">
    <ele>25.3</ele>
    <time>2026-09-17T08:35:39Z</time>
   </trkpt>
   <trkpt lat="22.7291670" lon="120.3362630">
    <ele>25.3</ele>
    <time>2026-09-17T08:35:40Z</time>
   </trkpt>
   <trkpt lat="22.7291720" lon="120.3362670">
    <ele>25.3</ele>
    <time>2026-09-17T08:35:41Z</time>
   </trkpt>
   <trkpt lat="22.7291830" lon="120.3362750">
    <ele>25.3</ele>
    <time>2026-09-17T08:35:42Z</time>
   </trkpt>
   <trkpt lat="22.7291930" lon="120.3362850">
    <ele>25.3</ele>
    <time>2026-09-17T08:35:43Z</time>
   </trkpt>
   <trkpt lat="22.7292000" lon="120.3362900">
    <ele>25.3</ele>
    <time>2026-09-17T08:35:44Z</time>
   </trkpt>
   <trkpt lat="22.7292050" lon="120.3362950">
    <ele>25.3</ele>
    <time>2026-09-17T08:35:45Z</time>
   </trkpt>
   <trkpt lat="22.7292100" lon="120.3363030">
    <ele>25.3</ele>
    <time>2026-09-17T08:35:46Z</time>
   </trkpt>
   <trkpt lat="22.7292310" lon="120.3363030">
    <ele>25.3</ele>
    <time>2026-09-17T08:35:47Z</time>
   </trkpt>
   <trkpt lat="22.7292380" lon="120.3363100">
    <ele>25.3</ele>
    <time>2026-09-17T08:35:48Z</time>
   </trkpt>
   <trkpt lat="22.7292450" lon="120.3363180">
    <ele>25.3</ele>
    <time>2026-09-17T08:35:49Z</time>
   </trkpt>
   <trkpt lat="22.7292490" lon="120.3363360">
    <ele>25.3</ele>
    <time>2026-09-17T08:35:50Z</time>
   </trkpt>
   <trkpt lat="22.7292550" lon="120.3363520">
    <ele>25.3</ele>
    <time>2026-09-17T08:35:51Z</time>
   </trkpt>
   <trkpt lat="22.7292540" lon="120.3363630">
    <ele>25.4</ele>
    <time>2026-09-17T08:35:52Z</time>
   </trkpt>
   <trkpt lat="22.7292610" lon="120.3363660">
    <ele>25.4</ele>
    <time>2026-09-17T08:35:53Z</time>
   </trkpt>
   <trkpt lat="22.7292680" lon="120.3363660">
    <ele>25.4</ele>
    <time>2026-09-17T08:35:54Z</time>
   </trkpt>
   <trkpt lat="22.7292790" lon="120.3363780">
    <ele>25.4</ele>
    <time>2026-09-17T08:35:55Z</time>
   </trkpt>
   <trkpt lat="22.7292870" lon="120.3363840">
    <ele>25.4</ele>
    <time>2026-09-17T08:35:56Z</time>
   </trkpt>
   <trkpt lat="22.7292950" lon="120.3363940">
    <ele>25.4</ele>
    <time>2026-09-17T08:35:57Z</time>
   </trkpt>
   <trkpt lat="22.7293030" lon="120.3364010">
    <ele>25.4</ele>
    <time>2026-09-17T08:35:58Z</time>
   </trkpt>
   <trkpt lat="22.7293080" lon="120.3364070">
    <ele>25.4</ele>
    <time>2026-09-17T08:35:59Z</time>
   </trkpt>
   <trkpt lat="22.7293040" lon="120.3364170">
    <ele>25.4</ele>
    <time>2026-09-17T08:36:00Z</time>
   </trkpt>
   <trkpt lat="22.7293020" lon="120.3364290">
    <ele>25.4</ele>
    <time>2026-09-17T08:36:01Z</time>
   </trkpt>
   <trkpt lat="22.7293040" lon="120.3364370">
    <ele>25.4</ele>
    <time>2026-09-17T08:36:02Z</time>
   </trkpt>
   <trkpt lat="22.7293140" lon="120.3364410">
    <ele>25.4</ele>
    <time>2026-09-17T08:36:03Z</time>
   </trkpt>
   <trkpt lat="22.7293230" lon="120.3364470">
    <ele>25.4</ele>
    <time>2026-09-17T08:36:04Z</time>
   </trkpt>
   <trkpt lat="22.7293290" lon="120.3364530">
    <ele>25.4</ele>
    <time>2026-09-17T08:36:05Z</time>
   </trkpt>
   <trkpt lat="22.7293340" lon="120.3364650">
    <ele>25.4</ele>
    <time>2026-09-17T08:36:06Z</time>
   </trkpt>
   <trkpt lat="22.7293400" lon="120.3364740">
    <ele>25.5</ele>
    <time>2026-09-17T08:36:07Z</time>
   </trkpt>
   <trkpt lat="22.7293480" lon="120.3364820">
    <ele>25.5</ele>
    <time>2026-09-17T08:36:08Z</time>
   </trkpt>
   <trkpt lat="22.7293530" lon="120.3364890">
    <ele>25.5</ele>
    <time>2026-09-17T08:36:09Z</time>
   </trkpt>
   <trkpt lat="22.7293560" lon="120.3364950">
    <ele>25.5</ele>
    <time>2026-09-17T08:36:10Z</time>
   </trkpt>
   <trkpt lat="22.7293610" lon="120.3365030">
    <ele>25.5</ele>
    <time>2026-09-17T08:36:11Z</time>
   </trkpt>
   <trkpt lat="22.7293640" lon="120.3365130">
    <ele>25.5</ele>
    <time>2026-09-17T08:36:12Z</time>
   </trkpt>
   <trkpt lat="22.7293670" lon="120.3365210">
    <ele>25.5</ele>
    <time>2026-09-17T08:36:13Z</time>
   </trkpt>
   <trkpt lat="22.7293720" lon="120.3365270">
    <ele>25.5</ele>
    <time>2026-09-17T08:36:14Z</time>
   </trkpt>
   <trkpt lat="22.7293760" lon="120.3365330">
    <ele>25.5</ele>
    <time>2026-09-17T08:36:15Z</time>
   </trkpt>
   <trkpt lat="22.7293800" lon="120.3365390">
    <ele>25.5</ele>
    <time>2026-09-17T08:36:16Z</time>
   </trkpt>
   <trkpt lat="22.7293830" lon="120.3365450">
    <ele>25.5</ele>
    <time>2026-09-17T08:36:17Z</time>
   </trkpt>
   <trkpt lat="22.7293860" lon="120.3365530">
    <ele>25.5</ele>
    <time>2026-09-17T08:36:18Z</time>
   </trkpt>
   <trkpt lat="22.7293920" lon="120.3365590">
    <ele>25.5</ele>
    <time>2026-09-17T08:36:19Z</time>
   </trkpt>
   <trkpt lat="22.7293950" lon="120.3365670">
    <ele>25.5</ele>
    <time>2026-09-17T08:36:20Z</time>
   </trkpt>
   <trkpt lat="22.7293990" lon="120.3365750">
    <ele>25.5</ele>
    <time>2026-09-17T08:36:21Z</time>
   </trkpt>
   <trkpt lat="22.7294070" lon="120.3365810">
    <ele>25.5</ele>
    <time>2026-09-17T08:36:22Z</time>
   </trkpt>
   <trkpt lat="22.7294130" lon="120.3365870">
    <ele>25.5</ele>
    <time>2026-09-17T08:36:23Z</time>
   </trkpt>
   <trkpt lat="22.7294230" lon="120.3365900">
    <ele>25.5</ele>
    <time>2026-09-17T08:36:24Z</time>
   </trkpt>
   <trkpt lat="22.7294340" lon="120.3365940">
    <ele>25.6</ele>
    <time>2026-09-17T08:36:25Z</time>
   </trkpt>
   <trkpt lat="22.7294430" lon="120.3366010">
    <ele>25.6</ele>
    <time>2026-09-17T08:36:26Z</time>
   </trkpt>
   <trkpt lat="22.7294500" lon="120.3366080">
    <ele>25.6</ele>
    <time>2026-09-17T08:36:27Z</time>
   </trkpt>
   <trkpt lat="22.7294560" lon="120.3366160">
    <ele>25.6</ele>
    <time>2026-09-17T08:36:28Z</time>
   </trkpt>
   <trkpt lat="22.7294600" lon="120.3366250">
    <ele>25.6</ele>
    <time>2026-09-17T08:36:29Z</time>
   </trkpt>
   <trkpt lat="22.7294660" lon="120.3366320">
    <ele>25.6</ele>
    <time>2026-09-17T08:36:30Z</time>
   </trkpt>
   <trkpt lat="22.7294730" lon="120.3366450">
    <ele>25.6</ele>
    <time>2026-09-17T08:36:31Z</time>
   </trkpt>
   <trkpt lat="22.7294770" lon="120.3366530">
    <ele>25.6</ele>
    <time>2026-09-17T08:36:32Z</time>
   </trkpt>
   <trkpt lat="22.7294810" lon="120.3366600">
    <ele>25.6</ele>
    <time>2026-09-17T08:36:33Z</time>
   </trkpt>
   <trkpt lat="22.7294860" lon="120.3366670">
    <ele>25.6</ele>
    <time>2026-09-17T08:36:34Z</time>
   </trkpt>
   <trkpt lat="22.7294910" lon="120.3366740">
    <ele>25.6</ele>
    <time>2026-09-17T08:36:35Z</time>
   </trkpt>
   <trkpt lat="22.7294950" lon="120.3366820">
    <ele>25.6</ele>
    <time>2026-09-17T08:36:36Z</time>
   </trkpt>
   <trkpt lat="22.7295010" lon="120.3366910">
    <ele>25.6</ele>
    <time>2026-09-17T08:36:37Z</time>
   </trkpt>
   <trkpt lat="22.7295040" lon="120.3366980">
    <ele>25.6</ele>
    <time>2026-09-17T08:36:39Z</time>
   </trkpt>
   <trkpt lat="22.7295080" lon="120.3367020">
    <ele>25.6</ele>
    <time>2026-09-17T08:36:40Z</time>
   </trkpt>
   <trkpt lat="22.7295120" lon="120.3367100">
    <ele>25.6</ele>
    <time>2026-09-17T08:36:41Z</time>
   </trkpt>
   <trkpt lat="22.7295160" lon="120.3367190">
    <ele>25.7</ele>
    <time>2026-09-17T08:36:42Z</time>
   </trkpt>
   <trkpt lat="22.7295200" lon="120.3367260">
    <ele>25.7</ele>
    <time>2026-09-17T08:36:43Z</time>
   </trkpt>
   <trkpt lat="22.7295250" lon="120.3367320">
    <ele>25.7</ele>
    <time>2026-09-17T08:36:44Z</time>
   </trkpt>
   <trkpt lat="22.7295290" lon="120.3367390">
    <ele>25.7</ele>
    <time>2026-09-17T08:36:45Z</time>
   </trkpt>
   <trkpt lat="22.7295340" lon="120.3367470">
    <ele>25.7</ele>
    <time>2026-09-17T08:36:46Z</time>
   </trkpt>
   <trkpt lat="22.7295370" lon="120.3367550">
    <ele>25.7</ele>
    <time>2026-09-17T08:36:47Z</time>
   </trkpt>
   <trkpt lat="22.7295370" lon="120.3367630">
    <ele>25.7</ele>
    <time>2026-09-17T08:36:48Z</time>
   </trkpt>
   <trkpt lat="22.7295400" lon="120.3367730">
    <ele>25.7</ele>
    <time>2026-09-17T08:36:49Z</time>
   </trkpt>
   <trkpt lat="22.7295450" lon="120.3367840">
    <ele>25.7</ele>
    <time>2026-09-17T08:36:50Z</time>
   </trkpt>
   <trkpt lat="22.7295470" lon="120.3367930">
    <ele>25.7</ele>
    <time>2026-09-17T08:36:51Z</time>
   </trkpt>
   <trkpt lat="22.7295470" lon="120.3367980">
    <ele>25.7</ele>
    <time>2026-09-17T08:36:52Z</time>
   </trkpt>
   <trkpt lat="22.7295460" lon="120.3368070">
    <ele>25.7</ele>
    <time>2026-09-17T08:36:53Z</time>
   </trkpt>
   <trkpt lat="22.7295510" lon="120.3368150">
    <ele>25.7</ele>
    <time>2026-09-17T08:36:54Z</time>
   </trkpt>
   <trkpt lat="22.7295550" lon="120.3368130">
    <ele>25.7</ele>
    <time>2026-09-17T08:36:55Z</time>
   </trkpt>
   <trkpt lat="22.7295580" lon="120.3368120">
    <ele>25.7</ele>
    <time>2026-09-17T08:36:56Z</time>
   </trkpt>
   <trkpt lat="22.7295510" lon="120.3368140">
    <ele>25.7</ele>
    <time>2026-09-17T08:36:57Z</time>
   </trkpt>
   <trkpt lat="22.7295450" lon="120.3368150">
    <ele>25.7</ele>
    <time>2026-09-17T08:36:58Z</time>
   </trkpt>
   <trkpt lat="22.7295470" lon="120.3368150">
    <ele>25.7</ele>
    <time>2026-09-17T08:36:59Z</time>
   </trkpt>
   <trkpt lat="22.7295460" lon="120.3368150">
    <ele>25.7</ele>
    <time>2026-09-17T08:37:00Z</time>
   </trkpt>
   <trkpt lat="22.7295460" lon="120.3368150">
    <ele>25.7</ele>
    <time>2026-09-17T08:37:01Z</time>
   </trkpt>
   <trkpt lat="22.7295460" lon="120.3368140">
    <ele>25.7</ele>
    <time>2026-09-17T08:37:02Z</time>
   </trkpt>
   <trkpt lat="22.7295460" lon="120.3368140">
    <ele>25.7</ele>
    <time>2026-09-17T08:37:03Z</time>
   </trkpt>
   <trkpt lat="22.7295590" lon="120.3368510">
    <ele>25.8</ele>
    <time>2026-09-17T08:37:22Z</time>
   </trkpt>
   <trkpt lat="22.7295800" lon="120.3368820">
    <ele>25.8</ele>
    <time>2026-09-17T08:37:23Z</time>
   </trkpt>
   <trkpt lat="22.7296030" lon="120.3369160">
    <ele>25.8</ele>
    <time>2026-09-17T08:37:24Z</time>
   </trkpt>
   <trkpt lat="22.7296180" lon="120.3369370">
    <ele>25.8</ele>
    <time>2026-09-17T08:37:25Z</time>
   </trkpt>
   <trkpt lat="22.7296290" lon="120.3369520">
    <ele>25.8</ele>
    <time>2026-09-17T08:37:26Z</time>
   </trkpt>
   <trkpt lat="22.7296420" lon="120.3369610">
    <ele>25.8</ele>
    <time>2026-09-17T08:37:27Z</time>
   </trkpt>
   <trkpt lat="22.7296660" lon="120.3369680">
    <ele>25.9</ele>
    <time>2026-09-17T08:37:28Z</time>
   </trkpt>
   <trkpt lat="22.7297100" lon="120.3369660">
    <ele>25.9</ele>
    <time>2026-09-17T08:37:29Z</time>
   </trkpt>
   <trkpt lat="22.7297510" lon="120.3369440">
    <ele>25.9</ele>
    <time>2026-09-17T08:37:30Z</time>
   </trkpt>
   <trkpt lat="22.7297910" lon="120.3369150">
    <ele>25.9</ele>
    <time>2026-09-17T08:37:31Z</time>
   </trkpt>
   <trkpt lat="22.7298250" lon="120.3368910">
    <ele>25.9</ele>
    <time>2026-09-17T08:37:32Z</time>
   </trkpt>
   <trkpt lat="22.7298460" lon="120.3368640">
    <ele>25.9</ele>
    <time>2026-09-17T08:37:33Z</time>
   </trkpt>
   <trkpt lat="22.7298680" lon="120.3368460">
    <ele>25.9</ele>
    <time>2026-09-17T08:37:34Z</time>
   </trkpt>
   <trkpt lat="22.7298840" lon="120.3368380">
    <ele>25.9</ele>
    <time>2026-09-17T08:37:35Z</time>
   </trkpt>
   <trkpt lat="22.7298960" lon="120.3368260">
    <ele>25.9</ele>
    <time>2026-09-17T08:37:36Z</time>
   </trkpt>
   <trkpt lat="22.7298960" lon="120.3368260">
    <ele>25.9</ele>
    <time>2026-09-17T08:37:37Z</time>
   </trkpt>
   <trkpt lat="22.7298990" lon="120.3368200">
    <ele>25.9</ele>
    <time>2026-09-17T08:37:38Z</time>
   </trkpt>
   <trkpt lat="22.7299130" lon="120.3368070">
    <ele>25.9</ele>
    <time>2026-09-17T08:37:39Z</time>
   </trkpt>
   <trkpt lat="22.7299340" lon="120.3367790">
    <ele>25.7</ele>
    <time>2026-09-17T08:37:40Z</time>
   </trkpt>
   <trkpt lat="22.7299490" lon="120.3367560">
    <ele>25.7</ele>
    <time>2026-09-17T08:37:41Z</time>
   </trkpt>
   <trkpt lat="22.7299640" lon="120.3367260">
    <ele>25.7</ele>
    <time>2026-09-17T08:37:42Z</time>
   </trkpt>
   <trkpt lat="22.7299730" lon="120.3367060">
    <ele>25.7</ele>
    <time>2026-09-17T08:37:43Z</time>
   </trkpt>
   <trkpt lat="22.7299670" lon="120.3366940">
    <ele>25.7</ele>
    <time>2026-09-17T08:37:44Z</time>
   </trkpt>
   <trkpt lat="22.7299530" lon="120.3366840">
    <ele>25.7</ele>
    <time>2026-09-17T08:37:45Z</time>
   </trkpt>
   <trkpt lat="22.7299340" lon="120.3366790">
    <ele>25.7</ele>
    <time>2026-09-17T08:37:46Z</time>
   </trkpt>
   <trkpt lat="22.7299240" lon="120.3366960">
    <ele>25.7</ele>
    <time>2026-09-17T08:37:47Z</time>
   </trkpt>
   <trkpt lat="22.7299110" lon="120.3367040">
    <ele>25.7</ele>
    <time>2026-09-17T08:37:48Z</time>
   </trkpt>
   <trkpt lat="22.7299080" lon="120.3367120">
    <ele>25.6</ele>
    <time>2026-09-17T08:37:49Z</time>
   </trkpt>
   <trkpt lat="22.7299150" lon="120.3367210">
    <ele>25.6</ele>
    <time>2026-09-17T08:37:50Z</time>
   </trkpt>
   <trkpt lat="22.7299190" lon="120.3367240">
    <ele>25.6</ele>
    <time>2026-09-17T08:37:51Z</time>
   </trkpt>
   <trkpt lat="22.7299180" lon="120.3367250">
    <ele>25.6</ele>
    <time>2026-09-17T08:37:52Z</time>
   </trkpt>
   <trkpt lat="22.7299170" lon="120.3367240">
    <ele>25.6</ele>
    <time>2026-09-17T08:37:53Z</time>
   </trkpt>
   <trkpt lat="22.7299170" lon="120.3367230">
    <ele>25.6</ele>
    <time>2026-09-17T08:37:54Z</time>
   </trkpt>
   <trkpt lat="22.7299200" lon="120.3367240">
    <ele>25.6</ele>
    <time>2026-09-17T08:37:55Z</time>
   </trkpt>
   <trkpt lat="22.7299240" lon="120.3367280">
    <ele>25.6</ele>
    <time>2026-09-17T08:37:56Z</time>
   </trkpt>
   <trkpt lat="22.7299200" lon="120.3367270">
    <ele>25.6</ele>
    <time>2026-09-17T08:37:57Z</time>
   </trkpt>
   <trkpt lat="22.7299200" lon="120.3367290">
    <ele>25.6</ele>
    <time>2026-09-17T08:37:58Z</time>
   </trkpt>
   <trkpt lat="22.7300060" lon="120.3367330">
    <ele>25.6</ele>
    <time>2026-09-17T08:39:53Z</time>
   </trkpt>
   <trkpt lat="22.7300060" lon="120.3367460">
    <ele>25.6</ele>
    <time>2026-09-17T08:39:54Z</time>
   </trkpt>
   <trkpt lat="22.7300020" lon="120.3367340">
    <ele>25.6</ele>
    <time>2026-09-17T08:39:55Z</time>
   </trkpt>
   <trkpt lat="22.7299920" lon="120.3367360">
    <ele>25.6</ele>
    <time>2026-09-17T08:39:56Z</time>
   </trkpt>
   <trkpt lat="22.7299890" lon="120.3367370">
    <ele>25.6</ele>
    <time>2026-09-17T08:39:57Z</time>
   </trkpt>
   <trkpt lat="22.7299850" lon="120.3367420">
    <ele>25.6</ele>
    <time>2026-09-17T08:39:58Z</time>
   </trkpt>
   <trkpt lat="22.7299830" lon="120.3367540">
    <ele>25.6</ele>
    <time>2026-09-17T08:39:59Z</time>
   </trkpt>
   <trkpt lat="22.7299800" lon="120.3367590">
    <ele>25.6</ele>
    <time>2026-09-17T08:40:00Z</time>
   </trkpt>
   <trkpt lat="22.7299750" lon="120.3367600">
    <ele>25.6</ele>
    <time>2026-09-17T08:40:01Z</time>
   </trkpt>
   <trkpt lat="22.7299690" lon="120.3367670">
    <ele>25.6</ele>
    <time>2026-09-17T08:40:02Z</time>
   </trkpt>
   <trkpt lat="22.7299590" lon="120.3367690">
    <ele>25.6</ele>
    <time>2026-09-17T08:40:03Z</time>
   </trkpt>
   <trkpt lat="22.7299530" lon="120.3367730">
    <ele>25.6</ele>
    <time>2026-09-17T08:40:04Z</time>
   </trkpt>
   <trkpt lat="22.7299450" lon="120.3367760">
    <ele>25.6</ele>
    <time>2026-09-17T08:40:05Z</time>
   </trkpt>
   <trkpt lat="22.7299380" lon="120.3367810">
    <ele>25.6</ele>
    <time>2026-09-17T08:40:06Z</time>
   </trkpt>
   <trkpt lat="22.7299340" lon="120.3367840">
    <ele>25.6</ele>
    <time>2026-09-17T08:40:07Z</time>
   </trkpt>
   <trkpt lat="22.7299300" lon="120.3367870">
    <ele>25.6</ele>
    <time>2026-09-17T08:40:08Z</time>
   </trkpt>
   <trkpt lat="22.7299290" lon="120.3367890">
    <ele>25.6</ele>
    <time>2026-09-17T08:40:09Z</time>
   </trkpt>
   <trkpt lat="22.7299310" lon="120.3367900">
    <ele>25.6</ele>
    <time>2026-09-17T08:40:10Z</time>
   </trkpt>
   <trkpt lat="22.7299350" lon="120.3368020">
    <ele>25.6</ele>
    <time>2026-09-17T08:40:11Z</time>
   </trkpt>
   <trkpt lat="22.7299360" lon="120.3367990">
    <ele>25.6</ele>
    <time>2026-09-17T08:40:12Z</time>
   </trkpt>
   <trkpt lat="22.7299380" lon="120.3367960">
    <ele>25.6</ele>
    <time>2026-09-17T08:40:13Z</time>
   </trkpt>
   <trkpt lat="22.7299390" lon="120.3367880">
    <ele>25.6</ele>
    <time>2026-09-17T08:40:14Z</time>
   </trkpt>
   <trkpt lat="22.7299370" lon="120.3367830">
    <ele>25.6</ele>
    <time>2026-09-17T08:40:15Z</time>
   </trkpt>
   <trkpt lat="22.7299360" lon="120.3367780">
    <ele>25.6</ele>
    <time>2026-09-17T08:40:16Z</time>
   </trkpt>
   <trkpt lat="22.7299370" lon="120.3367740">
    <ele>25.6</ele>
    <time>2026-09-17T08:40:17Z</time>
   </trkpt>
   <trkpt lat="22.7299370" lon="120.3367700">
    <ele>25.6</ele>
    <time>2026-09-17T08:40:18Z</time>
   </trkpt>
   <trkpt lat="22.7299370" lon="120.3367680">
    <ele>25.6</ele>
    <time>2026-09-17T08:40:19Z</time>
   </trkpt>
   <trkpt lat="22.7299350" lon="120.3367660">
    <ele>25.6</ele>
    <time>2026-09-17T08:40:20Z</time>
   </trkpt>
  </trkseg>
 </trk>
</gpx>
