<?xml version="1.0" encoding="UTF-8"?>
<gpx creator="StravaGPX" version="1.1" xmlns="http://www.topografix.com/GPX/1/1" xmlns:xsi="http://www.w3.org/2001/XMLSchema-instance" xsi:schemaLocation="http://www.topografix.com/GPX/1/1 http://www.topografix.com/GPX/1/1/gpx.xsd">
 <metadata>
  <time>2026-09-18T12:33:22Z</time>
 </metadata>
 <trk>
  <name>傍晚騎車</name>
  <type>cycling</type>
  <trkseg>
   <trkpt lat="22.7282030" lon="120.3001630">
    <ele>17.0</ele>
    <time>2026-09-18T12:33:22Z</time>
   </trkpt>
   <trkpt lat="22.7282090" lon="120.3001620">
    <ele>17.0</ele>
    <time>2026-09-18T12:33:23Z</time>
   </trkpt>
   <trkpt lat="22.7282000" lon="120.3001540">
    <ele>17.0</ele>
    <time>2026-09-18T12:33:24Z</time>
   </trkpt>
   <trkpt lat="22.7281970" lon="120.3001480">
    <ele>17.0</ele>
    <time>2026-09-18T12:33:25Z</time>
   </trkpt>
   <trkpt lat="22.7281990" lon="120.3001470">
    <ele>17.0</ele>
    <time>2026-09-18T12:33:26Z</time>
   </trkpt>
   <trkpt lat="22.7282120" lon="120.3001440">
    <ele>17.0</ele>
    <time>2026-09-18T12:33:27Z</time>
   </trkpt>
   <trkpt lat="22.7282200" lon="120.3001420">
    <ele>17.0</ele>
    <time>2026-09-18T12:33:28Z</time>
   </trkpt>
   <trkpt lat="22.7282380" lon="120.3001400">
    <ele>17.0</ele>
    <time>2026-09-18T12:33:29Z</time>
   </trkpt>
   <trkpt lat="22.7282430" lon="120.3001410">
    <ele>17.0</ele>
    <time>2026-09-18T12:33:30Z</time>
   </trkpt>
   <trkpt lat="22.7282430" lon="120.3001430">
    <ele>17.0</ele>
    <time>2026-09-18T12:33:31Z</time>
   </trkpt>
   <trkpt lat="22.7282320" lon="120.3001480">
    <ele>17.0</ele>
    <time>2026-09-18T12:33:32Z</time>
   </trkpt>
   <trkpt lat="22.7282250" lon="120.3001510">
    <ele>17.0</ele>
    <time>2026-09-18T12:33:33Z</time>
   </trkpt>
   <trkpt lat="22.7282200" lon="120.3001530">
    <ele>17.0</ele>
    <time>2026-09-18T12:33:34Z</time>
   </trkpt>
   <trkpt lat="22.7282180" lon="120.3001540">
    <ele>17.0</ele>
    <time>2026-09-18T12:33:35Z</time>
   </trkpt>
   <trkpt lat="22.7282180" lon="120.3001540">
    <ele>17.0</ele>
    <time>2026-09-18T12:33:36Z</time>
   </trkpt>
   <trkpt lat="22.7282110" lon="120.3001540">
    <ele>17.0</ele>
    <time>2026-09-18T12:33:37Z</time>
   </trkpt>
   <trkpt lat="22.7282110" lon="120.3001540">
    <ele>17.0</ele>
    <time>2026-09-18T12:33:38Z</time>
   </trkpt>
   <trkpt lat="22.7282060" lon="120.3001530">
    <ele>17.0</ele>
    <time>2026-09-18T12:33:39Z</time>
   </trkpt>
   <trkpt lat="22.7282060" lon="120.3001530">
    <ele>17.0</ele>
    <time>2026-09-18T12:33:40Z</time>
   </trkpt>
   <trkpt lat="22.7282070" lon="120.3001520">
    <ele>17.0</ele>
    <time>2026-09-18T12:33:41Z</time>
   </trkpt>
   <trkpt lat="22.7282060" lon="120.3001520">
    <ele>17.0</ele>
    <time>2026-09-18T12:33:42Z</time>
   </trkpt>
   <trkpt lat="22.7282040" lon="120.3001530">
    <ele>17.0</ele>
    <time>2026-09-18T12:33:43Z</time>
   </trkpt>
   <trkpt lat="22.7282200" lon="120.3001990">
    <ele>17.0</ele>
    <time>2026-09-18T12:34:05Z</time>
   </trkpt>
   <trkpt lat="22.7282130" lon="120.3002120">
    <ele>17.0</ele>
    <time>2026-09-18T12:34:06Z</time>
   </trkpt>
   <trkpt lat="22.7282070" lon="120.3002330">
    <ele>16.9</ele>
    <time>2026-09-18T12:34:07Z</time>
   </trkpt>
   <trkpt lat="22.7282220" lon="120.3002300">
    <ele>16.9</ele>
    <time>2026-09-18T12:34:08Z</time>
   </trkpt>
   <trkpt lat="22.7282330" lon="120.3002400">
    <ele>16.9</ele>
    <time>2026-09-18T12:34:09Z</time>
   </trkpt>
   <trkpt lat="22.7282340" lon="120.3002450">
    <ele>16.9</ele>
    <time>2026-09-18T12:34:10Z</time>
   </trkpt>
   <trkpt lat="22.7282440" lon="120.3002430">
    <ele>16.9</ele>
    <time>2026-09-18T12:34:11Z</time>
   </trkpt>
   <trkpt lat="22.7282710" lon="120.3002610">
    <ele>16.9</ele>
    <time>2026-09-18T12:34:12Z</time>
   </trkpt>
   <trkpt lat="22.7282770" lon="120.3002630">
    <ele>16.9</ele>
    <time>2026-09-18T12:34:13Z</time>
   </trkpt>
   <trkpt lat="22.7282960" lon="120.3002810">
    <ele>16.9</ele>
    <time>2026-09-18T12:34:14Z</time>
   </trkpt>
   <trkpt lat="22.7283030" lon="120.3002900">
    <ele>16.9</ele>
    <time>2026-09-18T12:34:15Z</time>
   </trkpt>
   <trkpt lat="22.7282880" lon="120.3003100">
    <ele>16.9</ele>
    <time>2026-09-18T12:34:16Z</time>
   </trkpt>
   <trkpt lat="22.7282910" lon="120.3003150">
    <ele>16.9</ele>
    <time>2026-09-18T12:34:17Z</time>
   </trkpt>
   <trkpt lat="22.7283090" lon="120.3003160">
    <ele>16.9</ele>
    <time>2026-09-18T12:34:18Z</time>
   </trkpt>
   <trkpt lat="22.7283110" lon="120.3003310">
    <ele>16.9</ele>
    <time>2026-09-18T12:34:19Z</time>
   </trkpt>
   <trkpt lat="22.7283000" lon="120.3003500">
    <ele>16.9</ele>
    <time>2026-09-18T12:34:20Z</time>
   </trkpt>
   <trkpt lat="22.7283010" lon="120.3003630">
    <ele>16.9</ele>
    <time>2026-09-18T12:34:21Z</time>
   </trkpt>
   <trkpt lat="22.7282960" lon="120.3003530">
    <ele>16.9</ele>
    <time>2026-09-18T12:34:22Z</time>
   </trkpt>
   <trkpt lat="22.7282840" lon="120.3003500">
    <ele>16.9</ele>
    <time>2026-09-18T12:34:23Z</time>
   </trkpt>
   <trkpt lat="22.7282790" lon="120.3003500">
    <ele>16.9</ele>
    <time>2026-09-18T12:34:24Z</time>
   </trkpt>
   <trkpt lat="22.7282770" lon="120.3003530">
    <ele>16.9</ele>
    <time>2026-09-18T12:34:25Z</time>
   </trkpt>
   <trkpt lat="22.7282790" lon="120.3003540">
    <ele>16.9</ele>
    <time>2026-09-18T12:34:26Z</time>
   </trkpt>
   <trkpt lat="22.7282900" lon="120.3003590">
    <ele>16.9</ele>
    <time>2026-09-18T12:34:27Z</time>
   </trkpt>
   <trkpt lat="22.7282980" lon="120.3003540">
    <ele>16.9</ele>
    <time>2026-09-18T12:34:28Z</time>
   </trkpt>
   <trkpt lat="22.7282880" lon="120.3003710">
    <ele>16.9</ele>
    <time>2026-09-18T12:34:29Z</time>
   </trkpt>
   <trkpt lat="22.7282860" lon="120.3003860">
    <ele>16.9</ele>
    <time>2026-09-18T12:34:30Z</time>
   </trkpt>
   <trkpt lat="22.7282950" lon="120.3003970">
    <ele>16.9</ele>
    <time>2026-09-18T12:34:31Z</time>
   </trkpt>
   <trkpt lat="22.7283000" lon="120.3004100">
    <ele>16.9</ele>
    <time>2026-09-18T12:34:32Z</time>
   </trkpt>
   <trkpt lat="22.7283010" lon="120.3004190">
    <ele>16.9</ele>
    <time>2026-09-18T12:34:33Z</time>
   </trkpt>
   <trkpt lat="22.7282860" lon="120.3004160">
    <ele>16.9</ele>
    <time>2026-09-18T12:34:34Z</time>
   </trkpt>
   <trkpt lat="22.7282780" lon="120.3003870">
    <ele>16.9</ele>
    <time>2026-09-18T12:34:35Z</time>
   </trkpt>
   <trkpt lat="22.7282680" lon="120.3003730">
    <ele>16.9</ele>
    <time>2026-09-18T12:34:36Z</time>
   </trkpt>
   <trkpt lat="22.7282670" lon="120.3003670">
    <ele>16.9</ele>
    <time>2026-09-18T12:34:37Z</time>
   </trkpt>
   <trkpt lat="22.7282680" lon="120.3003810">
    <ele>16.9</ele>
    <time>2026-09-18T12:34:38Z</time>
   </trkpt>
   <trkpt lat="22.7282700" lon="120.3003860">
    <ele>16.9</ele>
    <time>2026-09-18T12:34:39Z</time>
   </trkpt>
   <trkpt lat="22.7282640" lon="120.3003880">
    <ele>16.9</ele>
    <time>2026-09-18T12:34:40Z</time>
   </trkpt>
   <trkpt lat="22.7282490" lon="120.3003860">
    <ele>16.8</ele>
    <time>2026-09-18T12:34:41Z</time>
   </trkpt>
   <trkpt lat="22.7282510" lon="120.3003900">
    <ele>16.8</ele>
    <time>2026-09-18T12:34:42Z</time>
   </trkpt>
   <trkpt lat="22.7282480" lon="120.3003870">
    <ele>16.8</ele>
    <time>2026-09-18T12:34:43Z</time>
   </trkpt>
   <trkpt lat="22.7282450" lon="120.3003900">
    <ele>16.8</ele>
    <time>2026-09-18T12:34:44Z</time>
   </trkpt>
   <trkpt lat="22.7282450" lon="120.3003900">
    <ele>16.8</ele>
    <time>2026-09-18T12:34:45Z</time>
   </trkpt>
   <trkpt lat="22.7282410" lon="120.3003910">
    <ele>16.8</ele>
    <time>2026-09-18T12:34:46Z</time>
   </trkpt>
   <trkpt lat="22.7282420" lon="120.3003920">
    <ele>16.8</ele>
    <time>2026-09-18T12:34:47Z</time>
   </trkpt>
   <trkpt lat="22.7282510" lon="120.3003890">
    <ele>16.8</ele>
    <time>2026-09-18T12:34:48Z</time>
   </trkpt>
   <trkpt lat="22.7282510" lon="120.3003890">
    <ele>16.8</ele>
    <time>2026-09-18T12:34:49Z</time>
   </trkpt>
   <trkpt lat="22.7282510" lon="120.3003900">
    <ele>16.8</ele>
    <time>2026-09-18T12:34:50Z</time>
   </trkpt>
   <trkpt lat="22.7282520" lon="120.3003890">
    <ele>16.8</ele>
    <time>2026-09-18T12:34:51Z</time>
   </trkpt>
   <trkpt lat="22.7282590" lon="120.3004000">
    <ele>16.8</ele>
    <time>2026-09-18T12:35:04Z</time>
   </trkpt>
   <trkpt lat="22.7282660" lon="120.3003960">
    <ele>16.8</ele>
    <time>2026-09-18T12:35:05Z</time>
   </trkpt>
   <trkpt lat="22.7282660" lon="120.3003950">
    <ele>16.8</ele>
    <time>2026-09-18T12:35:06Z</time>
   </trkpt>
   <trkpt lat="22.7282630" lon="120.3003970">
    <ele>16.8</ele>
    <time>2026-09-18T12:35:07Z</time>
   </trkpt>
   <trkpt lat="22.7282630" lon="120.3003940">
    <ele>16.8</ele>
    <time>2026-09-18T12:35:08Z</time>
   </trkpt>
   <trkpt lat="22.7282650" lon="120.3003900">
    <ele>16.8</ele>
    <time>2026-09-18T12:35:09Z</time>
   </trkpt>
   <trkpt lat="22.7282680" lon="120.3003930">
    <ele>16.8</ele>
    <time>2026-09-18T12:35:10Z</time>
   </trkpt>
   <trkpt lat="22.7282550" lon="120.3003930">
    <ele>16.8</ele>
    <time>2026-09-18T12:35:11Z</time>
   </trkpt>
   <trkpt lat="22.7282520" lon="120.3003960">
    <ele>16.8</ele>
    <time>2026-09-18T12:35:12Z</time>
   </trkpt>
   <trkpt lat="22.7282580" lon="120.3004070">
    <ele>16.8</ele>
    <time>2026-09-18T12:35:13Z</time>
   </trkpt>
   <trkpt lat="22.7283090" lon="120.3004630">
    <ele>16.8</ele>
    <time>2026-09-18T12:35:19Z</time>
   </trkpt>
   <trkpt lat="22.7283220" lon="120.3004670">
    <ele>16.8</ele>
    <time>2026-09-18T12:35:20Z</time>
   </trkpt>
   <trkpt lat="22.7283310" lon="120.3004790">
    <ele>16.8</ele>
    <time>2026-09-18T12:35:21Z</time>
   </trkpt>
   <trkpt lat="22.7283360" lon="120.3004870">
    <ele>16.8</ele>
    <time>2026-09-18T12:35:22Z</time>
   </trkpt>
   <trkpt lat="22.7283410" lon="120.3004970">
    <ele>16.8</ele>
    <time>2026-09-18T12:35:23Z</time>
   </trkpt>
   <trkpt lat="22.7283450" lon="120.3005090">
    <ele>16.8</ele>
    <time>2026-09-18T12:35:24Z</time>
   </trkpt>
   <trkpt lat="22.7283500" lon="120.3005190">
    <ele>16.8</ele>
    <time>2026-09-18T12:35:25Z</time>
   </trkpt>
   <trkpt lat="22.7283470" lon="120.3005320">
    <ele>16.8</ele>
    <time>2026-09-18T12:35:26Z</time>
   </trkpt>
   <trkpt lat="22.7283560" lon="120.3005420">
    <ele>16.8</ele>
    <time>2026-09-18T12:35:27Z</time>
   </trkpt>
   <trkpt lat="22.7283610" lon="120.3005520">
    <ele>16.8</ele>
    <time>2026-09-18T12:35:28Z</time>
   </trkpt>
   <trkpt lat="22.7283620" lon="120.3005650">
    <ele>16.8</ele>
    <time>2026-09-18T12:35:29Z</time>
   </trkpt>
   <trkpt lat="22.7283550" lon="120.3005790">
    <ele>16.8</ele>
    <time>2026-09-18T12:35:30Z</time>
   </trkpt>
   <trkpt lat="22.7283490" lon="120.3005920">
    <ele>16.8</ele>
    <time>2026-09-18T12:35:31Z</time>
   </trkpt>
   <trkpt lat="22.7283450" lon="120.3005980">
    <ele>16.8</ele>
    <time>2026-09-18T12:35:32Z</time>
   </trkpt>
   <trkpt lat="22.7283460" lon="120.3006010">
    <ele>16.8</ele>
    <time>2026-09-18T12:35:33Z</time>
   </trkpt>
   <trkpt lat="22.7283440" lon="120.3006010">
    <ele>16.8</ele>
    <time>2026-09-18T12:35:34Z</time>
   </trkpt>
   <trkpt lat="22.7283430" lon="120.3006000">
    <ele>16.8</ele>
    <time>2026-09-18T12:35:35Z</time>
   </trkpt>
   <trkpt lat="22.7283400" lon="120.3006000">
    <ele>16.8</ele>
    <time>2026-09-18T12:35:36Z</time>
   </trkpt>
   <trkpt lat="22.7283370" lon="120.3006020">
    <ele>16.8</ele>
    <time>2026-09-18T12:35:37Z</time>
   </trkpt>
   <trkpt lat="22.7283360" lon="120.3006040">
    <ele>16.8</ele>
    <time>2026-09-18T12:35:38Z</time>
   </trkpt>
   <trkpt lat="22.7283370" lon="120.3006040">
    <ele>16.8</ele>
    <time>2026-09-18T12:35:39Z</time>
   </trkpt>
   <trkpt lat="22.7283350" lon="120.3006040">
    <ele>16.8</ele>
    <time>2026-09-18T12:35:40Z</time>
   </trkpt>
   <trkpt lat="22.7283340" lon="120.3006060">
    <ele>16.8</ele>
    <time>2026-09-18T12:35:41Z</time>
   </trkpt>
   <trkpt lat="22.7283330" lon="120.3006190">
    <ele>16.8</ele>
    <time>2026-09-18T12:35:42Z</time>
   </trkpt>
   <trkpt lat="22.7283410" lon="120.3006450">
    <ele>16.8</ele>
    <time>2026-09-18T12:35:43Z</time>
   </trkpt>
   <trkpt lat="22.7283460" lon="120.3006580">
    <ele>16.8</ele>
    <time>2026-09-18T12:35:44Z</time>
   </trkpt>
   <trkpt lat="22.7283510" lon="120.3006590">
    <ele>16.8</ele>
    <time>2026-09-18T12:35:45Z</time>
   </trkpt>
   <trkpt lat="22.7283520" lon="120.3006590">
    <ele>16.8</ele>
    <time>2026-09-18T12:35:46Z</time>
   </trkpt>
   <trkpt lat="22.7283460" lon="120.3006620">
    <ele>16.8</ele>
    <time>2026-09-18T12:35:47Z</time>
   </trkpt>
   <trkpt lat="22.7283410" lon="120.3006700">
    <ele>16.8</ele>
    <time>2026-09-18T12:35:48Z</time>
   </trkpt>
   <trkpt lat="22.7283330" lon="120.3006750">
    <ele>16.8</ele>
    <time>2026-09-18T12:35:49Z</time>
   </trkpt>
   <trkpt lat="22.7283320" lon="120.3006850">
    <ele>16.8</ele>
    <time>2026-09-18T12:35:50Z</time>
   </trkpt>
   <trkpt lat="22.7283320" lon="120.3007070">
    <ele>16.8</ele>
    <time>2026-09-18T12:35:51Z</time>
   </trkpt>
   <trkpt lat="22.7283270" lon="120.3007170">
    <ele>16.8</ele>
    <time>2026-09-18T12:35:52Z</time>
   </trkpt>
   <trkpt lat="22.7283290" lon="120.3007250">
    <ele>16.8</ele>
    <time>2026-09-18T12:35:53Z</time>
   </trkpt>
   <trkpt lat="22.7283200" lon="120.3007250">
    <ele>16.8</ele>
    <time>2026-09-18T12:35:54Z</time>
   </trkpt>
   <trkpt lat="22.7283120" lon="120.3007340">
    <ele>16.8</ele>
    <time>2026-09-18T12:35:55Z</time>
   </trkpt>
   <trkpt lat="22.7283060" lon="120.3007330">
    <ele>16.8</ele>
    <time>2026-09-18T12:35:56Z</time>
   </trkpt>
   <trkpt lat="22.7283080" lon="120.3007470">
    <ele>16.8</ele>
    <time>2026-09-18T12:35:57Z</time>
   </trkpt>
   <trkpt lat="22.7283080" lon="120.3007680">
    <ele>16.8</ele>
    <time>2026-09-18T12:35:58Z</time>
   </trkpt>
   <trkpt lat="22.7283170" lon="120.3007740">
    <ele>16.8</ele>
    <time>2026-09-18T12:35:59Z</time>
   </trkpt>
   <trkpt lat="22.7283040" lon="120.3007700">
    <ele>16.8</ele>
    <time>2026-09-18T12:36:00Z</time>
   </trkpt>
   <trkpt lat="22.7282980" lon="120.3007660">
    <ele>16.8</ele>
    <time>2026-09-18T12:36:01Z</time>
   </trkpt>
   <trkpt lat="22.7282940" lon="120.3007670">
    <ele>16.8</ele>
    <time>2026-09-18T12:36:02Z</time>
   </trkpt>
   <trkpt lat="22.7282980" lon="120.3007880">
    <ele>16.8</ele>
    <time>2026-09-18T12:36:03Z</time>
   </trkpt>
   <trkpt lat="22.7282920" lon="120.3007960">
    <ele>16.8</ele>
    <time>2026-09-18T12:36:04Z</time>
   </trkpt>
   <trkpt lat="22.7282940" lon="120.3008110">
    <ele>16.8</ele>
    <time>2026-09-18T12:36:05Z</time>
   </trkpt>
   <trkpt lat="22.7282960" lon="120.3008150">
    <ele>16.8</ele>
    <time>2026-09-18T12:36:06Z</time>
   </trkpt>
   <trkpt lat="22.7282960" lon="120.3008140">
    <ele>16.8</ele>
    <time>2026-09-18T12:36:07Z</time>
   </trkpt>
   <trkpt lat="22.7282960" lon="120.3008120">
    <ele>16.8</ele>
    <time>2026-09-18T12:36:08Z</time>
   </trkpt>
   <trkpt lat="22.7282960" lon="120.3008120">
    <ele>16.8</ele>
    <time>2026-09-18T12:36:09Z</time>
   </trkpt>
   <trkpt lat="22.7283010" lon="120.3008150">
    <ele>16.8</ele>
    <time>2026-09-18T12:36:10Z</time>
   </trkpt>
   <trkpt lat="22.7283020" lon="120.3008300">
    <ele>16.8</ele>
    <time>2026-09-18T12:36:11Z</time>
   </trkpt>
   <trkpt lat="22.7283060" lon="120.3008420">
    <ele>16.7</ele>
    <time>2026-09-18T12:36:12Z</time>
   </trkpt>
   <trkpt lat="22.7283070" lon="120.3008570">
    <ele>16.7</ele>
    <time>2026-09-18T12:36:13Z</time>
   </trkpt>
   <trkpt lat="22.7283090" lon="120.3008570">
    <ele>16.7</ele>
    <time>2026-09-18T12:36:14Z</time>
   </trkpt>
   <trkpt lat="22.7283180" lon="120.3008650">
    <ele>16.7</ele>
    <time>2026-09-18T12:36:15Z</time>
   </trkpt>
   <trkpt lat="22.7283150" lon="120.3008680">
    <ele>16.7</ele>
    <time>2026-09-18T12:36:16Z</time>
   </trkpt>
   <trkpt lat="22.7283050" lon="120.3008670">
    <ele>16.7</ele>
    <time>2026-09-18T12:36:17Z</time>
   </trkpt>
   <trkpt lat="22.7283090" lon="120.3008690">
    <ele>16.7</ele>
    <time>2026-09-18T12:36:18Z</time>
   </trkpt>
   <trkpt lat="22.7283080" lon="120.3008710">
    <ele>16.7</ele>
    <time>2026-09-18T12:36:19Z</time>
   </trkpt>
   <trkpt lat="22.7283030" lon="120.3008710">
    <ele>16.7</ele>
    <time>2026-09-18T12:36:20Z</time>
   </trkpt>
   <trkpt lat="22.7283040" lon="120.3008840">
    <ele>16.7</ele>
    <time>2026-09-18T12:36:21Z</time>
   </trkpt>
   <trkpt lat="22.7283050" lon="120.3008990">
    <ele>16.7</ele>
    <time>2026-09-18T12:36:22Z</time>
   </trkpt>
   <trkpt lat="22.7283150" lon="120.3009140">
    <ele>16.7</ele>
    <time>2026-09-18T12:36:23Z</time>
   </trkpt>
   <trkpt lat="22.7283220" lon="120.3009110">
    <ele>16.7</ele>
    <time>2026-09-18T12:36:24Z</time>
   </trkpt>
   <trkpt lat="22.7283110" lon="120.3009250">
    <ele>16.7</ele>
    <time>2026-09-18T12:36:25Z</time>
   </trkpt>
   <trkpt lat="22.7283450" lon="120.3009610">
    <ele>16.7</ele>
    <time>2026-09-18T12:36:26Z</time>
   </trkpt>
   <trkpt lat="22.7283390" lon="120.3009560">
    <ele>16.7</ele>
    <time>2026-09-18T12:36:27Z</time>
   </trkpt>
   <trkpt lat="22.7283380" lon="120.3009620">
    <ele>16.7</ele>
    <time>2026-09-18T12:36:28Z</time>
   </trkpt>
   <trkpt lat="22.7283270" lon="120.3009720">
    <ele>16.7</ele>
    <time>2026-09-18T12:36:29Z</time>
   </trkpt>
   <trkpt lat="22.7283170" lon="120.3009750">
    <ele>16.7</ele>
    <time>2026-09-18T12:36:30Z</time>
   </trkpt>
   <trkpt lat="22.7283050" lon="120.3009790">
    <ele>16.7</ele>
    <time>2026-09-18T12:36:31Z</time>
   </trkpt>
   <trkpt lat="22.7282990" lon="120.3009850">
    <ele>16.7</ele>
    <time>2026-09-18T12:36:32Z</time>
   </trkpt>
   <trkpt lat="22.7283000" lon="120.3009890">
    <ele>16.7</ele>
    <time>2026-09-18T12:36:33Z</time>
   </trkpt>
   <trkpt lat="22.7282970" lon="120.3009830">
    <ele>16.7</ele>
    <time>2026-09-18T12:36:34Z</time>
   </trkpt>
   <trkpt lat="22.7282990" lon="120.3009670">
    <ele>16.7</ele>
    <time>2026-09-18T12:36:35Z</time>
   </trkpt>
   <trkpt lat="22.7282940" lon="120.3009750">
    <ele>16.7</ele>
    <time>2026-09-18T12:36:36Z</time>
   </trkpt>
   <trkpt lat="22.7282910" lon="120.3009720">
    <ele>16.7</ele>
    <time>2026-09-18T12:36:37Z</time>
   </trkpt>
   <trkpt lat="22.7282940" lon="120.3009730">
    <ele>16.7</ele>
    <time>2026-09-18T12:36:38Z</time>
   </trkpt>
   <trkpt lat="22.7282950" lon="120.3009790">
    <ele>16.7</ele>
    <time>2026-09-18T12:36:39Z</time>
   </trkpt>
   <trkpt lat="22.7282930" lon="120.3009920">
    <ele>16.7</ele>
    <time>2026-09-18T12:36:40Z</time>
   </trkpt>
   <trkpt lat="22.7282920" lon="120.3010040">
    <ele>16.7</ele>
    <time>2026-09-18T12:36:41Z</time>
   </trkpt>
   <trkpt lat="22.7283000" lon="120.3010060">
    <ele>16.7</ele>
    <time>2026-09-18T12:36:42Z</time>
   </trkpt>
   <trkpt lat="22.7282990" lon="120.3010030">
    <ele>16.7</ele>
    <time>2026-09-18T12:36:43Z</time>
   </trkpt>
   <trkpt lat="22.7283000" lon="120.3010030">
    <ele>16.7</ele>
    <time>2026-09-18T12:36:44Z</time>
   </trkpt>
   <trkpt lat="22.7283010" lon="120.3009930">
    <ele>16.7</ele>
    <time>2026-09-18T12:36:45Z</time>
   </trkpt>
   <trkpt lat="22.7282980" lon="120.3009680">
    <ele>16.7</ele>
    <time>2026-09-18T12:36:46Z</time>
   </trkpt>
   <trkpt lat="22.7283000" lon="120.3009390">
    <ele>16.8</ele>
    <time>2026-09-18T12:36:47Z</time>
   </trkpt>
   <trkpt lat="22.7283000" lon="120.3009290">
    <ele>16.8</ele>
    <time>2026-09-18T12:36:48Z</time>
   </trkpt>
   <trkpt lat="22.7283020" lon="120.3009290">
    <ele>16.8</ele>
    <time>2026-09-18T12:36:49Z</time>
   </trkpt>
   <trkpt lat="22.7283020" lon="120.3009150">
    <ele>16.8</ele>
    <time>2026-09-18T12:36:50Z</time>
   </trkpt>
   <trkpt lat="22.7283050" lon="120.3009000">
    <ele>16.8</ele>
    <time>2026-09-18T12:36:51Z</time>
   </trkpt>
   <trkpt lat="22.7283020" lon="120.3008900">
    <ele>16.8</ele>
    <time>2026-09-18T12:36:52Z</time>
   </trkpt>
   <trkpt lat="22.7282980" lon="120.3008830">
    <ele>16.8</ele>
    <time>2026-09-18T12:36:53Z</time>
   </trkpt>
   <trkpt lat="22.7283010" lon="120.3008690">
    <ele>16.8</ele>
    <time>2026-09-18T12:36:54Z</time>
   </trkpt>
   <trkpt lat="22.7283020" lon="120.3008540">
    <ele>16.8</ele>
    <time>2026-09-18T12:36:55Z</time>
   </trkpt>
   <trkpt lat="22.7282980" lon="120.3008390">
    <ele>16.8</ele>
    <time>2026-09-18T12:36:56Z</time>
   </trkpt>
   <trkpt lat="22.7282930" lon="120.3008260">
    <ele>16.8</ele>
    <time>2026-09-18T12:36:57Z</time>
   </trkpt>
   <trkpt lat="22.7282970" lon="120.3008140">
    <ele>16.8</ele>
    <time>2026-09-18T12:36:58Z</time>
   </trkpt>
   <trkpt lat="22.7283010" lon="120.3008040">
    <ele>16.8</ele>
    <time>2026-09-18T12:36:59Z</time>
   </trkpt>
   <trkpt lat="22.7283000" lon="120.3007900">
    <ele>16.8</ele>
    <time>2026-09-18T12:37:00Z</time>
   </trkpt>
   <trkpt lat="22.7282970" lon="120.3007790">
    <ele>16.8</ele>
    <time>2026-09-18T12:37:01Z</time>
   </trkpt>
   <trkpt lat="22.7282970" lon="120.3007620">
    <ele>16.8</ele>
    <time>2026-09-18T12:37:02Z</time>
   </trkpt>
   <trkpt lat="22.7282930" lon="120.3007450">
    <ele>16.8</ele>
    <time>2026-09-18T12:37:03Z</time>
   </trkpt>
   <trkpt lat="22.7282890" lon="120.3007320">
    <ele>16.8</ele>
    <time>2026-09-18T12:37:04Z</time>
   </trkpt>
   <trkpt lat="22.7282870" lon="120.3007170">
    <ele>16.8</ele>
    <time>2026-09-18T12:37:05Z</time>
   </trkpt>
   <trkpt lat="22.7282900" lon="120.3007030">
    <ele>16.8</ele>
    <time>2026-09-18T12:37:06Z</time>
   </trkpt>
   <trkpt lat="22.7282930" lon="120.3006850">
    <ele>16.8</ele>
    <time>2026-09-18T12:37:07Z</time>
   </trkpt>
   <trkpt lat="22.7282990" lon="120.3006760">
    <ele>16.7</ele>
    <time>2026-09-18T12:37:08Z</time>
   </trkpt>
   <trkpt lat="22.7282980" lon="120.3006670">
    <ele>16.7</ele>
    <time>2026-09-18T12:37:09Z</time>
   </trkpt>
   <trkpt lat="22.7283010" lon="120.3006660">
    <ele>16.7</ele>
    <time>2026-09-18T12:37:10Z</time>
   </trkpt>
   <trkpt lat="22.7283090" lon="120.3006610">
    <ele>16.7</ele>
    <time>2026-09-18T12:37:11Z</time>
   </trkpt>
   <trkpt lat="22.7283080" lon="120.3006380">
    <ele>16.7</ele>
    <time>2026-09-18T12:37:12Z</time>
   </trkpt>
   <trkpt lat="22.7283120" lon="120.3006210">
    <ele>16.7</ele>
    <time>2026-09-18T12:37:13Z</time>
   </trkpt>
   <trkpt lat="22.7283130" lon="120.3006060">
    <ele>16.8</ele>
    <time>2026-09-18T12:37:14Z</time>
   </trkpt>
   <trkpt lat="22.7283120" lon="120.3005970">
    <ele>16.8</ele>
    <time>2026-09-18T12:37:15Z</time>
   </trkpt>
   <trkpt lat="22.7283140" lon="120.3005840">
    <ele>16.8</ele>
    <time>2026-09-18T12:37:16Z</time>
   </trkpt>
   <trkpt lat="22.7282970" lon="120.3005860">
    <ele>16.7</ele>
    <time>2026-09-18T12:37:17Z</time>
   </trkpt>
   <trkpt lat="22.7282750" lon="120.3005930">
    <ele>17.4</ele>
    <time>2026-09-18T12:37:18Z</time>
   </trkpt>
   <trkpt lat="22.7282720" lon="120.3006030">
    <ele>17.1</ele>
    <time>2026-09-18T12:37:19Z</time>
   </trkpt>
   <trkpt lat="22.7282570" lon="120.3006030">
    <ele>17.0</ele>
    <time>2026-09-18T12:37:20Z</time>
   </trkpt>
   <trkpt lat="22.7282450" lon="120.3006030">
    <ele>17.6</ele>
    <time>2026-09-18T12:37:21Z</time>
   </trkpt>
   <trkpt lat="22.7282340" lon="120.3006030">
    <ele>17.5</ele>
    <time>2026-09-18T12:37:22Z</time>
   </trkpt>
   <trkpt lat="22.7282220" lon="120.3005940">
    <ele>17.5</ele>
    <time>2026-09-18T12:37:23Z</time>
   </trkpt>
   <trkpt lat="22.7282160" lon="120.3005920">
    <ele>17.9</ele>
    <time>2026-09-18T12:37:24Z</time>
   </trkpt>
   <trkpt lat="22.7282110" lon="120.3005860">
    <ele>18.5</ele>
    <time>2026-09-18T12:37:25Z</time>
   </trkpt>
   <trkpt lat="22.7282110" lon="120.3005850">
    <ele>18.5</ele>
    <time>2026-09-18T12:37:26Z</time>
   </trkpt>
   <trkpt lat="22.7282060" lon="120.3005880">
    <ele>18.5</ele>
    <time>2026-09-18T12:37:27Z</time>
   </trkpt>
   <trkpt lat="22.7281910" lon="120.3005910">
    <ele>18.4</ele>
    <time>2026-09-18T12:37:28Z</time>
   </trkpt>
   <trkpt lat="22.7281770" lon="120.3005930">
    <ele>18.4</ele>
    <time>2026-09-18T12:37:29Z</time>
   </trkpt>
   <trkpt lat="22.7281690" lon="120.3005920">
    <ele>18.9</ele>
    <time>2026-09-18T12:37:30Z</time>
   </trkpt>
   <trkpt lat="22.7281550" lon="120.3005920">
    <ele>18.9</ele>
    <time>2026-09-18T12:37:31Z</time>
   </trkpt>
   <trkpt lat="22.7281420" lon="120.3006040">
    <ele>18.1</ele>
    <time>2026-09-18T12:37:32Z</time>
   </trkpt>
   <trkpt lat="22.7281410" lon="120.3006070">
    <ele>18.1</ele>
    <time>2026-09-18T12:37:33Z</time>
   </trkpt>
   <trkpt lat="22.7281400" lon="120.3006080">
    <ele>18.0</ele>
    <time>2026-09-18T12:37:34Z</time>
   </trkpt>
   <trkpt lat="22.7281340" lon="120.3006080">
    <ele>18.5</ele>
    <time>2026-09-18T12:37:35Z</time>
   </trkpt>
   <trkpt lat="22.7281350" lon="120.3006170">
    <ele>18.4</ele>
    <time>2026-09-18T12:37:36Z</time>
   </trkpt>
   <trkpt lat="22.7281350" lon="120.3006260">
    <ele>18.4</ele>
    <time>2026-09-18T12:37:37Z</time>
   </trkpt>
   <trkpt lat="22.7281320" lon="120.3006200">
    <ele>18.3</ele>
    <time>2026-09-18T12:37:38Z</time>
   </trkpt>
   <trkpt lat="22.7281180" lon="120.3006300">
    <ele>18.3</ele>
    <time>2026-09-18T12:37:39Z</time>
   </trkpt>
   <trkpt lat="22.7281240" lon="120.3006370">
    <ele>17.4</ele>
    <time>2026-09-18T12:37:40Z</time>
   </trkpt>
   <trkpt lat="22.7281260" lon="120.3006450">
    <ele>17.4</ele>
    <time>2026-09-18T12:37:41Z</time>
   </trkpt>
   <trkpt lat="22.7281220" lon="120.3006500">
    <ele>17.3</ele>
    <time>2026-09-18T12:37:42Z</time>
   </trkpt>
   <trkpt lat="22.7281440" lon="120.3006640">
    <ele>16.8</ele>
    <time>2026-09-18T12:37:43Z</time>
   </trkpt>
   <trkpt lat="22.7281560" lon="120.3006720">
    <ele>16.8</ele>
    <time>2026-09-18T12:37:44Z</time>
   </trkpt>
   <trkpt lat="22.7281650" lon="120.3006630">
    <ele>16.7</ele>
    <time>2026-09-18T12:37:45Z</time>
   </trkpt>
   <trkpt lat="22.7281770" lon="120.3006650">
    <ele>16.3</ele>
    <time>2026-09-18T12:37:46Z</time>
   </trkpt>
   <trkpt lat="22.7281720" lon="120.3006670">
    <ele>16.7</ele>
    <time>2026-09-18T12:37:47Z</time>
   </trkpt>
   <trkpt lat="22.7281610" lon="120.3006700">
    <ele>16.6</ele>
    <time>2026-09-18T12:37:48Z</time>
   </trkpt>
   <trkpt lat="22.7281690" lon="120.3006930">
    <ele>15.8</ele>
    <time>2026-09-18T12:37:49Z</time>
   </trkpt>
   <trkpt lat="22.7281670" lon="120.3006890">
    <ele>15.7</ele>
    <time>2026-09-18T12:37:50Z</time>
   </trkpt>
   <trkpt lat="22.7281640" lon="120.3006900">
    <ele>15.7</ele>
    <time>2026-09-18T12:37:51Z</time>
   </trkpt>
   <trkpt lat="22.7281650" lon="120.3006850">
    <ele>15.7</ele>
    <time>2026-09-18T12:37:52Z</time>
   </trkpt>
   <trkpt lat="22.7281560" lon="120.3006640">
    <ele>16.4</ele>
    <time>2026-09-18T12:37:53Z</time>
   </trkpt>
   <trkpt lat="22.7281390" lon="120.3006630">
    <ele>16.3</ele>
    <time>2026-09-18T12:37:54Z</time>
   </trkpt>
   <trkpt lat="22.7281400" lon="120.3006600">
    <ele>16.3</ele>
    <time>2026-09-18T12:37:55Z</time>
   </trkpt>
   <trkpt lat="22.7281440" lon="120.3006480">
    <ele>16.3</ele>
    <time>2026-09-18T12:37:56Z</time>
   </trkpt>
   <trkpt lat="22.7281400" lon="120.3006380">
    <ele>16.2</ele>
    <time>2026-09-18T12:37:57Z</time>
   </trkpt>
   <trkpt lat="22.7281270" lon="120.3006320">
    <ele>17.5</ele>
    <time>2026-09-18T12:37:58Z</time>
   </trkpt>
   <trkpt lat="22.7281210" lon="120.3006280">
    <ele>17.4</ele>
    <time>2026-09-18T12:37:59Z</time>
   </trkpt>
   <trkpt lat="22.7281160" lon="120.3006250">
    <ele>17.4</ele>
    <time>2026-09-18T12:38:00Z</time>
   </trkpt>
   <trkpt lat="22.7281070" lon="120.3006290">
    <ele>17.3</ele>
    <time>2026-09-18T12:38:01Z</time>
   </trkpt>
   <trkpt lat="22.7281060" lon="120.3006210">
    <ele>17.3</ele>
    <time>2026-09-18T12:38:02Z</time>
   </trkpt>
   <trkpt lat="22.7281100" lon="120.3006170">
    <ele>17.2</ele>
    <time>2026-09-18T12:38:03Z</time>
   </trkpt>
   <trkpt lat="22.7281640" lon="120.3005830">
    <ele>17.4</ele>
    <time>2026-09-18T12:38:15Z</time>
   </trkpt>
   <trkpt lat="22.7281300" lon="120.3005680">
    <ele>17.9</ele>
    <time>2026-09-18T12:38:16Z</time>
   </trkpt>
   <trkpt lat="22.7281170" lon="120.3005540">
    <ele>17.9</ele>
    <time>2026-09-18T12:38:17Z</time>
   </trkpt>
   <trkpt lat="22.7281210" lon="120.3005510">
    <ele>17.8</ele>
    <time>2026-09-18T12:38:18Z</time>
   </trkpt>
   <trkpt lat="22.7281040" lon="120.3005230">
    <ele>18.3</ele>
    <time>2026-09-18T12:38:19Z</time>
   </trkpt>
   <trkpt lat="22.7280760" lon="120.3005130">
    <ele>18.8</ele>
    <time>2026-09-18T12:38:20Z</time>
   </trkpt>
   <trkpt lat="22.7280780" lon="120.3005050">
    <ele>19.1</ele>
    <time>2026-09-18T12:38:21Z</time>
   </trkpt>
   <trkpt lat="22.7280910" lon="120.3004930">
    <ele>19.0</ele>
    <time>2026-09-18T12:38:22Z</time>
   </trkpt>
   <trkpt lat="22.7281010" lon="120.3004860">
    <ele>18.4</ele>
    <time>2026-09-18T12:38:23Z</time>
   </trkpt>
   <trkpt lat="22.7280670" lon="120.3004870">
    <ele>19.0</ele>
    <time>2026-09-18T12:38:24Z</time>
   </trkpt>
   <trkpt lat="22.7280890" lon="120.3004560">
    <ele>19.1</ele>
    <time>2026-09-18T12:38:25Z</time>
   </trkpt>
   <trkpt lat="22.7280860" lon="120.3004540">
    <ele>19.1</ele>
    <time>2026-09-18T12:38:26Z</time>
   </trkpt>
   <trkpt lat="22.7280780" lon="120.3004520">
    <ele>19.0</ele>
    <time>2026-09-18T12:38:27Z</time>
   </trkpt>
   <trkpt lat="22.7280780" lon="120.3004540">
    <ele>19.0</ele>
    <time>2026-09-18T12:38:28Z</time>
   </trkpt>
   <trkpt lat="22.7280630" lon="120.3004530">
    <ele>19.0</ele>
    <time>2026-09-18T12:38:29Z</time>
   </trkpt>
   <trkpt lat="22.7280820" lon="120.3004360">
    <ele>18.9</ele>
    <time>2026-09-18T12:38:30Z</time>
   </trkpt>
   <trkpt lat="22.7280840" lon="120.3004310">
    <ele>18.9</ele>
    <time>2026-09-18T12:38:31Z</time>
   </trkpt>
   <trkpt lat="22.7280940" lon="120.3004160">
    <ele>19.0</ele>
    <time>2026-09-18T12:38:32Z</time>
   </trkpt>
   <trkpt lat="22.7280980" lon="120.3004090">
    <ele>17.9</ele>
    <time>2026-09-18T12:38:33Z</time>
   </trkpt>
   <trkpt lat="22.7280850" lon="120.3004090">
    <ele>18.9</ele>
    <time>2026-09-18T12:38:34Z</time>
   </trkpt>
   <trkpt lat="22.7280640" lon="120.3004240">
    <ele>18.7</ele>
    <time>2026-09-18T12:38:35Z</time>
   </trkpt>
   <trkpt lat="22.7280600" lon="120.3004200">
    <ele>18.8</ele>
    <time>2026-09-18T12:38:36Z</time>
   </trkpt>
   <trkpt lat="22.7280710" lon="120.3004080">
    <ele>18.7</ele>
    <time>2026-09-18T12:38:37Z</time>
   </trkpt>
   <trkpt lat="22.7280680" lon="120.3004110">
    <ele>18.7</ele>
    <time>2026-09-18T12:38:38Z</time>
   </trkpt>
   <trkpt lat="22.7280500" lon="120.3004260">
    <ele>19.4</ele>
    <time>2026-09-18T12:38:39Z</time>
   </trkpt>
   <trkpt lat="22.7280400" lon="120.3004360">
    <ele>19.3</ele>
    <time>2026-09-18T12:38:40Z</time>
   </trkpt>
   <trkpt lat="22.7280310" lon="120.3004430">
    <ele>19.3</ele>
    <time>2026-09-18T12:38:41Z</time>
   </trkpt>
   <trkpt lat="22.7280350" lon="120.3004400">
    <ele>19.2</ele>
    <time>2026-09-18T12:38:42Z</time>
   </trkpt>
   <trkpt lat="22.7280410" lon="120.3004560">
    <ele>19.2</ele>
    <time>2026-09-18T12:38:43Z</time>
   </trkpt>
   <trkpt lat="22.7280840" lon="120.3004340">
    <ele>18.3</ele>
    <time>2026-09-18T12:38:44Z</time>
   </trkpt>
   <trkpt lat="22.7281030" lon="120.3004330">
    <ele>17.4</ele>
    <time>2026-09-18T12:38:45Z</time>
   </trkpt>
   <trkpt lat="22.7280670" lon="120.3004360">
    <ele>18.2</ele>
    <time>2026-09-18T12:38:46Z</time>
   </trkpt>
   <trkpt lat="22.7280700" lon="120.3004620">
    <ele>18.2</ele>
    <time>2026-09-18T12:38:47Z</time>
   </trkpt>
   <trkpt lat="22.7279990" lon="120.3004970">
    <ele>19.2</ele>
    <time>2026-09-18T12:38:48Z</time>
   </trkpt>
   <trkpt lat="22.7279280" lon="120.3005220">
    <ele>19.9</ele>
    <time>2026-09-18T12:38:49Z</time>
   </trkpt>
   <trkpt lat="22.7279390" lon="120.3004800">
    <ele>19.9</ele>
    <time>2026-09-18T12:38:50Z</time>
   </trkpt>
   <trkpt lat="22.7279600" lon="120.3004290">
    <ele>20.7</ele>
    <time>2026-09-18T12:38:51Z</time>
   </trkpt>
   <trkpt lat="22.7279450" lon="120.3004000">
    <ele>21.5</ele>
    <time>2026-09-18T12:38:52Z</time>
   </trkpt>
   <trkpt lat="22.7279470" lon="120.3003590">
    <ele>22.1</ele>
    <time>2026-09-18T12:38:53Z</time>
   </trkpt>
   <trkpt lat="22.7279500" lon="120.3003390">
    <ele>22.0</ele>
    <time>2026-09-18T12:38:54Z</time>
   </trkpt>
   <trkpt lat="22.7279700" lon="120.3003320">
    <ele>22.5</ele>
    <time>2026-09-18T12:38:55Z</time>
   </trkpt>
   <trkpt lat="22.7279630" lon="120.3003250">
    <ele>22.5</ele>
    <time>2026-09-18T12:38:56Z</time>
   </trkpt>
   <trkpt lat="22.7279550" lon="120.3003220">
    <ele>22.4</ele>
    <time>2026-09-18T12:38:57Z</time>
   </trkpt>
   <trkpt lat="22.7279580" lon="120.3002960">
    <ele>22.4</ele>
    <time>2026-09-18T12:38:58Z</time>
   </trkpt>
   <trkpt lat="22.7279580" lon="120.3002850">
    <ele>22.3</ele>
    <time>2026-09-18T12:38:59Z</time>
   </trkpt>
   <trkpt lat="22.7279490" lon="120.3002750">
    <ele>22.3</ele>
    <time>2026-09-18T12:39:00Z</time>
   </trkpt>
   <trkpt lat="22.7279370" lon="120.3002650">
    <ele>23.2</ele>
    <time>2026-09-18T12:39:01Z</time>
   </trkpt>
   <trkpt lat="22.7279290" lon="120.3002610">
    <ele>23.2</ele>
    <time>2026-09-18T12:39:02Z</time>
   </trkpt>
   <trkpt lat="22.7279250" lon="120.3002520">
    <ele>23.1</ele>
    <time>2026-09-18T12:39:03Z</time>
   </trkpt>
   <trkpt lat="22.7279250" lon="120.3002510">
    <ele>23.1</ele>
    <time>2026-09-18T12:39:04Z</time>
   </trkpt>
   <trkpt lat="22.7279380" lon="120.3002370">
    <ele>23.3</ele>
    <time>2026-09-18T12:39:05Z</time>
   </trkpt>
   <trkpt lat="22.7279290" lon="120.3002410">
    <ele>23.2</ele>
    <time>2026-09-18T12:39:06Z</time>
   </trkpt>
   <trkpt lat="22.7279290" lon="120.3002410">
    <ele>23.2</ele>
    <time>2026-09-18T12:39:07Z</time>
   </trkpt>
   <trkpt lat="22.7279170" lon="120.3002370">
    <ele>23.2</ele>
    <time>2026-09-18T12:39:08Z</time>
   </trkpt>
   <trkpt lat="22.7279130" lon="120.3002320">
    <ele>23.1</ele>
    <time>2026-09-18T12:39:09Z</time>
   </trkpt>
   <trkpt lat="22.7279130" lon="120.3002320">
    <ele>23.1</ele>
    <time>2026-09-18T12:39:10Z</time>
   </trkpt>
   <trkpt lat="22.7279320" lon="120.3002060">
    <ele>22.8</ele>
    <time>2026-09-18T12:39:20Z</time>
   </trkpt>
   <trkpt lat="22.7279210" lon="120.3002140">
    <ele>23.0</ele>
    <time>2026-09-18T12:39:21Z</time>
   </trkpt>
   <trkpt lat="22.7279170" lon="120.3002160">
    <ele>22.9</ele>
    <time>2026-09-18T12:39:22Z</time>
   </trkpt>
   <trkpt lat="22.7278990" lon="120.3002010">
    <ele>22.7</ele>
    <time>2026-09-18T12:39:23Z</time>
   </trkpt>
   <trkpt lat="22.7279190" lon="120.3001870">
    <ele>22.6</ele>
    <time>2026-09-18T12:39:24Z</time>
   </trkpt>
   <trkpt lat="22.7278930" lon="120.3001880">
    <ele>23.5</ele>
    <time>2026-09-18T12:39:25Z</time>
   </trkpt>
   <trkpt lat="22.7278830" lon="120.3001730">
    <ele>23.5</ele>
    <time>2026-09-18T12:39:26Z</time>
   </trkpt>
   <trkpt lat="22.7278830" lon="120.3001730">
    <ele>23.4</ele>
    <time>2026-09-18T12:39:27Z</time>
   </trkpt>
   <trkpt lat="22.7278910" lon="120.3001560">
    <ele>23.0</ele>
    <time>2026-09-18T12:39:28Z</time>
   </trkpt>
   <trkpt lat="22.7278630" lon="120.3001550">
    <ele>23.0</ele>
    <time>2026-09-18T12:39:29Z</time>
   </trkpt>
   <trkpt lat="22.7278960" lon="120.3001580">
    <ele>22.9</ele>
    <time>2026-09-18T12:39:30Z</time>
   </trkpt>
   <trkpt lat="22.7278890" lon="120.3001380">
    <ele>22.9</ele>
    <time>2026-09-18T12:39:31Z</time>
   </trkpt>
   <trkpt lat="22.7278860" lon="120.3001400">
    <ele>22.8</ele>
    <time>2026-09-18T12:39:32Z</time>
   </trkpt>
   <trkpt lat="22.7278760" lon="120.3001550">
    <ele>22.8</ele>
    <time>2026-09-18T12:39:33Z</time>
   </trkpt>
   <trkpt lat="22.7278720" lon="120.3001500">
    <ele>22.7</ele>
    <time>2026-09-18T12:39:34Z</time>
   </trkpt>
   <trkpt lat="22.7278690" lon="120.3001410">
    <ele>22.7</ele>
    <time>2026-09-18T12:39:35Z</time>
   </trkpt>
   <trkpt lat="22.7278700" lon="120.3001310">
    <ele>22.7</ele>
    <time>2026-09-18T12:39:36Z</time>
   </trkpt>
   <trkpt lat="22.7278560" lon="120.3001380">
    <ele>23.5</ele>
    <time>2026-09-18T12:39:37Z</time>
   </trkpt>
   <trkpt lat="22.7278500" lon="120.3001380">
    <ele>23.4</ele>
    <time>2026-09-18T12:39:38Z</time>
   </trkpt>
   <trkpt lat="22.7278610" lon="120.3001520">
    <ele>22.5</ele>
    <time>2026-09-18T12:39:39Z</time>
   </trkpt>
   <trkpt lat="22.7278570" lon="120.3001450">
    <ele>23.4</ele>
    <time>2026-09-18T12:39:40Z</time>
   </trkpt>
   <trkpt lat="22.7278500" lon="120.3001210">
    <ele>22.9</ele>
    <time>2026-09-18T12:39:41Z</time>
   </trkpt>
   <trkpt lat="22.7278650" lon="120.3001180">
    <ele>22.0</ele>
    <time>2026-09-18T12:39:42Z</time>
   </trkpt>
   <trkpt lat="22.7278660" lon="120.3001000">
    <ele>21.9</ele>
    <time>2026-09-18T12:39:43Z</time>
   </trkpt>
   <trkpt lat="22.7278650" lon="120.3000670">
    <ele>21.5</ele>
    <time>2026-09-18T12:39:44Z</time>
   </trkpt>
   <trkpt lat="22.7278530" lon="120.3000530">
    <ele>22.2</ele>
    <time>2026-09-18T12:39:45Z</time>
   </trkpt>
   <trkpt lat="22.7278390" lon="120.3000530">
    <ele>22.2</ele>
    <time>2026-09-18T12:39:46Z</time>
   </trkpt>
   <trkpt lat="22.7278480" lon="120.3000540">
    <ele>22.1</ele>
    <time>2026-09-18T12:39:47Z</time>
   </trkpt>
   <trkpt lat="22.7278530" lon="120.3000490">
    <ele>22.1</ele>
    <time>2026-09-18T12:39:48Z</time>
   </trkpt>
   <trkpt lat="22.7278860" lon="120.3000470">
    <ele>21.3</ele>
    <time>2026-09-18T12:39:49Z</time>
   </trkpt>
   <trkpt lat="22.7279120" lon="120.3000280">
    <ele>20.6</ele>
    <time>2026-09-18T12:39:50Z</time>
   </trkpt>
   <trkpt lat="22.7278990" lon="120.3000140">
    <ele>20.6</ele>
    <time>2026-09-18T12:39:51Z</time>
   </trkpt>
   <trkpt lat="22.7278980" lon="120.3000010">
    <ele>21.3</ele>
    <time>2026-09-18T12:39:52Z</time>
   </trkpt>
   <trkpt lat="22.7279190" lon="120.3000140">
    <ele>20.5</ele>
    <time>2026-09-18T12:39:53Z</time>
   </trkpt>
   <trkpt lat="22.7279260" lon="120.3000250">
    <ele>20.4</ele>
    <time>2026-09-18T12:39:54Z</time>
   </trkpt>
   <trkpt lat="22.7279170" lon="120.3000220">
    <ele>20.4</ele>
    <time>2026-09-18T12:39:55Z</time>
   </trkpt>
   <trkpt lat="22.7279080" lon="120.3000190">
    <ele>20.3</ele>
    <time>2026-09-18T12:39:56Z</time>
   </trkpt>
   <trkpt lat="22.7279450" lon="120.3000380">
    <ele>19.4</ele>
    <time>2026-09-18T12:39:57Z</time>
   </trkpt>
   <trkpt lat="22.7279350" lon="120.3000660">
    <ele>20.1</ele>
    <time>2026-09-18T12:39:58Z</time>
   </trkpt>
   <trkpt lat="22.7279350" lon="120.3000860">
    <ele>20.4</ele>
    <time>2026-09-18T12:39:59Z</time>
   </trkpt>
   <trkpt lat="22.7279090" lon="120.3001230">
    <ele>20.7</ele>
    <time>2026-09-18T12:40:00Z</time>
   </trkpt>
   <trkpt lat="22.7279150" lon="120.3001140">
    <ele>20.3</ele>
    <time>2026-09-18T12:40:01Z</time>
   </trkpt>
   <trkpt lat="22.7278950" lon="120.3001090">
    <ele>21.1</ele>
    <time>2026-09-18T12:40:02Z</time>
   </trkpt>
   <trkpt lat="22.7278830" lon="120.3001140">
    <ele>21.1</ele>
    <time>2026-09-18T12:40:03Z</time>
   </trkpt>
   <trkpt lat="22.7278840" lon="120.3001290">
    <ele>21.4</ele>
    <time>2026-09-18T12:40:04Z</time>
   </trkpt>
   <trkpt lat="22.7278720" lon="120.3001470">
    <ele>21.4</ele>
    <time>2026-09-18T12:40:05Z</time>
   </trkpt>
   <trkpt lat="22.7278640" lon="120.3001630">
    <ele>21.3</ele>
    <time>2026-09-18T12:40:06Z</time>
   </trkpt>
   <trkpt lat="22.7278650" lon="120.3001610">
    <ele>21.3</ele>
    <time>2026-09-18T12:40:07Z</time>
   </trkpt>
   <trkpt lat="22.7278610" lon="120.3001600">
    <ele>21.2</ele>
    <time>2026-09-18T12:40:08Z</time>
   </trkpt>
   <trkpt lat="22.7278660" lon="120.3001780">
    <ele>21.6</ele>
    <time>2026-09-18T12:40:09Z</time>
   </trkpt>
   <trkpt lat="22.7278670" lon="120.3002050">
    <ele>21.5</ele>
    <time>2026-09-18T12:40:10Z</time>
   </trkpt>
   <trkpt lat="22.7278730" lon="120.3002090">
    <ele>21.8</ele>
    <time>2026-09-18T12:40:11Z</time>
   </trkpt>
   <trkpt lat="22.7278890" lon="120.3002130">
    <ele>21.7</ele>
    <time>2026-09-18T12:40:12Z</time>
   </trkpt>
   <trkpt lat="22.7278980" lon="120.3002340">
    <ele>21.7</ele>
    <time>2026-09-18T12:40:13Z</time>
   </trkpt>
   <trkpt lat="22.7279050" lon="120.3002800">
    <ele>20.4</ele>
    <time>2026-09-18T12:40:14Z</time>
   </trkpt>
   <trkpt lat="22.7279000" lon="120.3003090">
    <ele>20.6</ele>
    <time>2026-09-18T12:40:15Z</time>
   </trkpt>
   <trkpt lat="22.7279020" lon="120.3003230">
    <ele>20.6</ele>
    <time>2026-09-18T12:40:16Z</time>
   </trkpt>
   <trkpt lat="22.7279180" lon="120.3003320">
    <ele>20.5</ele>
    <time>2026-09-18T12:40:17Z</time>
   </trkpt>
   <trkpt lat="22.7279360" lon="120.3003060">
    <ele>20.3</ele>
    <time>2026-09-18T12:40:18Z</time>
   </trkpt>
   <trkpt lat="22.7279520" lon="120.3002800">
    <ele>20.1</ele>
    <time>2026-09-18T12:40:19Z</time>
   </trkpt>
   <trkpt lat="22.7279700" lon="120.3002630">
    <ele>20.0</ele>
    <time>2026-09-18T12:40:20Z</time>
   </trkpt>
   <trkpt lat="22.7279730" lon="120.3002520">
    <ele>20.0</ele>
    <time>2026-09-18T12:40:21Z</time>
   </trkpt>
   <trkpt lat="22.7279820" lon="120.3002380">
    <ele>19.9</ele>
    <time>2026-09-18T12:40:22Z</time>
   </trkpt>
   <trkpt lat="22.7279880" lon="120.3002380">
    <ele>19.8</ele>
    <time>2026-09-18T12:40:23Z</time>
   </trkpt>
   <trkpt lat="22.7279700" lon="120.3002530">
    <ele>19.7</ele>
    <time>2026-09-18T12:40:24Z</time>
   </trkpt>
   <trkpt lat="22.7279420" lon="120.3002790">
    <ele>19.5</ele>
    <time>2026-09-18T12:40:25Z</time>
   </trkpt>
   <trkpt lat="22.7279340" lon="120.3002680">
    <ele>19.4</ele>
    <time>2026-09-18T12:40:26Z</time>
   </trkpt>
   <trkpt lat="22.7279300" lon="120.3002680">
    <ele>19.4</ele>
    <time>2026-09-18T12:40:27Z</time>
   </trkpt>
   <trkpt lat="22.7279320" lon="120.3002620">
    <ele>19.3</ele>
    <time>2026-09-18T12:40:28Z</time>
   </trkpt>
   <trkpt lat="22.7279170" lon="120.3002630">
    <ele>19.3</ele>
    <time>2026-09-18T12:40:29Z</time>
   </trkpt>
   <trkpt lat="22.7279190" lon="120.3002610">
    <ele>19.2</ele>
    <time>2026-09-18T12:40:30Z</time>
   </trkpt>
   <trkpt lat="22.7279100" lon="120.3002690">
    <ele>19.2</ele>
    <time>2026-09-18T12:40:31Z</time>
   </trkpt>
   <trkpt lat="22.7278890" lon="120.3002890">
    <ele>19.0</ele>
    <time>2026-09-18T12:40:32Z</time>
   </trkpt>
   <trkpt lat="22.7278750" lon="120.3003090">
    <ele>18.9</ele>
    <time>2026-09-18T12:40:33Z</time>
   </trkpt>
   <trkpt lat="22.7278680" lon="120.3003110">
    <ele>18.8</ele>
    <time>2026-09-18T12:40:34Z</time>
   </trkpt>
   <trkpt lat="22.7278630" lon="120.3003040">
    <ele>18.8</ele>
    <time>2026-09-18T12:40:35Z</time>
   </trkpt>
   <trkpt lat="22.7278560" lon="120.3003230">
    <ele>18.7</ele>
    <time>2026-09-18T12:40:36Z</time>
   </trkpt>
   <trkpt lat="22.7278550" lon="120.3003370">
    <ele>18.6</ele>
    <time>2026-09-18T12:40:37Z</time>
   </trkpt>
   <trkpt lat="22.7278540" lon="120.3003610">
    <ele>18.5</ele>
    <time>2026-09-18T12:40:38Z</time>
   </trkpt>
   <trkpt lat="22.7278570" lon="120.3003660">
    <ele>18.4</ele>
    <time>2026-09-18T12:40:39Z</time>
   </trkpt>
   <trkpt lat="22.7278590" lon="120.3003660">
    <ele>18.4</ele>
    <time>2026-09-18T12:40:40Z</time>
   </trkpt>
   <trkpt lat="22.7278570" lon="120.3003700">
    <ele>18.4</ele>
    <time>2026-09-18T12:40:41Z</time>
   </trkpt>
   <trkpt lat="22.7278500" lon="120.3003770">
    <ele>18.3</ele>
    <time>2026-09-18T12:40:42Z</time>
   </trkpt>
   <trkpt lat="22.7278390" lon="120.3003800">
    <ele>18.3</ele>
    <time>2026-09-18T12:40:43Z</time>
   </trkpt>
   <trkpt lat="22.7278260" lon="120.3003830">
    <ele>18.2</ele>
    <time>2026-09-18T12:40:44Z</time>
   </trkpt>
   <trkpt lat="22.7278120" lon="120.3003870">
    <ele>18.1</ele>
    <time>2026-09-18T12:40:45Z</time>
   </trkpt>
   <trkpt lat="22.7277990" lon="120.3003920">
    <ele>18.0</ele>
    <time>2026-09-18T12:40:46Z</time>
   </trkpt>
   <trkpt lat="22.7277940" lon="120.3003940">
    <ele>18.0</ele>
    <time>2026-09-18T12:40:47Z</time>
   </trkpt>
   <trkpt lat="22.7277840" lon="120.3003950">
    <ele>18.0</ele>
    <time>2026-09-18T12:40:48Z</time>
   </trkpt>
   <trkpt lat="22.7277720" lon="120.3003890">
    <ele>18.0</ele>
    <time>2026-09-18T12:40:49Z</time>
   </trkpt>
   <trkpt lat="22.7277640" lon="120.3003800">
    <ele>18.0</ele>
    <time>2026-09-18T12:40:50Z</time>
   </trkpt>
   <trkpt lat="22.7277660" lon="120.3003640">
    <ele>18.0</ele>
    <time>2026-09-18T12:40:51Z</time>
   </trkpt>
   <trkpt lat="22.7277580" lon="120.3003460">
    <ele>18.0</ele>
    <time>2026-09-18T12:40:52Z</time>
   </trkpt>
   <trkpt lat="22.7277460" lon="120.3003330">
    <ele>18.0</ele>
    <time>2026-09-18T12:40:53Z</time>
   </trkpt>
   <trkpt lat="22.7277390" lon="120.3003200">
    <ele>18.0</ele>
    <time>2026-09-18T12:40:54Z</time>
   </trkpt>
   <trkpt lat="22.7277470" lon="120.3003270">
    <ele>18.0</ele>
    <time>2026-09-18T12:40:55Z</time>
   </trkpt>
   <trkpt lat="22.7277520" lon="120.3003260">
    <ele>18.0</ele>
    <time>2026-09-18T12:40:56Z</time>
   </trkpt>
   <trkpt lat="22.7277650" lon="120.3003170">
    <ele>18.0</ele>
    <time>2026-09-18T12:40:57Z</time>
   </trkpt>
   <trkpt lat="22.7277780" lon="120.3003120">
    <ele>18.0</ele>
    <time>2026-09-18T12:40:58Z</time>
   </trkpt>
   <trkpt lat="22.7277840" lon="120.3003110">
    <ele>18.0</ele>
    <time>2026-09-18T12:40:59Z</time>
   </trkpt>
   <trkpt lat="22.7277740" lon="120.3003230">
    <ele>18.0</ele>
    <time>2026-09-18T12:41:00Z</time>
   </trkpt>
   <trkpt lat="22.7277820" lon="120.3003260">
    <ele>18.0</ele>
    <time>2026-09-18T12:41:01Z</time>
   </trkpt>
   <trkpt lat="22.7277930" lon="120.3003290">
    <ele>18.0</ele>
    <time>2026-09-18T12:41:02Z</time>
   </trkpt>
   <trkpt lat="22.7277950" lon="120.3003380">
    <ele>18.0</ele>
    <time>2026-09-18T12:41:03Z</time>
   </trkpt>
   <trkpt lat="22.7278030" lon="120.3003470">
    <ele>18.0</ele>
    <time>2026-09-18T12:41:04Z</time>
   </trkpt>
   <trkpt lat="22.7278100" lon="120.3003430">
    <ele>18.0</ele>
    <time>2026-09-18T12:41:05Z</time>
   </trkpt>
   <trkpt lat="22.7278030" lon="120.3003480">
    <ele>18.0</ele>
    <time>2026-09-18T12:41:06Z</time>
   </trkpt>
   <trkpt lat="22.7277990" lon="120.3003480">
    <ele>18.0</ele>
    <time>2026-09-18T12:41:07Z</time>
   </trkpt>
   <trkpt lat="22.7277910" lon="120.3003390">
    <ele>18.0</ele>
    <time>2026-09-18T12:41:08Z</time>
   </trkpt>
   <trkpt lat="22.7277740" lon="120.3003070">
    <ele>18.1</ele>
    <time>2026-09-18T12:41:09Z</time>
   </trkpt>
   <trkpt lat="22.7277690" lon="120.3003050">
    <ele>18.1</ele>
    <time>2026-09-18T12:41:10Z</time>
   </trkpt>
   <trkpt lat="22.7277700" lon="120.3003100">
    <ele>18.1</ele>
    <time>2026-09-18T12:41:11Z</time>
   </trkpt>
   <trkpt lat="22.7277640" lon="120.3003120">
    <ele>18.1</ele>
    <time>2026-09-18T12:41:12Z</time>
   </trkpt>
   <trkpt lat="22.7277640" lon="120.3003080">
    <ele>18.1</ele>
    <time>2026-09-18T12:41:13Z</time>
   </trkpt>
   <trkpt lat="22.7277750" lon="120.3003090">
    <ele>18.1</ele>
    <time>2026-09-18T12:41:14Z</time>
   </trkpt>
   <trkpt lat="22.7277930" lon="120.3003120">
    <ele>18.1</ele>
    <time>2026-09-18T12:41:15Z</time>
   </trkpt>
   <trkpt lat="22.7277930" lon="120.3003160">
    <ele>18.1</ele>
    <time>2026-09-18T12:41:16Z</time>
   </trkpt>
   <trkpt lat="22.7278140" lon="120.3003230">
    <ele>18.1</ele>
    <time>2026-09-18T12:41:17Z</time>
   </trkpt>
   <trkpt lat="22.7278260" lon="120.3003230">
    <ele>18.1</ele>
    <time>2026-09-18T12:41:18Z</time>
   </trkpt>
   <trkpt lat="22.7278320" lon="120.3003270">
    <ele>18.1</ele>
    <time>2026-09-18T12:41:19Z</time>
   </trkpt>
   <trkpt lat="22.7278460" lon="120.3003410">
    <ele>18.1</ele>
    <time>2026-09-18T12:41:20Z</time>
   </trkpt>
   <trkpt lat="22.7278450" lon="120.3003440">
    <ele>18.1</ele>
    <time>2026-09-18T12:41:21Z</time>
   </trkpt>
   <trkpt lat="22.7278420" lon="120.3003420">
    <ele>18.1</ele>
    <time>2026-09-18T12:41:22Z</time>
   </trkpt>
   <trkpt lat="22.7278440" lon="120.3003450">
    <ele>18.1</ele>
    <time>2026-09-18T12:41:23Z</time>
   </trkpt>
   <trkpt lat="22.7278490" lon="120.3003470">
    <ele>18.1</ele>
    <time>2026-09-18T12:41:24Z</time>
   </trkpt>
   <trkpt lat="22.7278420" lon="120.3003690">
    <ele>18.1</ele>
    <time>2026-09-18T12:41:25Z</time>
   </trkpt>
   <trkpt lat="22.7278090" lon="120.3004090">
    <ele>18.1</ele>
    <time>2026-09-18T12:41:26Z</time>
   </trkpt>
   <trkpt lat="22.7277990" lon="120.3004330">
    <ele>18.1</ele>
    <time>2026-09-18T12:41:27Z</time>
   </trkpt>
   <trkpt lat="22.7278100" lon="120.3004500">
    <ele>18.1</ele>
    <time>2026-09-18T12:41:28Z</time>
   </trkpt>
   <trkpt lat="22.7278290" lon="120.3004080">
    <ele>18.1</ele>
    <time>2026-09-18T12:41:29Z</time>
   </trkpt>
   <trkpt lat="22.7278480" lon="120.3003660">
    <ele>18.1</ele>
    <time>2026-09-18T12:41:30Z</time>
   </trkpt>
   <trkpt lat="22.7278710" lon="120.3003260">
    <ele>18.1</ele>
    <time>2026-09-18T12:41:31Z</time>
   </trkpt>
   <trkpt lat="22.7278610" lon="120.3003620">
    <ele>18.1</ele>
    <time>2026-09-18T12:41:32Z</time>
   </trkpt>
   <trkpt lat="22.7278460" lon="120.3003850">
    <ele>18.1</ele>
    <time>2026-09-18T12:41:33Z</time>
   </trkpt>
   <trkpt lat="22.7278310" lon="120.3004070">
    <ele>18.1</ele>
    <time>2026-09-18T12:41:34Z</time>
   </trkpt>
   <trkpt lat="22.7278270" lon="120.3003980">
    <ele>18.1</ele>
    <time>2026-09-18T12:41:35Z</time>
   </trkpt>
   <trkpt lat="22.7278090" lon="120.3003880">
    <ele>18.2</ele>
    <time>2026-09-18T12:41:36Z</time>
   </trkpt>
   <trkpt lat="22.7278050" lon="120.3003860">
    <ele>18.2</ele>
    <time>2026-09-18T12:41:37Z</time>
   </trkpt>
   <trkpt lat="22.7277950" lon="120.3003530">
    <ele>18.2</ele>
    <time>2026-09-18T12:41:38Z</time>
   </trkpt>
   <trkpt lat="22.7277770" lon="120.3003530">
    <ele>18.2</ele>
    <time>2026-09-18T12:41:39Z</time>
   </trkpt>
   <trkpt lat="22.7277830" lon="120.3003310">
    <ele>18.2</ele>
    <time>2026-09-18T12:41:40Z</time>
   </trkpt>
   <trkpt lat="22.7277750" lon="120.3003150">
    <ele>18.2</ele>
    <time>2026-09-18T12:41:41Z</time>
   </trkpt>
   <trkpt lat="22.7277520" lon="120.3002960">
    <ele>18.2</ele>
    <time>2026-09-18T12:41:42Z</time>
   </trkpt>
   <trkpt lat="22.7277410" lon="120.3002790">
    <ele>18.2</ele>
    <time>2026-09-18T12:41:43Z</time>
   </trkpt>
   <trkpt lat="22.7277270" lon="120.3002760">
    <ele>18.2</ele>
    <time>2026-09-18T12:41:44Z</time>
   </trkpt>
   <trkpt lat="22.7277150" lon="120.3002550">
    <ele>18.2</ele>
    <time>2026-09-18T12:41:45Z</time>
   </trkpt>
   <trkpt lat="22.7277130" lon="120.3002430">
    <ele>18.2</ele>
    <time>2026-09-18T12:41:46Z</time>
   </trkpt>
   <trkpt lat="22.7277140" lon="120.3002310">
    <ele>18.2</ele>
    <time>2026-09-18T12:41:47Z</time>
   </trkpt>
   <trkpt lat="22.7276960" lon="120.3002120">
    <ele>18.2</ele>
    <time>2026-09-18T12:41:48Z</time>
   </trkpt>
   <trkpt lat="22.7276820" lon="120.3002000">
    <ele>18.2</ele>
    <time>2026-09-18T12:41:49Z</time>
   </trkpt>
   <trkpt lat="22.7276790" lon="120.3001890">
    <ele>18.2</ele>
    <time>2026-09-18T12:41:50Z</time>
   </trkpt>
   <trkpt lat="22.7276830" lon="120.3001750">
    <ele>18.2</ele>
    <time>2026-09-18T12:41:51Z</time>
   </trkpt>
   <trkpt lat="22.7276890" lon="120.3001600">
    <ele>18.2</ele>
    <time>2026-09-18T12:41:52Z</time>
   </trkpt>
   <trkpt lat="22.7276890" lon="120.3001530">
    <ele>18.2</ele>
    <time>2026-09-18T12:41:53Z</time>
   </trkpt>
   <trkpt lat="22.7276890" lon="120.3001520">
    <ele>18.2</ele>
    <time>2026-09-18T12:41:54Z</time>
   </trkpt>
   <trkpt lat="22.7276860" lon="120.3001470">
    <ele>18.2</ele>
    <time>2026-09-18T12:41:55Z</time>
   </trkpt>
   <trkpt lat="22.7276870" lon="120.3001470">
    <ele>18.2</ele>
    <time>2026-09-18T12:41:56Z</time>
   </trkpt>
   <trkpt lat="22.7276930" lon="120.3001470">
    <ele>18.2</ele>
    <time>2026-09-18T12:41:57Z</time>
   </trkpt>
   <trkpt lat="22.7276980" lon="120.3001460">
    <ele>18.2</ele>
    <time>2026-09-18T12:41:58Z</time>
   </trkpt>
   <trkpt lat="22.7277020" lon="120.3001490">
    <ele>18.2</ele>
    <time>2026-09-18T12:41:59Z</time>
   </trkpt>
   <trkpt lat="22.7277060" lon="120.3001520">
    <ele>18.2</ele>
    <time>2026-09-18T12:42:00Z</time>
   </trkpt>
   <trkpt lat="22.7277420" lon="120.3001650">
    <ele>18.2</ele>
    <time>2026-09-18T12:42:01Z</time>
   </trkpt>
   <trkpt lat="22.7277380" lon="120.3001230">
    <ele>18.3</ele>
    <time>2026-09-18T12:42:02Z</time>
   </trkpt>
   <trkpt lat="22.7277230" lon="120.3000910">
    <ele>18.3</ele>
    <time>2026-09-18T12:42:03Z</time>
   </trkpt>
   <trkpt lat="22.7276850" lon="120.3001050">
    <ele>18.3</ele>
    <time>2026-09-18T12:42:04Z</time>
   </trkpt>
   <trkpt lat="22.7276740" lon="120.3001050">
    <ele>18.3</ele>
    <time>2026-09-18T12:42:05Z</time>
   </trkpt>
   <trkpt lat="22.7276550" lon="120.3001130">
    <ele>18.3</ele>
    <time>2026-09-18T12:42:06Z</time>
   </trkpt>
   <trkpt lat="22.7276580" lon="120.3001130">
    <ele>18.3</ele>
    <time>2026-09-18T12:42:07Z</time>
   </trkpt>
   <trkpt lat="22.7276740" lon="120.3001110">
    <ele>18.3</ele>
    <time>2026-09-18T12:42:08Z</time>
   </trkpt>
   <trkpt lat="22.7276720" lon="120.3001120">
    <ele>18.3</ele>
    <time>2026-09-18T12:42:09Z</time>
   </trkpt>
   <trkpt lat="22.7276710" lon="120.3001100">
    <ele>18.3</ele>
    <time>2026-09-18T12:42:10Z</time>
   </trkpt>
   <trkpt lat="22.7276670" lon="120.3001300">
    <ele>18.3</ele>
    <time>2026-09-18T12:42:11Z</time>
   </trkpt>
   <trkpt lat="22.7276580" lon="120.3001350">
    <ele>18.3</ele>
    <time>2026-09-18T12:42:12Z</time>
   </trkpt>
   <trkpt lat="22.7276530" lon="120.3001390">
    <ele>18.3</ele>
    <time>2026-09-18T12:42:13Z</time>
   </trkpt>
   <trkpt lat="22.7276320" lon="120.3001460">
    <ele>18.3</ele>
    <time>2026-09-18T12:42:14Z</time>
   </trkpt>
   <trkpt lat="22.7276180" lon="120.3001790">
    <ele>18.3</ele>
    <time>2026-09-18T12:42:15Z</time>
   </trkpt>
   <trkpt lat="22.7276000" lon="120.3001920">
    <ele>18.3</ele>
    <time>2026-09-18T12:42:16Z</time>
   </trkpt>
   <trkpt lat="22.7275850" lon="120.3002100">
    <ele>18.3</ele>
    <time>2026-09-18T12:42:17Z</time>
   </trkpt>
   <trkpt lat="22.7276110" lon="120.3001950">
    <ele>18.4</ele>
    <time>2026-09-18T12:42:18Z</time>
   </trkpt>
   <trkpt lat="22.7276370" lon="120.3001800">
    <ele>18.4</ele>
    <time>2026-09-18T12:42:19Z</time>
   </trkpt>
   <trkpt lat="22.7276080" lon="120.3001920">
    <ele>18.4</ele>
    <time>2026-09-18T12:42:20Z</time>
   </trkpt>
   <trkpt lat="22.7275910" lon="120.3001940">
    <ele>18.4</ele>
    <time>2026-09-18T12:42:21Z</time>
   </trkpt>
   <trkpt lat="22.7276030" lon="120.3002090">
    <ele>18.4</ele>
    <time>2026-09-18T12:42:22Z</time>
   </trkpt>
   <trkpt lat="22.7276220" lon="120.3001600">
    <ele>18.4</ele>
    <time>2026-09-18T12:42:23Z</time>
   </trkpt>
   <trkpt lat="22.7275420" lon="120.3002020">
    <ele>18.4</ele>
    <time>2026-09-18T12:42:24Z</time>
   </trkpt>
   <trkpt lat="22.7275270" lon="120.3002160">
    <ele>18.4</ele>
    <time>2026-09-18T12:42:25Z</time>
   </trkpt>
   <trkpt lat="22.7275480" lon="120.3001940">
    <ele>18.4</ele>
    <time>2026-09-18T12:42:26Z</time>
   </trkpt>
   <trkpt lat="22.7275530" lon="120.3001770">
    <ele>18.4</ele>
    <time>2026-09-18T12:42:27Z</time>
   </trkpt>
   <trkpt lat="22.7275740" lon="120.3001490">
    <ele>18.4</ele>
    <time>2026-09-18T12:42:28Z</time>
   </trkpt>
   <trkpt lat="22.7275830" lon="120.3001300">
    <ele>18.3</ele>
    <time>2026-09-18T12:42:29Z</time>
   </trkpt>
   <trkpt lat="22.7276030" lon="120.3001080">
    <ele>18.3</ele>
    <time>2026-09-18T12:42:30Z</time>
   </trkpt>
   <trkpt lat="22.7276060" lon="120.3000900">
    <ele>18.3</ele>
    <time>2026-09-18T12:42:31Z</time>
   </trkpt>
   <trkpt lat="22.7276050" lon="120.3000780">
    <ele>18.3</ele>
    <time>2026-09-18T12:42:32Z</time>
   </trkpt>
   <trkpt lat="22.7276140" lon="120.3000570">
    <ele>18.3</ele>
    <time>2026-09-18T12:42:33Z</time>
   </trkpt>
   <trkpt lat="22.7276150" lon="120.3000420">
    <ele>18.3</ele>
    <time>2026-09-18T12:42:34Z</time>
   </trkpt>
   <trkpt lat="22.7275870" lon="120.3000520">
    <ele>18.3</ele>
    <time>2026-09-18T12:42:35Z</time>
   </trkpt>
   <trkpt lat="22.7275860" lon="120.3000430">
    <ele>18.3</ele>
    <time>2026-09-18T12:42:36Z</time>
   </trkpt>
   <trkpt lat="22.7275880" lon="120.3000370">
    <ele>18.3</ele>
    <time>2026-09-18T12:42:37Z</time>
   </trkpt>
   <trkpt lat="22.7275900" lon="120.3000340">
    <ele>18.3</ele>
    <time>2026-09-18T12:42:38Z</time>
   </trkpt>
   <trkpt lat="22.7276020" lon="120.3000290">
    <ele>18.3</ele>
    <time>2026-09-18T12:42:39Z</time>
   </trkpt>
   <trkpt lat="22.7276030" lon="120.3000260">
    <ele>18.3</ele>
    <time>2026-09-18T12:42:40Z</time>
   </trkpt>
   <trkpt lat="22.7276080" lon="120.3000120">
    <ele>18.3</ele>
    <time>2026-09-18T12:42:41Z</time>
   </trkpt>
   <trkpt lat="22.7276130" lon="120.2999990">
    <ele>18.3</ele>
    <time>2026-09-18T12:42:42Z</time>
   </trkpt>
   <trkpt lat="22.7276140" lon="120.2999990">
    <ele>18.3</ele>
    <time>2026-09-18T12:42:43Z</time>
   </trkpt>
   <trkpt lat="22.7276210" lon="120.2999780">
    <ele>18.3</ele>
    <time>2026-09-18T12:42:44Z</time>
   </trkpt>
   <trkpt lat="22.7276260" lon="120.2999460">
    <ele>18.3</ele>
    <time>2026-09-18T12:42:45Z</time>
   </trkpt>
   <trkpt lat="22.7276330" lon="120.2999300">
    <ele>18.3</ele>
    <time>2026-09-18T12:42:46Z</time>
   </trkpt>
   <trkpt lat="22.7276340" lon="120.2999280">
    <ele>18.3</ele>
    <time>2026-09-18T12:42:47Z</time>
   </trkpt>
   <trkpt lat="22.7276400" lon="120.2999250">
    <ele>18.3</ele>
    <time>2026-09-18T12:42:48Z</time>
   </trkpt>
   <trkpt lat="22.7276370" lon="120.2999280">
    <ele>18.3</ele>
    <time>2026-09-18T12:42:49Z</time>
   </trkpt>
   <trkpt lat="22.7276410" lon="120.2999320">
    <ele>18.3</ele>
    <time>2026-09-18T12:42:50Z</time>
   </trkpt>
   <trkpt lat="22.7276430" lon="120.2999350">
    <ele>18.3</ele>
    <time>2026-09-18T12:42:51Z</time>
   </trkpt>
   <trkpt lat="22.7276440" lon="120.2999380">
    <ele>18.3</ele>
    <time>2026-09-18T12:42:52Z</time>
   </trkpt>
   <trkpt lat="22.7276430" lon="120.2999480">
    <ele>18.3</ele>
    <time>2026-09-18T12:42:53Z</time>
   </trkpt>
   <trkpt lat="22.7276450" lon="120.2999480">
    <ele>18.3</ele>
    <time>2026-09-18T12:42:54Z</time>
   </trkpt>
   <trkpt lat="22.7276450" lon="120.2999470">
    <ele>18.3</ele>
    <time>2026-09-18T12:42:55Z</time>
   </trkpt>
   <trkpt lat="22.7276530" lon="120.2999300">
    <ele>18.3</ele>
    <time>2026-09-18T12:42:58Z</time>
   </trkpt>
   <trkpt lat="22.7276500" lon="120.2999220">
    <ele>18.3</ele>
    <time>2026-09-18T12:42:59Z</time>
   </trkpt>
   <trkpt lat="22.7276550" lon="120.2999190">
    <ele>18.3</ele>
    <time>2026-09-18T12:43:00Z</time>
   </trkpt>
   <trkpt lat="22.7276480" lon="120.2999040">
    <ele>18.3</ele>
    <time>2026-09-18T12:43:01Z</time>
   </trkpt>
   <trkpt lat="22.7276450" lon="120.2998990">
    <ele>18.3</ele>
    <time>2026-09-18T12:43:02Z</time>
   </trkpt>
   <trkpt lat="22.7276550" lon="120.2999000">
    <ele>18.3</ele>
    <time>2026-09-18T12:43:03Z</time>
   </trkpt>
   <trkpt lat="22.7276590" lon="120.2999000">
    <ele>18.3</ele>
    <time>2026-09-18T12:43:04Z</time>
   </trkpt>
   <trkpt lat="22.7276580" lon="120.2998960">
    <ele>18.3</ele>
    <time>2026-09-18T12:43:05Z</time>
   </trkpt>
   <trkpt lat="22.7276560" lon="120.2998950">
    <ele>18.3</ele>
    <time>2026-09-18T12:43:06Z</time>
   </trkpt>
   <trkpt lat="22.7276540" lon="120.2998920">
    <ele>18.3</ele>
    <time>2026-09-18T12:43:07Z</time>
   </trkpt>
   <trkpt lat="22.7276260" lon="120.2998580">
    <ele>18.3</ele>
    <time>2026-09-18T12:43:27Z</time>
   </trkpt>
   <trkpt lat="22.7276120" lon="120.2998560">
    <ele>18.3</ele>
    <time>2026-09-18T12:43:28Z</time>
   </trkpt>
   <trkpt lat="22.7276150" lon="120.2998400">
    <ele>18.3</ele>
    <time>2026-09-18T12:43:29Z</time>
   </trkpt>
   <trkpt lat="22.7276090" lon="120.2998320">
    <ele>18.3</ele>
    <time>2026-09-18T12:43:30Z</time>
   </trkpt>
   <trkpt lat="22.7276050" lon="120.2998340">
    <ele>18.3</ele>
    <time>2026-09-18T12:43:31Z</time>
   </trkpt>
   <trkpt lat="22.7275960" lon="120.2998230">
    <ele>18.3</ele>
    <time>2026-09-18T12:43:32Z</time>
   </trkpt>
   <trkpt lat="22.7275860" lon="120.2998130">
    <ele>18.3</ele>
    <time>2026-09-18T12:43:33Z</time>
   </trkpt>
   <trkpt lat="22.7275810" lon="120.2998130">
    <ele>18.3</ele>
    <time>2026-09-18T12:43:34Z</time>
   </trkpt>
   <trkpt lat="22.7275750" lon="120.2997950">
    <ele>18.3</ele>
    <time>2026-09-18T12:43:35Z</time>
   </trkpt>
   <trkpt lat="22.7275740" lon="120.2997910">
    <ele>18.3</ele>
    <time>2026-09-18T12:43:36Z</time>
   </trkpt>
   <trkpt lat="22.7275610" lon="120.2997840">
    <ele>18.3</ele>
    <time>2026-09-18T12:43:37Z</time>
   </trkpt>
   <trkpt lat="22.7275630" lon="120.2997940">
    <ele>18.3</ele>
    <time>2026-09-18T12:43:38Z</time>
   </trkpt>
   <trkpt lat="22.7275840" lon="120.2997860">
    <ele>18.3</ele>
    <time>2026-09-18T12:43:39Z</time>
   </trkpt>
   <trkpt lat="22.7275800" lon="120.2997890">
    <ele>18.3</ele>
    <time>2026-09-18T12:43:40Z</time>
   </trkpt>
   <trkpt lat="22.7275720" lon="120.2997840">
    <ele>18.3</ele>
    <time>2026-09-18T12:43:41Z</time>
   </trkpt>
   <trkpt lat="22.7275630" lon="120.2997770">
    <ele>18.3</ele>
    <time>2026-09-18T12:43:42Z</time>
   </trkpt>
   <trkpt lat="22.7275540" lon="120.2997750">
    <ele>18.3</ele>
    <time>2026-09-18T12:43:43Z</time>
   </trkpt>
   <trkpt lat="22.7275530" lon="120.2997740">
    <ele>18.3</ele>
    <time>2026-09-18T12:43:44Z</time>
   </trkpt>
   <trkpt lat="22.7275570" lon="120.2997710">
    <ele>18.3</ele>
    <time>2026-09-18T12:43:45Z</time>
   </trkpt>
   <trkpt lat="22.7275660" lon="120.2997610">
    <ele>18.3</ele>
    <time>2026-09-18T12:43:46Z</time>
   </trkpt>
   <trkpt lat="22.7275720" lon="120.2997630">
    <ele>18.3</ele>
    <time>2026-09-18T12:43:47Z</time>
   </trkpt>
   <trkpt lat="22.7275500" lon="120.2997760">
    <ele>18.3</ele>
    <time>2026-09-18T12:43:48Z</time>
   </trkpt>
   <trkpt lat="22.7275490" lon="120.2997800">
    <ele>18.3</ele>
    <time>2026-09-18T12:43:49Z</time>
   </trkpt>
   <trkpt lat="22.7275570" lon="120.2997770">
    <ele>18.3</ele>
    <time>2026-09-18T12:43:50Z</time>
   </trkpt>
   <trkpt lat="22.7275670" lon="120.2997840">
    <ele>18.3</ele>
    <time>2026-09-18T12:43:51Z</time>
   </trkpt>
   <trkpt lat="22.7275720" lon="120.2997880">
    <ele>18.3</ele>
    <time>2026-09-18T12:43:52Z</time>
   </trkpt>
   <trkpt lat="22.7275800" lon="120.2997930">
    <ele>18.3</ele>
    <time>2026-09-18T12:43:53Z</time>
   </trkpt>
   <trkpt lat="22.7275790" lon="120.2997960">
    <ele>18.3</ele>
    <time>2026-09-18T12:43:54Z</time>
   </trkpt>
   <trkpt lat="22.7275870" lon="120.2997910">
    <ele>18.3</ele>
    <time>2026-09-18T12:43:55Z</time>
   </trkpt>
   <trkpt lat="22.7275920" lon="120.2997870">
    <ele>18.3</ele>
    <time>2026-09-18T12:43:56Z</time>
   </trkpt>
   <trkpt lat="22.7275890" lon="120.2997810">
    <ele>18.3</ele>
    <time>2026-09-18T12:43:57Z</time>
   </trkpt>
   <trkpt lat="22.7275830" lon="120.2997830">
    <ele>18.3</ele>
    <time>2026-09-18T12:43:58Z</time>
   </trkpt>
   <trkpt lat="22.7275850" lon="120.2997790">
    <ele>18.3</ele>
    <time>2026-09-18T12:43:59Z</time>
   </trkpt>
   <trkpt lat="22.7275930" lon="120.2997800">
    <ele>18.3</ele>
    <time>2026-09-18T12:44:00Z</time>
   </trkpt>
   <trkpt lat="22.7275930" lon="120.2997760">
    <ele>18.3</ele>
    <time>2026-09-18T12:44:01Z</time>
   </trkpt>
   <trkpt lat="22.7275850" lon="120.2997720">
    <ele>18.3</ele>
    <time>2026-09-18T12:44:02Z</time>
   </trkpt>
   <trkpt lat="22.7275540" lon="120.2997980">
    <ele>18.3</ele>
    <time>2026-09-18T12:44:03Z</time>
   </trkpt>
   <trkpt lat="22.7275500" lon="120.2998070">
    <ele>18.3</ele>
    <time>2026-09-18T12:44:04Z</time>
   </trkpt>
   <trkpt lat="22.7275680" lon="120.2998020">
    <ele>18.3</ele>
    <time>2026-09-18T12:44:05Z</time>
   </trkpt>
   <trkpt lat="22.7275680" lon="120.2998010">
    <ele>18.3</ele>
    <time>2026-09-18T12:44:06Z</time>
   </trkpt>
   <trkpt lat="22.7275910" lon="120.2997980">
    <ele>18.3</ele>
    <time>2026-09-18T12:44:07Z</time>
   </trkpt>
   <trkpt lat="22.7275960" lon="120.2998000">
    <ele>18.3</ele>
    <time>2026-09-18T12:44:08Z</time>
   </trkpt>
   <trkpt lat="22.7275980" lon="120.2998010">
    <ele>18.3</ele>
    <time>2026-09-18T12:44:09Z</time>
   </trkpt>
   <trkpt lat="22.7276100" lon="120.2998060">
    <ele>18.3</ele>
    <time>2026-09-18T12:44:10Z</time>
   </trkpt>
   <trkpt lat="22.7276080" lon="120.2998050">
    <ele>18.3</ele>
    <time>2026-09-18T12:44:11Z</time>
   </trkpt>
   <trkpt lat="22.7276100" lon="120.2998060">
    <ele>18.3</ele>
    <time>2026-09-18T12:44:12Z</time>
   </trkpt>
   <trkpt lat="22.7276090" lon="120.2998060">
    <ele>18.3</ele>
    <time>2026-09-18T12:44:13Z</time>
   </trkpt>
   <trkpt lat="22.7276080" lon="120.2998080">
    <ele>18.3</ele>
    <time>2026-09-18T12:44:14Z</time>
   </trkpt>
   <trkpt lat="22.7276250" lon="120.2998360">
    <ele>18.3</ele>
    <time>2026-09-18T12:44:15Z</time>
   </trkpt>
   <trkpt lat="22.7276160" lon="120.2998230">
    <ele>18.3</ele>
    <time>2026-09-18T12:44:16Z</time>
   </trkpt>
   <trkpt lat="22.7276070" lon="120.2998100">
    <ele>18.3</ele>
    <time>2026-09-18T12:44:17Z</time>
   </trkpt>
   <trkpt lat="22.7275990" lon="120.2997970">
    <ele>18.3</ele>
    <time>2026-09-18T12:44:18Z</time>
   </trkpt>
   <trkpt lat="22.7275900" lon="120.2997840">
    <ele>18.3</ele>
    <time>2026-09-18T12:44:19Z</time>
   </trkpt>
   <trkpt lat="22.7275800" lon="120.2997860">
    <ele>18.3</ele>
    <time>2026-09-18T12:44:20Z</time>
   </trkpt>
   <trkpt lat="22.7275610" lon="120.2997530">
    <ele>18.3</ele>
    <time>2026-09-18T12:44:22Z</time>
   </trkpt>
   <trkpt lat="22.7275470" lon="120.2997480">
    <ele>18.3</ele>
    <time>2026-09-18T12:44:23Z</time>
   </trkpt>
   <trkpt lat="22.7275370" lon="120.2997320">
    <ele>18.3</ele>
    <time>2026-09-18T12:44:24Z</time>
   </trkpt>
   <trkpt lat="22.7275290" lon="120.2997330">
    <ele>18.3</ele>
    <time>2026-09-18T12:44:25Z</time>
   </trkpt>
   <trkpt lat="22.7275240" lon="120.2997270">
    <ele>18.3</ele>
    <time>2026-09-18T12:44:26Z</time>
   </trkpt>
   <trkpt lat="22.7275240" lon="120.2997290">
    <ele>18.3</ele>
    <time>2026-09-18T12:44:27Z</time>
   </trkpt>
   <trkpt lat="22.7275100" lon="120.2997130">
    <ele>18.3</ele>
    <time>2026-09-18T12:44:28Z</time>
   </trkpt>
   <trkpt lat="22.7275090" lon="120.2997140">
    <ele>18.3</ele>
    <time>2026-09-18T12:44:29Z</time>
   </trkpt>
   <trkpt lat="22.7274920" lon="120.2996930">
    <ele>18.3</ele>
    <time>2026-09-18T12:44:30Z</time>
   </trkpt>
   <trkpt lat="22.7274690" lon="120.2996820">
    <ele>18.4</ele>
    <time>2026-09-18T12:44:31Z</time>
   </trkpt>
   <trkpt lat="22.7274510" lon="120.2996870">
    <ele>18.4</ele>
    <time>2026-09-18T12:44:32Z</time>
   </trkpt>
   <trkpt lat="22.7274480" lon="120.2996980">
    <ele>18.4</ele>
    <time>2026-09-18T12:44:33Z</time>
   </trkpt>
   <trkpt lat="22.7274450" lon="120.2997080">
    <ele>18.4</ele>
    <time>2026-09-18T12:44:34Z</time>
   </trkpt>
   <trkpt lat="22.7274420" lon="120.2997070">
    <ele>18.4</ele>
    <time>2026-09-18T12:44:35Z</time>
   </trkpt>
   <trkpt lat="22.7274410" lon="120.2997090">
    <ele>18.4</ele>
    <time>2026-09-18T12:44:36Z</time>
   </trkpt>
   <trkpt lat="22.7274400" lon="120.2996980">
    <ele>18.4</ele>
    <time>2026-09-18T12:44:37Z</time>
   </trkpt>
   <trkpt lat="22.7274380" lon="120.2996980">
    <ele>18.4</ele>
    <time>2026-09-18T12:44:38Z</time>
   </trkpt>
   <trkpt lat="22.7274340" lon="120.2996990">
    <ele>18.4</ele>
    <time>2026-09-18T12:44:39Z</time>
   </trkpt>
   <trkpt lat="22.7274270" lon="120.2997070">
    <ele>18.4</ele>
    <time>2026-09-18T12:44:40Z</time>
   </trkpt>
   <trkpt lat="22.7274070" lon="120.2997070">
    <ele>18.4</ele>
    <time>2026-09-18T12:44:41Z</time>
   </trkpt>
   <trkpt lat="22.7274020" lon="120.2997130">
    <ele>18.4</ele>
    <time>2026-09-18T12:44:42Z</time>
   </trkpt>
   <trkpt lat="22.7273960" lon="120.2997200">
    <ele>18.4</ele>
    <time>2026-09-18T12:44:43Z</time>
   </trkpt>
   <trkpt lat="22.7273850" lon="120.2997260">
    <ele>18.4</ele>
    <time>2026-09-18T12:44:44Z</time>
   </trkpt>
   <trkpt lat="22.7273840" lon="120.2997250">
    <ele>18.4</ele>
    <time>2026-09-18T12:44:45Z</time>
   </trkpt>
   <trkpt lat="22.7273850" lon="120.2997220">
    <ele>18.4</ele>
    <time>2026-09-18T12:44:46Z</time>
   </trkpt>
   <trkpt lat="22.7273870" lon="120.2997240">
    <ele>18.4</ele>
    <time>2026-09-18T12:44:47Z</time>
   </trkpt>
   <trkpt lat="22.7273910" lon="120.2997330">
    <ele>18.4</ele>
    <time>2026-09-18T12:44:48Z</time>
   </trkpt>
   <trkpt lat="22.7273910" lon="120.2997370">
    <ele>18.4</ele>
    <time>2026-09-18T12:44:49Z</time>
   </trkpt>
   <trkpt lat="22.7273770" lon="120.2997390">
    <ele>18.4</ele>
    <time>2026-09-18T12:44:50Z</time>
   </trkpt>
   <trkpt lat="22.7273790" lon="120.2997430">
    <ele>18.4</ele>
    <time>2026-09-18T12:44:51Z</time>
   </trkpt>
   <trkpt lat="22.7274340" lon="120.2997310">
    <ele>18.4</ele>
    <time>2026-09-18T12:44:57Z</time>
   </trkpt>
   <trkpt lat="22.7274300" lon="120.2997320">
    <ele>18.4</ele>
    <time>2026-09-18T12:44:58Z</time>
   </trkpt>
   <trkpt lat="22.7274330" lon="120.2997230">
    <ele>18.4</ele>
    <time>2026-09-18T12:44:59Z</time>
   </trkpt>
   <trkpt lat="22.7274370" lon="120.2997240">
    <ele>18.4</ele>
    <time>2026-09-18T12:45:00Z</time>
   </trkpt>
   <trkpt lat="22.7274360" lon="120.2997350">
    <ele>18.4</ele>
    <time>2026-09-18T12:45:01Z</time>
   </trkpt>
   <trkpt lat="22.7274370" lon="120.2997490">
    <ele>18.3</ele>
    <time>2026-09-18T12:45:02Z</time>
   </trkpt>
   <trkpt lat="22.7274280" lon="120.2997610">
    <ele>18.3</ele>
    <time>2026-09-18T12:45:03Z</time>
   </trkpt>
   <trkpt lat="22.7274240" lon="120.2997530">
    <ele>18.3</ele>
    <time>2026-09-18T12:45:04Z</time>
   </trkpt>
   <trkpt lat="22.7274420" lon="120.2997540">
    <ele>18.3</ele>
    <time>2026-09-18T12:45:05Z</time>
   </trkpt>
   <trkpt lat="22.7274480" lon="120.2997650">
    <ele>18.3</ele>
    <time>2026-09-18T12:45:06Z</time>
   </trkpt>
   <trkpt lat="22.7274480" lon="120.2997750">
    <ele>18.3</ele>
    <time>2026-09-18T12:45:07Z</time>
   </trkpt>
   <trkpt lat="22.7274400" lon="120.2997880">
    <ele>18.3</ele>
    <time>2026-09-18T12:45:08Z</time>
   </trkpt>
   <trkpt lat="22.7274390" lon="120.2997990">
    <ele>18.3</ele>
    <time>2026-09-18T12:45:09Z</time>
   </trkpt>
   <trkpt lat="22.7274430" lon="120.2998020">
    <ele>18.3</ele>
    <time>2026-09-18T12:45:10Z</time>
   </trkpt>
   <trkpt lat="22.7274480" lon="120.2998170">
    <ele>18.3</ele>
    <time>2026-09-18T12:45:11Z</time>
   </trkpt>
   <trkpt lat="22.7274620" lon="120.2998390">
    <ele>18.3</ele>
    <time>2026-09-18T12:45:12Z</time>
   </trkpt>
   <trkpt lat="22.7274700" lon="120.2998500">
    <ele>18.3</ele>
    <time>2026-09-18T12:45:13Z</time>
   </trkpt>
   <trkpt lat="22.7274770" lon="120.2998590">
    <ele>18.3</ele>
    <time>2026-09-18T12:45:14Z</time>
   </trkpt>
   <trkpt lat="22.7274780" lon="120.2998680">
    <ele>18.3</ele>
    <time>2026-09-18T12:45:15Z</time>
   </trkpt>
   <trkpt lat="22.7274780" lon="120.2998800">
    <ele>18.3</ele>
    <time>2026-09-18T12:45:16Z</time>
   </trkpt>
   <trkpt lat="22.7274870" lon="120.2998920">
    <ele>18.3</ele>
    <time>2026-09-18T12:45:17Z</time>
   </trkpt>
   <trkpt lat="22.7274880" lon="120.2999180">
    <ele>18.3</ele>
    <time>2026-09-18T12:45:18Z</time>
   </trkpt>
   <trkpt lat="22.7274990" lon="120.2999290">
    <ele>18.3</ele>
    <time>2026-09-18T12:45:19Z</time>
   </trkpt>
   <trkpt lat="22.7275000" lon="120.2999380">
    <ele>18.3</ele>
    <time>2026-09-18T12:45:20Z</time>
   </trkpt>
   <trkpt lat="22.7275030" lon="120.2999470">
    <ele>18.3</ele>
    <time>2026-09-18T12:45:21Z</time>
   </trkpt>
   <trkpt lat="22.7275120" lon="120.2999540">
    <ele>18.3</ele>
    <time>2026-09-18T12:45:22Z</time>
   </trkpt>
   <trkpt lat="22.7275130" lon="120.2999580">
    <ele>18.3</ele>
    <time>2026-09-18T12:45:23Z</time>
   </trkpt>
   <trkpt lat="22.7275230" lon="120.2999670">
    <ele>18.3</ele>
    <time>2026-09-18T12:45:24Z</time>
   </trkpt>
   <trkpt lat="22.7275290" lon="120.2999700">
    <ele>18.3</ele>
    <time>2026-09-18T12:45:25Z</time>
   </trkpt>
   <trkpt lat="22.7275440" lon="120.2999760">
    <ele>18.3</ele>
    <time>2026-09-18T12:45:26Z</time>
   </trkpt>
   <trkpt lat="22.7275550" lon="120.2999790">
    <ele>18.3</ele>
    <time>2026-09-18T12:45:27Z</time>
   </trkpt>
   <trkpt lat="22.7275680" lon="120.2999840">
    <ele>18.3</ele>
    <time>2026-09-18T12:45:28Z</time>
   </trkpt>
   <trkpt lat="22.7275840" lon="120.2999900">
    <ele>18.3</ele>
    <time>2026-09-18T12:45:29Z</time>
   </trkpt>
   <trkpt lat="22.7275910" lon="120.2999970">
    <ele>18.3</ele>
    <time>2026-09-18T12:45:30Z</time>
   </trkpt>
   <trkpt lat="22.7276060" lon="120.3000160">
    <ele>18.3</ele>
    <time>2026-09-18T12:45:31Z</time>
   </trkpt>
   <trkpt lat="22.7276140" lon="120.3000280">
    <ele>18.3</ele>
    <time>2026-09-18T12:45:32Z</time>
   </trkpt>
   <trkpt lat="22.7276230" lon="120.3000400">
    <ele>18.3</ele>
    <time>2026-09-18T12:45:33Z</time>
   </trkpt>
   <trkpt lat="22.7276250" lon="120.3000420">
    <ele>18.3</ele>
    <time>2026-09-18T12:45:34Z</time>
   </trkpt>
   <trkpt lat="22.7276360" lon="120.3000410">
    <ele>18.3</ele>
    <time>2026-09-18T12:45:35Z</time>
   </trkpt>
   <trkpt lat="22.7276400" lon="120.3000480">
    <ele>18.3</ele>
    <time>2026-09-18T12:45:36Z</time>
   </trkpt>
   <trkpt lat="22.7276460" lon="120.3000510">
    <ele>18.3</ele>
    <time>2026-09-18T12:45:38Z</time>
   </trkpt>
   <trkpt lat="22.7276520" lon="120.3000460">
    <ele>18.3</ele>
    <time>2026-09-18T12:45:39Z</time>
   </trkpt>
   <trkpt lat="22.7276630" lon="120.3000500">
    <ele>18.3</ele>
    <time>2026-09-18T12:45:40Z</time>
   </trkpt>
   <trkpt lat="22.7276670" lon="120.3000530">
    <ele>18.3</ele>
    <time>2026-09-18T12:45:41Z</time>
   </trkpt>
   <trkpt lat="22.7276850" lon="120.3000640">
    <ele>18.3</ele>
    <time>2026-09-18T12:45:42Z</time>
   </trkpt>
   <trkpt lat="22.7276990" lon="120.3000740">
    <ele>18.3</ele>
    <time>2026-09-18T12:45:43Z</time>
   </trkpt>
   <trkpt lat="22.7277080" lon="120.3000810">
    <ele>18.3</ele>
    <time>2026-09-18T12:45:44Z</time>
   </trkpt>
   <trkpt lat="22.7277190" lon="120.3000850">
    <ele>18.2</ele>
    <time>2026-09-18T12:45:45Z</time>
   </trkpt>
   <trkpt lat="22.7277190" lon="120.3000990">
    <ele>18.2</ele>
    <time>2026-09-18T12:45:46Z</time>
   </trkpt>
   <trkpt lat="22.7277200" lon="120.3001150">
    <ele>18.2</ele>
    <time>2026-09-18T12:45:47Z</time>
   </trkpt>
   <trkpt lat="22.7277240" lon="120.3001260">
    <ele>18.2</ele>
    <time>2026-09-18T12:45:48Z</time>
   </trkpt>
   <trkpt lat="22.7277340" lon="120.3001430">
    <ele>18.2</ele>
    <time>2026-09-18T12:45:49Z</time>
   </trkpt>
   <trkpt lat="22.7277340" lon="120.3001440">
    <ele>18.2</ele>
    <time>2026-09-18T12:45:50Z</time>
   </trkpt>
   <trkpt lat="22.7277440" lon="120.3001530">
    <ele>18.2</ele>
    <time>2026-09-18T12:45:51Z</time>
   </trkpt>
   <trkpt lat="22.7277720" lon="120.3001660">
    <ele>18.2</ele>
    <time>2026-09-18T12:45:52Z</time>
   </trkpt>
   <trkpt lat="22.7277820" lon="120.3001870">
    <ele>18.1</ele>
    <time>2026-09-18T12:45:53Z</time>
   </trkpt>
   <trkpt lat="22.7277900" lon="120.3002040">
    <ele>18.1</ele>
    <time>2026-09-18T12:45:54Z</time>
   </trkpt>
   <trkpt lat="22.7277960" lon="120.3002110">
    <ele>18.1</ele>
    <time>2026-09-18T12:45:55Z</time>
   </trkpt>
   <trkpt lat="22.7278130" lon="120.3002190">
    <ele>18.1</ele>
    <time>2026-09-18T12:45:56Z</time>
   </trkpt>
   <trkpt lat="22.7278160" lon="120.3002340">
    <ele>18.1</ele>
    <time>2026-09-18T12:45:57Z</time>
   </trkpt>
   <trkpt lat="22.7278190" lon="120.3002440">
    <ele>18.1</ele>
    <time>2026-09-18T12:45:58Z</time>
   </trkpt>
   <trkpt lat="22.7278240" lon="120.3002520">
    <ele>18.1</ele>
    <time>2026-09-18T12:45:59Z</time>
   </trkpt>
   <trkpt lat="22.7278340" lon="120.3002640">
    <ele>18.1</ele>
    <time>2026-09-18T12:46:00Z</time>
   </trkpt>
   <trkpt lat="22.7278360" lon="120.3002740">
    <ele>18.1</ele>
    <time>2026-09-18T12:46:01Z</time>
   </trkpt>
   <trkpt lat="22.7278410" lon="120.3002920">
    <ele>18.1</ele>
    <time>2026-09-18T12:46:02Z</time>
   </trkpt>
   <trkpt lat="22.7278390" lon="120.3003140">
    <ele>18.1</ele>
    <time>2026-09-18T12:46:03Z</time>
   </trkpt>
   <trkpt lat="22.7278400" lon="120.3003270">
    <ele>18.0</ele>
    <time>2026-09-18T12:46:04Z</time>
   </trkpt>
   <trkpt lat="22.7278400" lon="120.3003300">
    <ele>18.0</ele>
    <time>2026-09-18T12:46:05Z</time>
   </trkpt>
   <trkpt lat="22.7278360" lon="120.3003460">
    <ele>18.0</ele>
    <time>2026-09-18T12:46:06Z</time>
   </trkpt>
   <trkpt lat="22.7278410" lon="120.3003560">
    <ele>18.0</ele>
    <time>2026-09-18T12:46:07Z</time>
   </trkpt>
   <trkpt lat="22.7278420" lon="120.3003580">
    <ele>18.0</ele>
    <time>2026-09-18T12:46:08Z</time>
   </trkpt>
   <trkpt lat="22.7278330" lon="120.3003670">
    <ele>18.0</ele>
    <time>2026-09-18T12:46:09Z</time>
   </trkpt>
   <trkpt lat="22.7278310" lon="120.3003770">
    <ele>18.0</ele>
    <time>2026-09-18T12:46:10Z</time>
   </trkpt>
   <trkpt lat="22.7278390" lon="120.3003730">
    <ele>18.0</ele>
    <time>2026-09-18T12:46:11Z</time>
   </trkpt>
   <trkpt lat="22.7278420" lon="120.3003790">
    <ele>18.0</ele>
    <time>2026-09-18T12:46:12Z</time>
   </trkpt>
   <trkpt lat="22.7278380" lon="120.3003850">
    <ele>18.0</ele>
    <time>2026-09-18T12:46:13Z</time>
   </trkpt>
   <trkpt lat="22.7278390" lon="120.3003910">
    <ele>18.0</ele>
    <time>2026-09-18T12:46:14Z</time>
   </trkpt>
   <trkpt lat="22.7278550" lon="120.3003860">
    <ele>18.4</ele>
    <time>2026-09-18T12:46:15Z</time>
   </trkpt>
   <trkpt lat="22.7278680" lon="120.3003720">
    <ele>18.6</ele>
    <time>2026-09-18T12:46:16Z</time>
   </trkpt>
   <trkpt lat="22.7278950" lon="120.3003520">
    <ele>18.9</ele>
    <time>2026-09-18T12:46:17Z</time>
   </trkpt>
   <trkpt lat="22.7279000" lon="120.3003490">
    <ele>19.0</ele>
    <time>2026-09-18T12:46:18Z</time>
   </trkpt>
   <trkpt lat="22.7279060" lon="120.3003340">
    <ele>19.1</ele>
    <time>2026-09-18T12:46:19Z</time>
   </trkpt>
   <trkpt lat="22.7279150" lon="120.3003360">
    <ele>19.2</ele>
    <time>2026-09-18T12:46:20Z</time>
   </trkpt>
   <trkpt lat="22.7279200" lon="120.3003280">
    <ele>19.3</ele>
    <time>2026-09-18T12:46:21Z</time>
   </trkpt>
   <trkpt lat="22.7279270" lon="120.3003360">
    <ele>19.4</ele>
    <time>2026-09-18T12:46:22Z</time>
   </trkpt>
   <trkpt lat="22.7279400" lon="120.3003400">
    <ele>19.5</ele>
    <time>2026-09-18T12:46:23Z</time>
   </trkpt>
   <trkpt lat="22.7279390" lon="120.3003320">
    <ele>19.6</ele>
    <time>2026-09-18T12:46:24Z</time>
   </trkpt>
   <trkpt lat="22.7279500" lon="120.3003180">
    <ele>19.7</ele>
    <time>2026-09-18T12:46:25Z</time>
   </trkpt>
   <trkpt lat="22.7279610" lon="120.3002970">
    <ele>19.9</ele>
    <time>2026-09-18T12:46:26Z</time>
   </trkpt>
   <trkpt lat="22.7279660" lon="120.3002810">
    <ele>20.1</ele>
    <time>2026-09-18T12:46:27Z</time>
   </trkpt>
   <trkpt lat="22.7279750" lon="120.3002660">
    <ele>20.2</ele>
    <time>2026-09-18T12:46:28Z</time>
   </trkpt>
   <trkpt lat="22.7279790" lon="120.3002510">
    <ele>20.4</ele>
    <time>2026-09-18T12:46:29Z</time>
   </trkpt>
   <trkpt lat="22.7279900" lon="120.3002420">
    <ele>20.5</ele>
    <time>2026-09-18T12:46:30Z</time>
   </trkpt>
   <trkpt lat="22.7280030" lon="120.3002340">
    <ele>20.6</ele>
    <time>2026-09-18T12:46:31Z</time>
   </trkpt>
   <trkpt lat="22.7280120" lon="120.3002250">
    <ele>20.7</ele>
    <time>2026-09-18T12:46:32Z</time>
   </trkpt>
   <trkpt lat="22.7280090" lon="120.3002220">
    <ele>20.7</ele>
    <time>2026-09-18T12:46:33Z</time>
   </trkpt>
   <trkpt lat="22.7280160" lon="120.3002120">
    <ele>20.8</ele>
    <time>2026-09-18T12:46:34Z</time>
   </trkpt>
   <trkpt lat="22.7280240" lon="120.3001980">
    <ele>21.0</ele>
    <time>2026-09-18T12:46:35Z</time>
   </trkpt>
   <trkpt lat="22.7280350" lon="120.3002020">
    <ele>21.1</ele>
    <time>2026-09-18T12:46:36Z</time>
   </trkpt>
   <trkpt lat="22.7280530" lon="120.3002140">
    <ele>21.2</ele>
    <time>2026-09-18T12:46:37Z</time>
   </trkpt>
   <trkpt lat="22.7280660" lon="120.3002360">
    <ele>21.4</ele>
    <time>2026-09-18T12:46:38Z</time>
   </trkpt>
   <trkpt lat="22.7280810" lon="120.3002390">
    <ele>21.5</ele>
    <time>2026-09-18T12:46:39Z</time>
   </trkpt>
   <trkpt lat="22.7280800" lon="120.3002280">
    <ele>21.6</ele>
    <time>2026-09-18T12:46:40Z</time>
   </trkpt>
   <trkpt lat="22.7280850" lon="120.3002260">
    <ele>21.6</ele>
    <time>2026-09-18T12:46:41Z</time>
   </trkpt>
   <trkpt lat="22.7280860" lon="120.3002260">
    <ele>21.6</ele>
    <time>2026-09-18T12:46:42Z</time>
   </trkpt>
   <trkpt lat="22.7281200" lon="120.3002340">
    <ele>21.8</ele>
    <time>2026-09-18T12:46:43Z</time>
   </trkpt>
   <trkpt lat="22.7281470" lon="120.3002190">
    <ele>22.0</ele>
    <time>2026-09-18T12:46:44Z</time>
   </trkpt>
   <trkpt lat="22.7281800" lon="120.3002490">
    <ele>22.2</ele>
    <time>2026-09-18T12:46:45Z</time>
   </trkpt>
   <trkpt lat="22.7282070" lon="120.3002710">
    <ele>22.4</ele>
    <time>2026-09-18T12:46:46Z</time>
   </trkpt>
   <trkpt lat="22.7282240" lon="120.3002570">
    <ele>22.5</ele>
    <time>2026-09-18T12:46:47Z</time>
   </trkpt>
   <trkpt lat="22.7282420" lon="120.3002420">
    <ele>22.5</ele>
    <time>2026-09-18T12:46:48Z</time>
   </trkpt>
   <trkpt lat="22.7282590" lon="120.3002280">
    <ele>22.6</ele>
    <time>2026-09-18T12:46:49Z</time>
   </trkpt>
   <trkpt lat="22.7282560" lon="120.3002030">
    <ele>22.6</ele>
    <time>2026-09-18T12:46:50Z</time>
   </trkpt>
   <trkpt lat="22.7282650" lon="120.3002020">
    <ele>22.7</ele>
    <time>2026-09-18T12:46:51Z</time>
   </trkpt>
   <trkpt lat="22.7282730" lon="120.3001930">
    <ele>22.7</ele>
    <time>2026-09-18T12:46:52Z</time>
   </trkpt>
   <trkpt lat="22.7282630" lon="120.3001920">
    <ele>22.7</ele>
    <time>2026-09-18T12:46:53Z</time>
   </trkpt>
   <trkpt lat="22.7282470" lon="120.3001970">
    <ele>22.7</ele>
    <time>2026-09-18T12:46:54Z</time>
   </trkpt>
   <trkpt lat="22.7282480" lon="120.3001930">
    <ele>22.7</ele>
    <time>2026-09-18T12:46:55Z</time>
   </trkpt>
   <trkpt lat="22.7282460" lon="120.3001920">
    <ele>22.7</ele>
    <time>2026-09-18T12:46:56Z</time>
   </trkpt>
   <trkpt lat="22.7282440" lon="120.3001980">
    <ele>22.8</ele>
    <time>2026-09-18T12:46:57Z</time>
   </trkpt>
   <trkpt lat="22.7282420" lon="120.3001970">
    <ele>22.8</ele>
    <time>2026-09-18T12:46:58Z</time>
   </trkpt>
   <trkpt lat="22.7282440" lon="120.3001910">
    <ele>22.8</ele>
    <time>2026-09-18T12:46:59Z</time>
   </trkpt>
   <trkpt lat="22.7282390" lon="120.3001830">
    <ele>22.8</ele>
    <time>2026-09-18T12:47:00Z</time>
   </trkpt>
   <trkpt lat="22.7282380" lon="120.3001770">
    <ele>22.8</ele>
    <time>2026-09-18T12:47:01Z</time>
   </trkpt>
   <trkpt lat="22.7282500" lon="120.3001480">
    <ele>22.8</ele>
    <time>2026-09-18T12:47:02Z</time>
   </trkpt>
   <trkpt lat="22.7282520" lon="120.3001360">
    <ele>22.9</ele>
    <time>2026-09-18T12:47:04Z</time>
   </trkpt>
   <trkpt lat="22.7282490" lon="120.3001200">
    <ele>22.9</ele>
    <time>2026-09-18T12:47:05Z</time>
   </trkpt>
   <trkpt lat="22.7282460" lon="120.3001080">
    <ele>22.9</ele>
    <time>2026-09-18T12:47:06Z</time>
   </trkpt>
   <trkpt lat="22.7282510" lon="120.3001030">
    <ele>22.9</ele>
    <time>2026-09-18T12:47:07Z</time>
   </trkpt>
   <trkpt lat="22.7282540" lon="120.3000890">
    <ele>22.9</ele>
    <time>2026-09-18T12:47:08Z</time>
   </trkpt>
   <trkpt lat="22.7282600" lon="120.3000800">
    <ele>22.9</ele>
    <time>2026-09-18T12:47:09Z</time>
   </trkpt>
   <trkpt lat="22.7282670" lon="120.3000840">
    <ele>22.9</ele>
    <time>2026-09-18T12:47:10Z</time>
   </trkpt>
   <trkpt lat="22.7282620" lon="120.3000760">
    <ele>23.0</ele>
    <time>2026-09-18T12:47:11Z</time>
   </trkpt>
   <trkpt lat="22.7282580" lon="120.3000600">
    <ele>23.0</ele>
    <time>2026-09-18T12:47:12Z</time>
   </trkpt>
  </trkseg>
 </trk>
</gpx>
