<?xml version="1.0" encoding="UTF-8"?>
<gpx creator="StravaGPX" version="1.1" xmlns="http://www.topografix.com/GPX/1/1" xmlns:xsi="http://www.w3.org/2001/XMLSchema-instance" xsi:schemaLocation="http://www.topografix.com/GPX/1/1 http://www.topografix.com/GPX/1/1/gpx.xsd">
 <metadata>
  <time>2026-09-20T12:35:09Z</time>
 </metadata>
 <trk>
  <name>傍晚電動自行車騎乘</name>
  <type>ebikeride</type>
  <trkseg>
   <trkpt lat="22.7307500" lon="120.3239750">
    <ele>17.5</ele>
    <time>2026-09-20T12:35:09Z</time>
   </trkpt>
   <trkpt lat="22.7307370" lon="120.3239050">
    <ele>17.4</ele>
    <time>2026-09-20T12:35:10Z</time>
   </trkpt>
   <trkpt lat="22.7307280" lon="120.3238390">
    <ele>17.3</ele>
    <time>2026-09-20T12:35:11Z</time>
   </trkpt>
   <trkpt lat="22.7307040" lon="120.3237690">
    <ele>17.3</ele>
    <time>2026-09-20T12:35:12Z</time>
   </trkpt>
   <trkpt lat="22.7306770" lon="120.3237000">
    <ele>17.3</ele>
    <time>2026-09-20T12:35:13Z</time>
   </trkpt>
   <trkpt lat="22.7306530" lon="120.3236320">
    <ele>17.3</ele>
    <time>2026-09-20T12:35:14Z</time>
   </trkpt>
   <trkpt lat="22.7305980" lon="120.3235680">
    <ele>17.3</ele>
    <time>2026-09-20T12:35:15Z</time>
   </trkpt>
   <trkpt lat="22.7305320" lon="120.3235040">
    <ele>17.4</ele>
    <time>2026-09-20T12:35:16Z</time>
   </trkpt>
   <trkpt lat="22.7304890" lon="120.3234540">
    <ele>17.4</ele>
    <time>2026-09-20T12:35:17Z</time>
   </trkpt>
   <trkpt lat="22.7304650" lon="120.3234000">
    <ele>17.4</ele>
    <time>2026-09-20T12:35:18Z</time>
   </trkpt>
   <trkpt lat="22.7304600" lon="120.3233550">
    <ele>17.4</ele>
    <time>2026-09-20T12:35:19Z</time>
   </trkpt>
   <trkpt lat="22.7304950" lon="120.3233220">
    <ele>17.5</ele>
    <time>2026-09-20T12:35:20Z</time>
   </trkpt>
   <trkpt lat="22.7305400" lon="120.3232870">
    <ele>17.6</ele>
    <time>2026-09-20T12:35:21Z</time>
   </trkpt>
   <trkpt lat="22.7305800" lon="120.3232370">
    <ele>17.7</ele>
    <time>2026-09-20T12:35:22Z</time>
   </trkpt>
   <trkpt lat="22.7306910" lon="120.3231680">
    <ele>17.9</ele>
    <time>2026-09-20T12:35:23Z</time>
   </trkpt>
   <trkpt lat="22.7307460" lon="120.3231080">
    <ele>18.1</ele>
    <time>2026-09-20T12:35:24Z</time>
   </trkpt>
   <trkpt lat="22.7308000" lon="120.3230520">
    <ele>18.2</ele>
    <time>2026-09-20T12:35:25Z</time>
   </trkpt>
   <trkpt lat="22.7308210" lon="120.3230160">
    <ele>18.3</ele>
    <time>2026-09-20T12:35:26Z</time>
   </trkpt>
   <trkpt lat="22.7308650" lon="120.3229470">
    <ele>18.5</ele>
    <time>2026-09-20T12:35:27Z</time>
   </trkpt>
   <trkpt lat="22.7308840" lon="120.3228930">
    <ele>18.6</ele>
    <time>2026-09-20T12:35:28Z</time>
   </trkpt>
   <trkpt lat="22.7309140" lon="120.3228690">
    <ele>18.7</ele>
    <time>2026-09-20T12:35:29Z</time>
   </trkpt>
   <trkpt lat="22.7309000" lon="120.3228440">
    <ele>18.8</ele>
    <time>2026-09-20T12:35:30Z</time>
   </trkpt>
   <trkpt lat="22.7309360" lon="120.3228580">
    <ele>18.8</ele>
    <time>2026-09-20T12:35:31Z</time>
   </trkpt>
   <trkpt lat="22.7309560" lon="120.3228320">
    <ele>18.7</ele>
    <time>2026-09-20T12:35:32Z</time>
   </trkpt>
   <trkpt lat="22.7310080" lon="120.3227910">
    <ele>18.6</ele>
    <time>2026-09-20T12:35:33Z</time>
   </trkpt>
   <trkpt lat="22.7310410" lon="120.3227350">
    <ele>18.6</ele>
    <time>2026-09-20T12:35:34Z</time>
   </trkpt>
   <trkpt lat="22.7310950" lon="120.3226830">
    <ele>18.5</ele>
    <time>2026-09-20T12:35:35Z</time>
   </trkpt>
   <trkpt lat="22.7311650" lon="120.3226180">
    <ele>18.4</ele>
    <time>2026-09-20T12:35:36Z</time>
   </trkpt>
   <trkpt lat="22.7312310" lon="120.3225400">
    <ele>18.2</ele>
    <time>2026-09-20T12:35:37Z</time>
   </trkpt>
   <trkpt lat="22.7312930" lon="120.3224810">
    <ele>18.1</ele>
    <time>2026-09-20T12:35:38Z</time>
   </trkpt>
   <trkpt lat="22.7313620" lon="120.3224020">
    <ele>17.9</ele>
    <time>2026-09-20T12:35:39Z</time>
   </trkpt>
   <trkpt lat="22.7314250" lon="120.3223390">
    <ele>17.7</ele>
    <time>2026-09-20T12:35:40Z</time>
   </trkpt>
   <trkpt lat="22.7314820" lon="120.3222900">
    <ele>17.6</ele>
    <time>2026-09-20T12:35:41Z</time>
   </trkpt>
   <trkpt lat="22.7315220" lon="120.3222430">
    <ele>17.6</ele>
    <time>2026-09-20T12:35:42Z</time>
   </trkpt>
   <trkpt lat="22.7315620" lon="120.3221930">
    <ele>17.4</ele>
    <time>2026-09-20T12:35:43Z</time>
   </trkpt>
   <trkpt lat="22.7315850" lon="120.3221430">
    <ele>17.3</ele>
    <time>2026-09-20T12:35:44Z</time>
   </trkpt>
   <trkpt lat="22.7316030" lon="120.3221430">
    <ele>17.3</ele>
    <time>2026-09-20T12:35:45Z</time>
   </trkpt>
   <trkpt lat="22.7316150" lon="120.3221370">
    <ele>17.3</ele>
    <time>2026-09-20T12:35:46Z</time>
   </trkpt>
   <trkpt lat="22.7316040" lon="120.3221110">
    <ele>17.3</ele>
    <time>2026-09-20T12:35:47Z</time>
   </trkpt>
   <trkpt lat="22.7315610" lon="120.3220820">
    <ele>17.3</ele>
    <time>2026-09-20T12:35:48Z</time>
   </trkpt>
   <trkpt lat="22.7315260" lon="120.3220470">
    <ele>17.3</ele>
    <time>2026-09-20T12:35:49Z</time>
   </trkpt>
   <trkpt lat="22.7314900" lon="120.3220030">
    <ele>17.4</ele>
    <time>2026-09-20T12:35:50Z</time>
   </trkpt>
   <trkpt lat="22.7314610" lon="120.3219680">
    <ele>17.4</ele>
    <time>2026-09-20T12:35:51Z</time>
   </trkpt>
   <trkpt lat="22.7314440" lon="120.3219520">
    <ele>17.4</ele>
    <time>2026-09-20T12:35:52Z</time>
   </trkpt>
   <trkpt lat="22.7314260" lon="120.3219310">
    <ele>17.4</ele>
    <time>2026-09-20T12:35:53Z</time>
   </trkpt>
   <trkpt lat="22.7314120" lon="120.3219170">
    <ele>17.4</ele>
    <time>2026-09-20T12:35:54Z</time>
   </trkpt>
   <trkpt lat="22.7314010" lon="120.3219070">
    <ele>17.4</ele>
    <time>2026-09-20T12:35:55Z</time>
   </trkpt>
   <trkpt lat="22.7313950" lon="120.3218990">
    <ele>17.4</ele>
    <time>2026-09-20T12:35:56Z</time>
   </trkpt>
   <trkpt lat="22.7313830" lon="120.3219030">
    <ele>17.4</ele>
    <time>2026-09-20T12:35:57Z</time>
   </trkpt>
   <trkpt lat="22.7313670" lon="120.3219390">
    <ele>17.4</ele>
    <time>2026-09-20T12:35:58Z</time>
   </trkpt>
   <trkpt lat="22.7313340" lon="120.3219900">
    <ele>17.5</ele>
    <time>2026-09-20T12:35:59Z</time>
   </trkpt>
   <trkpt lat="22.7313000" lon="120.3220370">
    <ele>17.5</ele>
    <time>2026-09-20T12:36:00Z</time>
   </trkpt>
   <trkpt lat="22.7312400" lon="120.3220850">
    <ele>17.6</ele>
    <time>2026-09-20T12:36:01Z</time>
   </trkpt>
   <trkpt lat="22.7311890" lon="120.3221460">
    <ele>17.6</ele>
    <time>2026-09-20T12:36:02Z</time>
   </trkpt>
   <trkpt lat="22.7311330" lon="120.3222080">
    <ele>17.7</ele>
    <time>2026-09-20T12:36:03Z</time>
   </trkpt>
   <trkpt lat="22.7310680" lon="120.3222660">
    <ele>17.7</ele>
    <time>2026-09-20T12:36:04Z</time>
   </trkpt>
   <trkpt lat="22.7309890" lon="120.3223120">
    <ele>17.8</ele>
    <time>2026-09-20T12:36:05Z</time>
   </trkpt>
   <trkpt lat="22.7309230" lon="120.3223810">
    <ele>17.9</ele>
    <time>2026-09-20T12:36:06Z</time>
   </trkpt>
   <trkpt lat="22.7308710" lon="120.3224530">
    <ele>17.9</ele>
    <time>2026-09-20T12:36:07Z</time>
   </trkpt>
   <trkpt lat="22.7307720" lon="120.3224930">
    <ele>18.0</ele>
    <time>2026-09-20T12:36:08Z</time>
   </trkpt>
   <trkpt lat="22.7307260" lon="120.3225380">
    <ele>18.0</ele>
    <time>2026-09-20T12:36:09Z</time>
   </trkpt>
   <trkpt lat="22.7306850" lon="120.3225680">
    <ele>18.1</ele>
    <time>2026-09-20T12:36:10Z</time>
   </trkpt>
   <trkpt lat="22.7306670" lon="120.3226010">
    <ele>18.1</ele>
    <time>2026-09-20T12:36:11Z</time>
   </trkpt>
   <trkpt lat="22.7306480" lon="120.3226330">
    <ele>18.1</ele>
    <time>2026-09-20T12:36:12Z</time>
   </trkpt>
   <trkpt lat="22.7306290" lon="120.3226640">
    <ele>18.1</ele>
    <time>2026-09-20T12:36:13Z</time>
   </trkpt>
   <trkpt lat="22.7305900" lon="120.3227020">
    <ele>18.0</ele>
    <time>2026-09-20T12:36:14Z</time>
   </trkpt>
   <trkpt lat="22.7305200" lon="120.3227440">
    <ele>18.0</ele>
    <time>2026-09-20T12:36:15Z</time>
   </trkpt>
   <trkpt lat="22.7304460" lon="120.3227980">
    <ele>17.9</ele>
    <time>2026-09-20T12:36:16Z</time>
   </trkpt>
   <trkpt lat="22.7304060" lon="120.3228830">
    <ele>17.8</ele>
    <time>2026-09-20T12:36:17Z</time>
   </trkpt>
   <trkpt lat="22.7303490" lon="120.3229420">
    <ele>17.8</ele>
    <time>2026-09-20T12:36:18Z</time>
   </trkpt>
   <trkpt lat="22.7302850" lon="120.3229780">
    <ele>17.7</ele>
    <time>2026-09-20T12:36:19Z</time>
   </trkpt>
   <trkpt lat="22.7302450" lon="120.3230200">
    <ele>17.7</ele>
    <time>2026-09-20T12:36:20Z</time>
   </trkpt>
   <trkpt lat="22.7302130" lon="120.3230520">
    <ele>17.6</ele>
    <time>2026-09-20T12:36:21Z</time>
   </trkpt>
   <trkpt lat="22.7301950" lon="120.3230700">
    <ele>17.6</ele>
    <time>2026-09-20T12:36:22Z</time>
   </trkpt>
   <trkpt lat="22.7301950" lon="120.3230800">
    <ele>17.6</ele>
    <time>2026-09-20T12:36:23Z</time>
   </trkpt>
   <trkpt lat="22.7301820" lon="120.3230760">
    <ele>17.6</ele>
    <time>2026-09-20T12:36:24Z</time>
   </trkpt>
   <trkpt lat="22.7301460" lon="120.3230710">
    <ele>17.6</ele>
    <time>2026-09-20T12:36:25Z</time>
   </trkpt>
   <trkpt lat="22.7300890" lon="120.3230350">
    <ele>17.6</ele>
    <time>2026-09-20T12:36:26Z</time>
   </trkpt>
   <trkpt lat="22.7300310" lon="120.3229500">
    <ele>17.6</ele>
    <time>2026-09-20T12:36:27Z</time>
   </trkpt>
   <trkpt lat="22.7299870" lon="120.3228840">
    <ele>17.6</ele>
    <time>2026-09-20T12:36:28Z</time>
   </trkpt>
   <trkpt lat="22.7299580" lon="120.3228310">
    <ele>17.7</ele>
    <time>2026-09-20T12:36:29Z</time>
   </trkpt>
   <trkpt lat="22.7299630" lon="120.3227860">
    <ele>17.8</ele>
    <time>2026-09-20T12:36:30Z</time>
   </trkpt>
   <trkpt lat="22.7300040" lon="120.3227490">
    <ele>17.9</ele>
    <time>2026-09-20T12:36:31Z</time>
   </trkpt>
   <trkpt lat="22.7300600" lon="120.3226990">
    <ele>18.0</ele>
    <time>2026-09-20T12:36:32Z</time>
   </trkpt>
   <trkpt lat="22.7301040" lon="120.3226470">
    <ele>18.2</ele>
    <time>2026-09-20T12:36:33Z</time>
   </trkpt>
   <trkpt lat="22.7301540" lon="120.3225890">
    <ele>18.3</ele>
    <time>2026-09-20T12:36:34Z</time>
   </trkpt>
   <trkpt lat="22.7302140" lon="120.3225280">
    <ele>18.4</ele>
    <time>2026-09-20T12:36:35Z</time>
   </trkpt>
   <trkpt lat="22.7302660" lon="120.3224630">
    <ele>18.6</ele>
    <time>2026-09-20T12:36:36Z</time>
   </trkpt>
   <trkpt lat="22.7303300" lon="120.3224080">
    <ele>18.7</ele>
    <time>2026-09-20T12:36:37Z</time>
   </trkpt>
   <trkpt lat="22.7303470" lon="120.3224040">
    <ele>18.7</ele>
    <time>2026-09-20T12:36:38Z</time>
   </trkpt>
   <trkpt lat="22.7303740" lon="120.3223590">
    <ele>18.8</ele>
    <time>2026-09-20T12:36:39Z</time>
   </trkpt>
   <trkpt lat="22.7303920" lon="120.3223490">
    <ele>18.9</ele>
    <time>2026-09-20T12:36:40Z</time>
   </trkpt>
   <trkpt lat="22.7304090" lon="120.3223240">
    <ele>18.9</ele>
    <time>2026-09-20T12:36:41Z</time>
   </trkpt>
   <trkpt lat="22.7304330" lon="120.3222830">
    <ele>18.9</ele>
    <time>2026-09-20T12:36:42Z</time>
   </trkpt>
   <trkpt lat="22.7304940" lon="120.3222240">
    <ele>18.8</ele>
    <time>2026-09-20T12:36:43Z</time>
   </trkpt>
   <trkpt lat="22.7305540" lon="120.3221700">
    <ele>18.6</ele>
    <time>2026-09-20T12:36:44Z</time>
   </trkpt>
   <trkpt lat="22.7306180" lon="120.3221070">
    <ele>18.5</ele>
    <time>2026-09-20T12:36:45Z</time>
   </trkpt>
   <trkpt lat="22.7306910" lon="120.3220380">
    <ele>18.4</ele>
    <time>2026-09-20T12:36:46Z</time>
   </trkpt>
   <trkpt lat="22.7308000" lon="120.3219750">
    <ele>18.2</ele>
    <time>2026-09-20T12:36:47Z</time>
   </trkpt>
   <trkpt lat="22.7308680" lon="120.3219120">
    <ele>18.1</ele>
    <time>2026-09-20T12:36:48Z</time>
   </trkpt>
   <trkpt lat="22.7309270" lon="120.3218590">
    <ele>17.9</ele>
    <time>2026-09-20T12:36:49Z</time>
   </trkpt>
   <trkpt lat="22.7309820" lon="120.3217980">
    <ele>17.8</ele>
    <time>2026-09-20T12:36:50Z</time>
   </trkpt>
   <trkpt lat="22.7310380" lon="120.3217400">
    <ele>17.7</ele>
    <time>2026-09-20T12:36:51Z</time>
   </trkpt>
   <trkpt lat="22.7310780" lon="120.3216750">
    <ele>17.6</ele>
    <time>2026-09-20T12:36:52Z</time>
   </trkpt>
   <trkpt lat="22.7311100" lon="120.3216340">
    <ele>17.5</ele>
    <time>2026-09-20T12:36:53Z</time>
   </trkpt>
   <trkpt lat="22.7311160" lon="120.3216030">
    <ele>17.5</ele>
    <time>2026-09-20T12:36:54Z</time>
   </trkpt>
   <trkpt lat="22.7311240" lon="120.3216100">
    <ele>17.5</ele>
    <time>2026-09-20T12:36:55Z</time>
   </trkpt>
   <trkpt lat="22.7310960" lon="120.3215790">
    <ele>17.5</ele>
    <time>2026-09-20T12:36:56Z</time>
   </trkpt>
   <trkpt lat="22.7310770" lon="120.3215380">
    <ele>17.5</ele>
    <time>2026-09-20T12:36:57Z</time>
   </trkpt>
   <trkpt lat="22.7310180" lon="120.3214930">
    <ele>17.5</ele>
    <time>2026-09-20T12:36:58Z</time>
   </trkpt>
   <trkpt lat="22.7309870" lon="120.3214460">
    <ele>17.5</ele>
    <time>2026-09-20T12:36:59Z</time>
   </trkpt>
   <trkpt lat="22.7309310" lon="120.3213990">
    <ele>17.5</ele>
    <time>2026-09-20T12:37:00Z</time>
   </trkpt>
   <trkpt lat="22.7308950" lon="120.3213500">
    <ele>17.5</ele>
    <time>2026-09-20T12:37:01Z</time>
   </trkpt>
   <trkpt lat="22.7308620" lon="120.3213140">
    <ele>17.6</ele>
    <time>2026-09-20T12:37:02Z</time>
   </trkpt>
   <trkpt lat="22.7308270" lon="120.3213120">
    <ele>17.6</ele>
    <time>2026-09-20T12:37:03Z</time>
   </trkpt>
   <trkpt lat="22.7308020" lon="120.3213110">
    <ele>17.6</ele>
    <time>2026-09-20T12:37:04Z</time>
   </trkpt>
   <trkpt lat="22.7307700" lon="120.3214240">
    <ele>18.0</ele>
    <time>2026-09-20T12:37:05Z</time>
   </trkpt>
   <trkpt lat="22.7307110" lon="120.3214850">
    <ele>18.3</ele>
    <time>2026-09-20T12:37:06Z</time>
   </trkpt>
   <trkpt lat="22.7306610" lon="120.3215330">
    <ele>18.5</ele>
    <time>2026-09-20T12:37:07Z</time>
   </trkpt>
   <trkpt lat="22.7305890" lon="120.3215790">
    <ele>18.9</ele>
    <time>2026-09-20T12:37:08Z</time>
   </trkpt>
   <trkpt lat="22.7305070" lon="120.3216200">
    <ele>19.2</ele>
    <time>2026-09-20T12:37:09Z</time>
   </trkpt>
   <trkpt lat="22.7304300" lon="120.3216900">
    <ele>19.6</ele>
    <time>2026-09-20T12:37:10Z</time>
   </trkpt>
   <trkpt lat="22.7303590" lon="120.3217550">
    <ele>20.0</ele>
    <time>2026-09-20T12:37:11Z</time>
   </trkpt>
   <trkpt lat="22.7302890" lon="120.3218100">
    <ele>20.2</ele>
    <time>2026-09-20T12:37:12Z</time>
   </trkpt>
   <trkpt lat="22.7302430" lon="120.3218740">
    <ele>20.4</ele>
    <time>2026-09-20T12:37:13Z</time>
   </trkpt>
   <trkpt lat="22.7302030" lon="120.3219340">
    <ele>20.6</ele>
    <time>2026-09-20T12:37:14Z</time>
   </trkpt>
   <trkpt lat="22.7301710" lon="120.3219730">
    <ele>20.7</ele>
    <time>2026-09-20T12:37:15Z</time>
   </trkpt>
   <trkpt lat="22.7301430" lon="120.3219980">
    <ele>20.8</ele>
    <time>2026-09-20T12:37:16Z</time>
   </trkpt>
   <trkpt lat="22.7301460" lon="120.3219980">
    <ele>20.9</ele>
    <time>2026-09-20T12:37:17Z</time>
   </trkpt>
   <trkpt lat="22.7301340" lon="120.3220220">
    <ele>20.8</ele>
    <time>2026-09-20T12:37:18Z</time>
   </trkpt>
   <trkpt lat="22.7301090" lon="120.3220570">
    <ele>20.6</ele>
    <time>2026-09-20T12:37:19Z</time>
   </trkpt>
   <trkpt lat="22.7300740" lon="120.3220990">
    <ele>20.4</ele>
    <time>2026-09-20T12:37:20Z</time>
   </trkpt>
   <trkpt lat="22.7300240" lon="120.3221460">
    <ele>20.1</ele>
    <time>2026-09-20T12:37:21Z</time>
   </trkpt>
   <trkpt lat="22.7299800" lon="120.3221910">
    <ele>19.9</ele>
    <time>2026-09-20T12:37:22Z</time>
   </trkpt>
   <trkpt lat="22.7299360" lon="120.3222380">
    <ele>19.6</ele>
    <time>2026-09-20T12:37:23Z</time>
   </trkpt>
   <trkpt lat="22.7299160" lon="120.3223060">
    <ele>19.3</ele>
    <time>2026-09-20T12:37:24Z</time>
   </trkpt>
   <trkpt lat="22.7298490" lon="120.3223020">
    <ele>19.0</ele>
    <time>2026-09-20T12:37:25Z</time>
   </trkpt>
   <trkpt lat="22.7298420" lon="120.3223400">
    <ele>18.9</ele>
    <time>2026-09-20T12:37:26Z</time>
   </trkpt>
   <trkpt lat="22.7298040" lon="120.3223440">
    <ele>18.7</ele>
    <time>2026-09-20T12:37:27Z</time>
   </trkpt>
   <trkpt lat="22.7297930" lon="120.3223660">
    <ele>18.6</ele>
    <time>2026-09-20T12:37:28Z</time>
   </trkpt>
   <trkpt lat="22.7297730" lon="120.3223830">
    <ele>18.5</ele>
    <time>2026-09-20T12:37:29Z</time>
   </trkpt>
   <trkpt lat="22.7297490" lon="120.3224040">
    <ele>18.4</ele>
    <time>2026-09-20T12:37:30Z</time>
   </trkpt>
   <trkpt lat="22.7297200" lon="120.3224370">
    <ele>18.2</ele>
    <time>2026-09-20T12:37:31Z</time>
   </trkpt>
   <trkpt lat="22.7296970" lon="120.3224640">
    <ele>18.1</ele>
    <time>2026-09-20T12:37:32Z</time>
   </trkpt>
   <trkpt lat="22.7296810" lon="120.3224830">
    <ele>18.0</ele>
    <time>2026-09-20T12:37:33Z</time>
   </trkpt>
   <trkpt lat="22.7296720" lon="120.3225010">
    <ele>17.9</ele>
    <time>2026-09-20T12:37:34Z</time>
   </trkpt>
   <trkpt lat="22.7296520" lon="120.3225040">
    <ele>17.8</ele>
    <time>2026-09-20T12:37:35Z</time>
   </trkpt>
   <trkpt lat="22.7296400" lon="120.3225060">
    <ele>17.8</ele>
    <time>2026-09-20T12:37:36Z</time>
   </trkpt>
   <trkpt lat="22.7296140" lon="120.3224950">
    <ele>17.8</ele>
    <time>2026-09-20T12:37:37Z</time>
   </trkpt>
   <trkpt lat="22.7295810" lon="120.3224590">
    <ele>17.8</ele>
    <time>2026-09-20T12:37:38Z</time>
   </trkpt>
   <trkpt lat="22.7295410" lon="120.3224010">
    <ele>17.9</ele>
    <time>2026-09-20T12:37:39Z</time>
   </trkpt>
   <trkpt lat="22.7294990" lon="120.3223470">
    <ele>17.9</ele>
    <time>2026-09-20T12:37:40Z</time>
   </trkpt>
   <trkpt lat="22.7294630" lon="120.3223060">
    <ele>17.9</ele>
    <time>2026-09-20T12:37:41Z</time>
   </trkpt>
   <trkpt lat="22.7294320" lon="120.3222710">
    <ele>17.9</ele>
    <time>2026-09-20T12:37:42Z</time>
   </trkpt>
   <trkpt lat="22.7294150" lon="120.3222420">
    <ele>17.9</ele>
    <time>2026-09-20T12:37:43Z</time>
   </trkpt>
   <trkpt lat="22.7294100" lon="120.3222120">
    <ele>17.9</ele>
    <time>2026-09-20T12:37:44Z</time>
   </trkpt>
   <trkpt lat="22.7294210" lon="120.3221840">
    <ele>17.9</ele>
    <time>2026-09-20T12:37:45Z</time>
   </trkpt>
   <trkpt lat="22.7294600" lon="120.3221530">
    <ele>17.9</ele>
    <time>2026-09-20T12:37:46Z</time>
   </trkpt>
   <trkpt lat="22.7295260" lon="120.3220950">
    <ele>18.0</ele>
    <time>2026-09-20T12:37:47Z</time>
   </trkpt>
   <trkpt lat="22.7295860" lon="120.3220380">
    <ele>18.0</ele>
    <time>2026-09-20T12:37:48Z</time>
   </trkpt>
   <trkpt lat="22.7296460" lon="120.3219630">
    <ele>18.0</ele>
    <time>2026-09-20T12:37:49Z</time>
   </trkpt>
   <trkpt lat="22.7297070" lon="120.3219010">
    <ele>18.1</ele>
    <time>2026-09-20T12:37:50Z</time>
   </trkpt>
   <trkpt lat="22.7297580" lon="120.3218260">
    <ele>18.1</ele>
    <time>2026-09-20T12:37:51Z</time>
   </trkpt>
   <trkpt lat="22.7298170" lon="120.3217890">
    <ele>18.2</ele>
    <time>2026-09-20T12:37:52Z</time>
   </trkpt>
   <trkpt lat="22.7298610" lon="120.3217340">
    <ele>18.2</ele>
    <time>2026-09-20T12:37:53Z</time>
   </trkpt>
   <trkpt lat="22.7299080" lon="120.3217080">
    <ele>18.2</ele>
    <time>2026-09-20T12:37:54Z</time>
   </trkpt>
   <trkpt lat="22.7299440" lon="120.3217640">
    <ele>18.5</ele>
    <time>2026-09-20T12:37:55Z</time>
   </trkpt>
   <trkpt lat="22.7299720" lon="120.3218510">
    <ele>19.1</ele>
    <time>2026-09-20T12:37:56Z</time>
   </trkpt>
   <trkpt lat="22.7300360" lon="120.3219230">
    <ele>19.7</ele>
    <time>2026-09-20T12:37:57Z</time>
   </trkpt>
   <trkpt lat="22.7300960" lon="120.3219770">
    <ele>20.3</ele>
    <time>2026-09-20T12:37:58Z</time>
   </trkpt>
   <trkpt lat="22.7301450" lon="120.3220270">
    <ele>20.8</ele>
    <time>2026-09-20T12:37:59Z</time>
   </trkpt>
   <trkpt lat="22.7301940" lon="120.3220720">
    <ele>20.6</ele>
    <time>2026-09-20T12:38:00Z</time>
   </trkpt>
   <trkpt lat="22.7302480" lon="120.3221370">
    <ele>20.2</ele>
    <time>2026-09-20T12:38:01Z</time>
   </trkpt>
   <trkpt lat="22.7303020" lon="120.3222090">
    <ele>19.8</ele>
    <time>2026-09-20T12:38:02Z</time>
   </trkpt>
   <trkpt lat="22.7303710" lon="120.3222680">
    <ele>19.3</ele>
    <time>2026-09-20T12:38:03Z</time>
   </trkpt>
   <trkpt lat="22.7304380" lon="120.3223450">
    <ele>18.8</ele>
    <time>2026-09-20T12:38:04Z</time>
   </trkpt>
   <trkpt lat="22.7304970" lon="120.3224010">
    <ele>18.7</ele>
    <time>2026-09-20T12:38:05Z</time>
   </trkpt>
   <trkpt lat="22.7305770" lon="120.3224740">
    <ele>18.4</ele>
    <time>2026-09-20T12:38:06Z</time>
   </trkpt>
   <trkpt lat="22.7306350" lon="120.3225530">
    <ele>18.2</ele>
    <time>2026-09-20T12:38:07Z</time>
   </trkpt>
   <trkpt lat="22.7306940" lon="120.3226150">
    <ele>18.1</ele>
    <time>2026-09-20T12:38:08Z</time>
   </trkpt>
   <trkpt lat="22.7307550" lon="120.3226880">
    <ele>18.2</ele>
    <time>2026-09-20T12:38:09Z</time>
   </trkpt>
   <trkpt lat="22.7308070" lon="120.3227510">
    <ele>18.4</ele>
    <time>2026-09-20T12:38:10Z</time>
   </trkpt>
   <trkpt lat="22.7308750" lon="120.3228290">
    <ele>18.6</ele>
    <time>2026-09-20T12:38:11Z</time>
   </trkpt>
   <trkpt lat="22.7309450" lon="120.3228990">
    <ele>18.8</ele>
    <time>2026-09-20T12:38:12Z</time>
   </trkpt>
   <trkpt lat="22.7309980" lon="120.3229780">
    <ele>18.6</ele>
    <time>2026-09-20T12:38:13Z</time>
   </trkpt>
   <trkpt lat="22.7310490" lon="120.3230260">
    <ele>18.4</ele>
    <time>2026-09-20T12:38:14Z</time>
   </trkpt>
   <trkpt lat="22.7310830" lon="120.3230770">
    <ele>18.2</ele>
    <time>2026-09-20T12:38:15Z</time>
   </trkpt>
   <trkpt lat="22.7311150" lon="120.3231240">
    <ele>18.0</ele>
    <time>2026-09-20T12:38:16Z</time>
   </trkpt>
   <trkpt lat="22.7311440" lon="120.3231620">
    <ele>17.9</ele>
    <time>2026-09-20T12:38:17Z</time>
   </trkpt>
   <trkpt lat="22.7311720" lon="120.3231900">
    <ele>17.8</ele>
    <time>2026-09-20T12:38:18Z</time>
   </trkpt>
   <trkpt lat="22.7311980" lon="120.3232130">
    <ele>17.7</ele>
    <time>2026-09-20T12:38:19Z</time>
   </trkpt>
   <trkpt lat="22.7312220" lon="120.3232370">
    <ele>17.6</ele>
    <time>2026-09-20T12:38:20Z</time>
   </trkpt>
   <trkpt lat="22.7312350" lon="120.3232600">
    <ele>17.5</ele>
    <time>2026-09-20T12:38:21Z</time>
   </trkpt>
   <trkpt lat="22.7312400" lon="120.3232840">
    <ele>17.4</ele>
    <time>2026-09-20T12:38:22Z</time>
   </trkpt>
   <trkpt lat="22.7312320" lon="120.3233040">
    <ele>17.4</ele>
    <time>2026-09-20T12:38:23Z</time>
   </trkpt>
   <trkpt lat="22.7312180" lon="120.3233170">
    <ele>17.4</ele>
    <time>2026-09-20T12:38:24Z</time>
   </trkpt>
   <trkpt lat="22.7311930" lon="120.3233380">
    <ele>17.3</ele>
    <time>2026-09-20T12:38:25Z</time>
   </trkpt>
   <trkpt lat="22.7311540" lon="120.3233650">
    <ele>17.3</ele>
    <time>2026-09-20T12:38:26Z</time>
   </trkpt>
   <trkpt lat="22.7311100" lon="120.3233920">
    <ele>17.3</ele>
    <time>2026-09-20T12:38:27Z</time>
   </trkpt>
   <trkpt lat="22.7310660" lon="120.3234230">
    <ele>17.2</ele>
    <time>2026-09-20T12:38:28Z</time>
   </trkpt>
  </trkseg>
 </trk>
</gpx>
