<?xml version="1.0" encoding="UTF-8"?>
<gpx creator="StravaGPX" version="1.1" xmlns="http://www.topografix.com/GPX/1/1" xmlns:xsi="http://www.w3.org/2001/XMLSchema-instance" xsi:schemaLocation="http://www.topografix.com/GPX/1/1 http://www.topografix.com/GPX/1/1/gpx.xsd">
 <metadata>
  <time>2026-09-22T08:24:28Z</time>
 </metadata>
 <trk>
  <name>午後跑步</name>
  <type>running</type>
  <trkseg>
   <trkpt lat="22.7220240" lon="120.3468050">
    <ele>18.0</ele>
    <time>2026-09-22T08:24:28Z</time>
   </trkpt>
   <trkpt lat="22.7221030" lon="120.3467910">
    <ele>17.9</ele>
    <time>2026-09-22T08:24:29Z</time>
   </trkpt>
   <trkpt lat="22.7221940" lon="120.3467540">
    <ele>17.8</ele>
    <time>2026-09-22T08:24:30Z</time>
   </trkpt>
   <trkpt lat="22.7222470" lon="120.3467380">
    <ele>17.7</ele>
    <time>2026-09-22T08:24:31Z</time>
   </trkpt>
   <trkpt lat="22.7222970" lon="120.3467240">
    <ele>17.6</ele>
    <time>2026-09-22T08:24:32Z</time>
   </trkpt>
   <trkpt lat="22.7223490" lon="120.3467110">
    <ele>17.5</ele>
    <time>2026-09-22T08:24:33Z</time>
   </trkpt>
   <trkpt lat="22.7224060" lon="120.3466980">
    <ele>17.4</ele>
    <time>2026-09-22T08:24:34Z</time>
   </trkpt>
   <trkpt lat="22.7224650" lon="120.3466830">
    <ele>17.3</ele>
    <time>2026-09-22T08:24:35Z</time>
   </trkpt>
   <trkpt lat="22.7225260" lon="120.3466680">
    <ele>17.2</ele>
    <time>2026-09-22T08:24:36Z</time>
   </trkpt>
   <trkpt lat="22.7225860" lon="120.3466570">
    <ele>17.2</ele>
    <time>2026-09-22T08:24:37Z</time>
   </trkpt>
   <trkpt lat="22.7226460" lon="120.3466510">
    <ele>17.1</ele>
    <time>2026-09-22T08:24:38Z</time>
   </trkpt>
   <trkpt lat="22.7227030" lon="120.3466410">
    <ele>17.0</ele>
    <time>2026-09-22T08:24:39Z</time>
   </trkpt>
   <trkpt lat="22.7227570" lon="120.3466260">
    <ele>17.0</ele>
    <time>2026-09-22T08:24:40Z</time>
   </trkpt>
   <trkpt lat="22.7227910" lon="120.3466220">
    <ele>17.0</ele>
    <time>2026-09-22T08:24:41Z</time>
   </trkpt>
   <trkpt lat="22.7228310" lon="120.3466110">
    <ele>17.0</ele>
    <time>2026-09-22T08:24:42Z</time>
   </trkpt>
   <trkpt lat="22.7228630" lon="120.3466080">
    <ele>17.0</ele>
    <time>2026-09-22T08:24:43Z</time>
   </trkpt>
   <trkpt lat="22.7228940" lon="120.3466070">
    <ele>17.0</ele>
    <time>2026-09-22T08:24:44Z</time>
   </trkpt>
   <trkpt lat="22.7229110" lon="120.3466190">
    <ele>16.9</ele>
    <time>2026-09-22T08:24:45Z</time>
   </trkpt>
   <trkpt lat="22.7229320" lon="120.3465990">
    <ele>16.9</ele>
    <time>2026-09-22T08:24:46Z</time>
   </trkpt>
   <trkpt lat="22.7229560" lon="120.3465860">
    <ele>16.9</ele>
    <time>2026-09-22T08:24:47Z</time>
   </trkpt>
   <trkpt lat="22.7229850" lon="120.3465730">
    <ele>16.8</ele>
    <time>2026-09-22T08:24:48Z</time>
   </trkpt>
   <trkpt lat="22.7230270" lon="120.3465620">
    <ele>16.8</ele>
    <time>2026-09-22T08:24:49Z</time>
   </trkpt>
   <trkpt lat="22.7230650" lon="120.3465670">
    <ele>16.8</ele>
    <time>2026-09-22T08:24:50Z</time>
   </trkpt>
   <trkpt lat="22.7230890" lon="120.3465640">
    <ele>16.7</ele>
    <time>2026-09-22T08:24:51Z</time>
   </trkpt>
   <trkpt lat="22.7230950" lon="120.3466260">
    <ele>16.7</ele>
    <time>2026-09-22T08:24:52Z</time>
   </trkpt>
   <trkpt lat="22.7231110" lon="120.3466590">
    <ele>16.6</ele>
    <time>2026-09-22T08:24:53Z</time>
   </trkpt>
   <trkpt lat="22.7231300" lon="120.3467060">
    <ele>16.6</ele>
    <time>2026-09-22T08:24:54Z</time>
   </trkpt>
   <trkpt lat="22.7231470" lon="120.3467550">
    <ele>16.6</ele>
    <time>2026-09-22T08:24:55Z</time>
   </trkpt>
   <trkpt lat="22.7231550" lon="120.3467880">
    <ele>16.5</ele>
    <time>2026-09-22T08:24:56Z</time>
   </trkpt>
   <trkpt lat="22.7231750" lon="120.3468170">
    <ele>16.5</ele>
    <time>2026-09-22T08:24:57Z</time>
   </trkpt>
   <trkpt lat="22.7231790" lon="120.3468410">
    <ele>16.5</ele>
    <time>2026-09-22T08:24:58Z</time>
   </trkpt>
   <trkpt lat="22.7231800" lon="120.3468430">
    <ele>16.5</ele>
    <time>2026-09-22T08:24:59Z</time>
   </trkpt>
   <trkpt lat="22.7231870" lon="120.3468260">
    <ele>16.5</ele>
    <time>2026-09-22T08:25:00Z</time>
   </trkpt>
   <trkpt lat="22.7231730" lon="120.3468130">
    <ele>16.5</ele>
    <time>2026-09-22T08:25:02Z</time>
   </trkpt>
   <trkpt lat="22.7231620" lon="120.3467950">
    <ele>16.4</ele>
    <time>2026-09-22T08:25:03Z</time>
   </trkpt>
   <trkpt lat="22.7231470" lon="120.3467660">
    <ele>16.4</ele>
    <time>2026-09-22T08:25:04Z</time>
   </trkpt>
   <trkpt lat="22.7231370" lon="120.3467330">
    <ele>16.4</ele>
    <time>2026-09-22T08:25:05Z</time>
   </trkpt>
   <trkpt lat="22.7231250" lon="120.3466990">
    <ele>16.4</ele>
    <time>2026-09-22T08:25:06Z</time>
   </trkpt>
   <trkpt lat="22.7231110" lon="120.3466620">
    <ele>16.3</ele>
    <time>2026-09-22T08:25:07Z</time>
   </trkpt>
   <trkpt lat="22.7230940" lon="120.3466280">
    <ele>16.3</ele>
    <time>2026-09-22T08:25:08Z</time>
   </trkpt>
   <trkpt lat="22.7231020" lon="120.3465950">
    <ele>16.3</ele>
    <time>2026-09-22T08:25:09Z</time>
   </trkpt>
   <trkpt lat="22.7231270" lon="120.3465650">
    <ele>16.2</ele>
    <time>2026-09-22T08:25:10Z</time>
   </trkpt>
   <trkpt lat="22.7231580" lon="120.3465440">
    <ele>16.2</ele>
    <time>2026-09-22T08:25:11Z</time>
   </trkpt>
   <trkpt lat="22.7231960" lon="120.3465320">
    <ele>16.2</ele>
    <time>2026-09-22T08:25:12Z</time>
   </trkpt>
   <trkpt lat="22.7232440" lon="120.3465200">
    <ele>16.1</ele>
    <time>2026-09-22T08:25:13Z</time>
   </trkpt>
   <trkpt lat="22.7232920" lon="120.3464980">
    <ele>16.1</ele>
    <time>2026-09-22T08:25:14Z</time>
   </trkpt>
   <trkpt lat="22.7233480" lon="120.3464860">
    <ele>16.0</ele>
    <time>2026-09-22T08:25:15Z</time>
   </trkpt>
   <trkpt lat="22.7234010" lon="120.3464710">
    <ele>16.0</ele>
    <time>2026-09-22T08:25:16Z</time>
   </trkpt>
   <trkpt lat="22.7234500" lon="120.3464600">
    <ele>16.0</ele>
    <time>2026-09-22T08:25:17Z</time>
   </trkpt>
   <trkpt lat="22.7234880" lon="120.3464490">
    <ele>15.9</ele>
    <time>2026-09-22T08:25:18Z</time>
   </trkpt>
   <trkpt lat="22.7235300" lon="120.3464570">
    <ele>15.9</ele>
    <time>2026-09-22T08:25:19Z</time>
   </trkpt>
   <trkpt lat="22.7235610" lon="120.3464840">
    <ele>15.9</ele>
    <time>2026-09-22T08:25:20Z</time>
   </trkpt>
   <trkpt lat="22.7235890" lon="120.3465170">
    <ele>15.8</ele>
    <time>2026-09-22T08:25:21Z</time>
   </trkpt>
   <trkpt lat="22.7236030" lon="120.3465730">
    <ele>15.8</ele>
    <time>2026-09-22T08:25:22Z</time>
   </trkpt>
   <trkpt lat="22.7236130" lon="120.3466290">
    <ele>15.7</ele>
    <time>2026-09-22T08:25:23Z</time>
   </trkpt>
   <trkpt lat="22.7236210" lon="120.3466900">
    <ele>15.7</ele>
    <time>2026-09-22T08:25:24Z</time>
   </trkpt>
   <trkpt lat="22.7236320" lon="120.3467510">
    <ele>15.7</ele>
    <time>2026-09-22T08:25:25Z</time>
   </trkpt>
   <trkpt lat="22.7236460" lon="120.3467910">
    <ele>15.6</ele>
    <time>2026-09-22T08:25:26Z</time>
   </trkpt>
   <trkpt lat="22.7236580" lon="120.3468210">
    <ele>15.6</ele>
    <time>2026-09-22T08:25:27Z</time>
   </trkpt>
   <trkpt lat="22.7236730" lon="120.3468410">
    <ele>15.6</ele>
    <time>2026-09-22T08:25:28Z</time>
   </trkpt>
   <trkpt lat="22.7236860" lon="120.3468460">
    <ele>15.6</ele>
    <time>2026-09-22T08:25:29Z</time>
   </trkpt>
   <trkpt lat="22.7236830" lon="120.3468320">
    <ele>15.6</ele>
    <time>2026-09-22T08:25:30Z</time>
   </trkpt>
   <trkpt lat="22.7236620" lon="120.3468120">
    <ele>15.6</ele>
    <time>2026-09-22T08:25:31Z</time>
   </trkpt>
   <trkpt lat="22.7236420" lon="120.3467950">
    <ele>15.5</ele>
    <time>2026-09-22T08:25:32Z</time>
   </trkpt>
   <trkpt lat="22.7236220" lon="120.3467610">
    <ele>15.5</ele>
    <time>2026-09-22T08:25:33Z</time>
   </trkpt>
   <trkpt lat="22.7235980" lon="120.3467110">
    <ele>15.5</ele>
    <time>2026-09-22T08:25:34Z</time>
   </trkpt>
   <trkpt lat="22.7235840" lon="120.3466560">
    <ele>15.5</ele>
    <time>2026-09-22T08:25:35Z</time>
   </trkpt>
   <trkpt lat="22.7235740" lon="120.3465990">
    <ele>15.4</ele>
    <time>2026-09-22T08:25:36Z</time>
   </trkpt>
   <trkpt lat="22.7235560" lon="120.3465440">
    <ele>15.4</ele>
    <time>2026-09-22T08:25:37Z</time>
   </trkpt>
   <trkpt lat="22.7235530" lon="120.3464980">
    <ele>15.4</ele>
    <time>2026-09-22T08:25:38Z</time>
   </trkpt>
   <trkpt lat="22.7235620" lon="120.3464610">
    <ele>15.4</ele>
    <time>2026-09-22T08:25:39Z</time>
   </trkpt>
   <trkpt lat="22.7235800" lon="120.3464360">
    <ele>15.4</ele>
    <time>2026-09-22T08:25:40Z</time>
   </trkpt>
   <trkpt lat="22.7236040" lon="120.3464180">
    <ele>15.3</ele>
    <time>2026-09-22T08:25:41Z</time>
   </trkpt>
   <trkpt lat="22.7236440" lon="120.3463980">
    <ele>15.3</ele>
    <time>2026-09-22T08:25:42Z</time>
   </trkpt>
   <trkpt lat="22.7236870" lon="120.3463860">
    <ele>15.3</ele>
    <time>2026-09-22T08:25:43Z</time>
   </trkpt>
   <trkpt lat="22.7237380" lon="120.3463720">
    <ele>15.3</ele>
    <time>2026-09-22T08:25:44Z</time>
   </trkpt>
   <trkpt lat="22.7238020" lon="120.3463670">
    <ele>15.2</ele>
    <time>2026-09-22T08:25:45Z</time>
   </trkpt>
   <trkpt lat="22.7238570" lon="120.3463580">
    <ele>15.2</ele>
    <time>2026-09-22T08:25:46Z</time>
   </trkpt>
   <trkpt lat="22.7238940" lon="120.3463430">
    <ele>15.2</ele>
    <time>2026-09-22T08:25:47Z</time>
   </trkpt>
   <trkpt lat="22.7239220" lon="120.3463270">
    <ele>15.2</ele>
    <time>2026-09-22T08:25:48Z</time>
   </trkpt>
   <trkpt lat="22.7239390" lon="120.3463030">
    <ele>15.1</ele>
    <time>2026-09-22T08:25:49Z</time>
   </trkpt>
   <trkpt lat="22.7239410" lon="120.3462930">
    <ele>15.1</ele>
    <time>2026-09-22T08:25:50Z</time>
   </trkpt>
   <trkpt lat="22.7239350" lon="120.3463330">
    <ele>15.1</ele>
    <time>2026-09-22T08:25:51Z</time>
   </trkpt>
   <trkpt lat="22.7239380" lon="120.3463430">
    <ele>15.1</ele>
    <time>2026-09-22T08:25:52Z</time>
   </trkpt>
   <trkpt lat="22.7239530" lon="120.3463710">
    <ele>15.1</ele>
    <time>2026-09-22T08:25:53Z</time>
   </trkpt>
   <trkpt lat="22.7239640" lon="120.3463920">
    <ele>15.1</ele>
    <time>2026-09-22T08:25:54Z</time>
   </trkpt>
   <trkpt lat="22.7239440" lon="120.3464560">
    <ele>15.0</ele>
    <time>2026-09-22T08:25:55Z</time>
   </trkpt>
   <trkpt lat="22.7239040" lon="120.3464770">
    <ele>15.0</ele>
    <time>2026-09-22T08:25:56Z</time>
   </trkpt>
   <trkpt lat="22.7236640" lon="120.3463860">
    <ele>14.8</ele>
    <time>2026-09-22T08:25:57Z</time>
   </trkpt>
   <trkpt lat="22.7236650" lon="120.3463560">
    <ele>14.8</ele>
    <time>2026-09-22T08:25:58Z</time>
   </trkpt>
   <trkpt lat="22.7235970" lon="120.3462330">
    <ele>14.7</ele>
    <time>2026-09-22T08:25:59Z</time>
   </trkpt>
   <trkpt lat="22.7235780" lon="120.3461830">
    <ele>14.7</ele>
    <time>2026-09-22T08:26:00Z</time>
   </trkpt>
   <trkpt lat="22.7235650" lon="120.3461680">
    <ele>14.7</ele>
    <time>2026-09-22T08:26:01Z</time>
   </trkpt>
   <trkpt lat="22.7235450" lon="120.3461440">
    <ele>14.6</ele>
    <time>2026-09-22T08:26:02Z</time>
   </trkpt>
   <trkpt lat="22.7235150" lon="120.3460560">
    <ele>14.6</ele>
    <time>2026-09-22T08:26:03Z</time>
   </trkpt>
   <trkpt lat="22.7234900" lon="120.3460330">
    <ele>14.5</ele>
    <time>2026-09-22T08:26:04Z</time>
   </trkpt>
   <trkpt lat="22.7234850" lon="120.3459900">
    <ele>14.5</ele>
    <time>2026-09-22T08:26:05Z</time>
   </trkpt>
   <trkpt lat="22.7236830" lon="120.3459220">
    <ele>14.4</ele>
    <time>2026-09-22T08:26:06Z</time>
   </trkpt>
   <trkpt lat="22.7237970" lon="120.3459080">
    <ele>14.3</ele>
    <time>2026-09-22T08:26:07Z</time>
   </trkpt>
   <trkpt lat="22.7239070" lon="120.3459470">
    <ele>14.2</ele>
    <time>2026-09-22T08:26:08Z</time>
   </trkpt>
   <trkpt lat="22.7239060" lon="120.3460210">
    <ele>14.2</ele>
    <time>2026-09-22T08:26:09Z</time>
   </trkpt>
   <trkpt lat="22.7239280" lon="120.3459970">
    <ele>14.2</ele>
    <time>2026-09-22T08:26:10Z</time>
   </trkpt>
   <trkpt lat="22.7239330" lon="120.3459950">
    <ele>14.2</ele>
    <time>2026-09-22T08:26:11Z</time>
   </trkpt>
   <trkpt lat="22.7239650" lon="120.3460010">
    <ele>14.1</ele>
    <time>2026-09-22T08:26:12Z</time>
   </trkpt>
   <trkpt lat="22.7239790" lon="120.3460110">
    <ele>14.1</ele>
    <time>2026-09-22T08:26:13Z</time>
   </trkpt>
   <trkpt lat="22.7239970" lon="120.3460010">
    <ele>14.1</ele>
    <time>2026-09-22T08:26:14Z</time>
   </trkpt>
   <trkpt lat="22.7240000" lon="120.3459640">
    <ele>14.1</ele>
    <time>2026-09-22T08:26:15Z</time>
   </trkpt>
   <trkpt lat="22.7239840" lon="120.3459450">
    <ele>14.1</ele>
    <time>2026-09-22T08:26:16Z</time>
   </trkpt>
   <trkpt lat="22.7239770" lon="120.3459270">
    <ele>14.1</ele>
    <time>2026-09-22T08:26:17Z</time>
   </trkpt>
   <trkpt lat="22.7239810" lon="120.3459280">
    <ele>14.1</ele>
    <time>2026-09-22T08:26:18Z</time>
   </trkpt>
   <trkpt lat="22.7239780" lon="120.3459270">
    <ele>14.1</ele>
    <time>2026-09-22T08:26:19Z</time>
   </trkpt>
   <trkpt lat="22.7239790" lon="120.3459270">
    <ele>14.1</ele>
    <time>2026-09-22T08:26:20Z</time>
   </trkpt>
   <trkpt lat="22.7239820" lon="120.3459340">
    <ele>14.1</ele>
    <time>2026-09-22T08:26:21Z</time>
   </trkpt>
   <trkpt lat="22.7239860" lon="120.3459400">
    <ele>14.1</ele>
    <time>2026-09-22T08:26:22Z</time>
   </trkpt>
   <trkpt lat="22.7239850" lon="120.3459450">
    <ele>14.1</ele>
    <time>2026-09-22T08:26:23Z</time>
   </trkpt>
   <trkpt lat="22.7239830" lon="120.3459430">
    <ele>14.1</ele>
    <time>2026-09-22T08:26:24Z</time>
   </trkpt>
   <trkpt lat="22.7239850" lon="120.3459470">
    <ele>14.1</ele>
    <time>2026-09-22T08:26:25Z</time>
   </trkpt>
   <trkpt lat="22.7239890" lon="120.3459470">
    <ele>14.1</ele>
    <time>2026-09-22T08:26:26Z</time>
   </trkpt>
   <trkpt lat="22.7239830" lon="120.3459590">
    <ele>14.2</ele>
    <time>2026-09-22T08:26:27Z</time>
   </trkpt>
   <trkpt lat="22.7239780" lon="120.3460090">
    <ele>14.2</ele>
    <time>2026-09-22T08:26:28Z</time>
   </trkpt>
   <trkpt lat="22.7239710" lon="120.3460640">
    <ele>14.2</ele>
    <time>2026-09-22T08:26:29Z</time>
   </trkpt>
   <trkpt lat="22.7239730" lon="120.3461090">
    <ele>14.3</ele>
    <time>2026-09-22T08:26:30Z</time>
   </trkpt>
   <trkpt lat="22.7239750" lon="120.3461470">
    <ele>14.3</ele>
    <time>2026-09-22T08:26:31Z</time>
   </trkpt>
   <trkpt lat="22.7239790" lon="120.3461750">
    <ele>14.3</ele>
    <time>2026-09-22T08:26:32Z</time>
   </trkpt>
   <trkpt lat="22.7239800" lon="120.3462370">
    <ele>14.4</ele>
    <time>2026-09-22T08:26:33Z</time>
   </trkpt>
   <trkpt lat="22.7239770" lon="120.3462640">
    <ele>14.4</ele>
    <time>2026-09-22T08:26:34Z</time>
   </trkpt>
   <trkpt lat="22.7239790" lon="120.3462690">
    <ele>14.4</ele>
    <time>2026-09-22T08:26:35Z</time>
   </trkpt>
   <trkpt lat="22.7239830" lon="120.3462760">
    <ele>14.4</ele>
    <time>2026-09-22T08:26:36Z</time>
   </trkpt>
   <trkpt lat="22.7239930" lon="120.3462820">
    <ele>14.4</ele>
    <time>2026-09-22T08:26:37Z</time>
   </trkpt>
   <trkpt lat="22.7239970" lon="120.3462730">
    <ele>14.4</ele>
    <time>2026-09-22T08:26:38Z</time>
   </trkpt>
   <trkpt lat="22.7240020" lon="120.3462670">
    <ele>14.4</ele>
    <time>2026-09-22T08:26:39Z</time>
   </trkpt>
   <trkpt lat="22.7240060" lon="120.3462650">
    <ele>14.4</ele>
    <time>2026-09-22T08:26:40Z</time>
   </trkpt>
   <trkpt lat="22.7240080" lon="120.3462590">
    <ele>14.4</ele>
    <time>2026-09-22T08:26:41Z</time>
   </trkpt>
   <trkpt lat="22.7240090" lon="120.3462610">
    <ele>14.4</ele>
    <time>2026-09-22T08:26:42Z</time>
   </trkpt>
   <trkpt lat="22.7240160" lon="120.3462640">
    <ele>14.4</ele>
    <time>2026-09-22T08:26:43Z</time>
   </trkpt>
   <trkpt lat="22.7240130" lon="120.3462630">
    <ele>14.5</ele>
    <time>2026-09-22T08:26:44Z</time>
   </trkpt>
   <trkpt lat="22.7240160" lon="120.3462600">
    <ele>14.5</ele>
    <time>2026-09-22T08:26:45Z</time>
   </trkpt>
   <trkpt lat="22.7240210" lon="120.3462620">
    <ele>14.5</ele>
    <time>2026-09-22T08:26:46Z</time>
   </trkpt>
   <trkpt lat="22.7240230" lon="120.3462640">
    <ele>14.5</ele>
    <time>2026-09-22T08:26:47Z</time>
   </trkpt>
   <trkpt lat="22.7240190" lon="120.3462660">
    <ele>14.5</ele>
    <time>2026-09-22T08:26:48Z</time>
   </trkpt>
   <trkpt lat="22.7240150" lon="120.3462670">
    <ele>14.5</ele>
    <time>2026-09-22T08:26:49Z</time>
   </trkpt>
   <trkpt lat="22.7240170" lon="120.3462680">
    <ele>14.5</ele>
    <time>2026-09-22T08:26:50Z</time>
   </trkpt>
   <trkpt lat="22.7240130" lon="120.3462650">
    <ele>14.5</ele>
    <time>2026-09-22T08:26:51Z</time>
   </trkpt>
   <trkpt lat="22.7240120" lon="120.3462680">
    <ele>14.5</ele>
    <time>2026-09-22T08:26:52Z</time>
   </trkpt>
   <trkpt lat="22.7240070" lon="120.3462680">
    <ele>14.5</ele>
    <time>2026-09-22T08:26:53Z</time>
   </trkpt>
   <trkpt lat="22.7240070" lon="120.3462680">
    <ele>14.5</ele>
    <time>2026-09-22T08:26:54Z</time>
   </trkpt>
   <trkpt lat="22.7240060" lon="120.3462680">
    <ele>14.5</ele>
    <time>2026-09-22T08:26:55Z</time>
   </trkpt>
   <trkpt lat="22.7240050" lon="120.3462670">
    <ele>14.5</ele>
    <time>2026-09-22T08:26:56Z</time>
   </trkpt>
   <trkpt lat="22.7240070" lon="120.3462700">
    <ele>14.5</ele>
    <time>2026-09-22T08:26:57Z</time>
   </trkpt>
   <trkpt lat="22.7240120" lon="120.3462780">
    <ele>14.5</ele>
    <time>2026-09-22T08:26:58Z</time>
   </trkpt>
   <trkpt lat="22.7240140" lon="120.3462820">
    <ele>14.5</ele>
    <time>2026-09-22T08:26:59Z</time>
   </trkpt>
   <trkpt lat="22.7240180" lon="120.3462840">
    <ele>14.5</ele>
    <time>2026-09-22T08:27:00Z</time>
   </trkpt>
   <trkpt lat="22.7240290" lon="120.3462810">
    <ele>14.5</ele>
    <time>2026-09-22T08:27:01Z</time>
   </trkpt>
   <trkpt lat="22.7240260" lon="120.3462770">
    <ele>14.5</ele>
    <time>2026-09-22T08:27:02Z</time>
   </trkpt>
   <trkpt lat="22.7240310" lon="120.3462780">
    <ele>14.5</ele>
    <time>2026-09-22T08:27:03Z</time>
   </trkpt>
   <trkpt lat="22.7240330" lon="120.3462730">
    <ele>14.5</ele>
    <time>2026-09-22T08:27:04Z</time>
   </trkpt>
   <trkpt lat="22.7240390" lon="120.3462730">
    <ele>14.5</ele>
    <time>2026-09-22T08:27:05Z</time>
   </trkpt>
   <trkpt lat="22.7240420" lon="120.3462760">
    <ele>14.5</ele>
    <time>2026-09-22T08:27:06Z</time>
   </trkpt>
   <trkpt lat="22.7240460" lon="120.3462780">
    <ele>14.5</ele>
    <time>2026-09-22T08:27:07Z</time>
   </trkpt>
   <trkpt lat="22.7240500" lon="120.3462920">
    <ele>14.5</ele>
    <time>2026-09-22T08:27:08Z</time>
   </trkpt>
   <trkpt lat="22.7240530" lon="120.3463050">
    <ele>14.6</ele>
    <time>2026-09-22T08:27:10Z</time>
   </trkpt>
   <trkpt lat="22.7240600" lon="120.3463160">
    <ele>14.6</ele>
    <time>2026-09-22T08:27:11Z</time>
   </trkpt>
   <trkpt lat="22.7240720" lon="120.3463340">
    <ele>14.6</ele>
    <time>2026-09-22T08:27:12Z</time>
   </trkpt>
   <trkpt lat="22.7240940" lon="120.3463390">
    <ele>14.6</ele>
    <time>2026-09-22T08:27:13Z</time>
   </trkpt>
   <trkpt lat="22.7241180" lon="120.3463330">
    <ele>14.6</ele>
    <time>2026-09-22T08:27:14Z</time>
   </trkpt>
   <trkpt lat="22.7241320" lon="120.3463310">
    <ele>14.6</ele>
    <time>2026-09-22T08:27:15Z</time>
   </trkpt>
   <trkpt lat="22.7241320" lon="120.3463530">
    <ele>14.7</ele>
    <time>2026-09-22T08:27:16Z</time>
   </trkpt>
   <trkpt lat="22.7241240" lon="120.3463670">
    <ele>14.7</ele>
    <time>2026-09-22T08:27:17Z</time>
   </trkpt>
   <trkpt lat="22.7241220" lon="120.3463910">
    <ele>14.7</ele>
    <time>2026-09-22T08:27:18Z</time>
   </trkpt>
   <trkpt lat="22.7241340" lon="120.3464220">
    <ele>14.7</ele>
    <time>2026-09-22T08:27:19Z</time>
   </trkpt>
   <trkpt lat="22.7241520" lon="120.3464720">
    <ele>14.8</ele>
    <time>2026-09-22T08:27:20Z</time>
   </trkpt>
   <trkpt lat="22.7241700" lon="120.3465230">
    <ele>14.8</ele>
    <time>2026-09-22T08:27:21Z</time>
   </trkpt>
   <trkpt lat="22.7241840" lon="120.3465730">
    <ele>14.8</ele>
    <time>2026-09-22T08:27:22Z</time>
   </trkpt>
   <trkpt lat="22.7241910" lon="120.3466160">
    <ele>14.9</ele>
    <time>2026-09-22T08:27:23Z</time>
   </trkpt>
   <trkpt lat="22.7241920" lon="120.3466480">
    <ele>14.9</ele>
    <time>2026-09-22T08:27:24Z</time>
   </trkpt>
   <trkpt lat="22.7241680" lon="120.3466770">
    <ele>14.9</ele>
    <time>2026-09-22T08:27:25Z</time>
   </trkpt>
   <trkpt lat="22.7241770" lon="120.3467050">
    <ele>14.9</ele>
    <time>2026-09-22T08:27:26Z</time>
   </trkpt>
   <trkpt lat="22.7241850" lon="120.3467360">
    <ele>15.0</ele>
    <time>2026-09-22T08:27:27Z</time>
   </trkpt>
   <trkpt lat="22.7241860" lon="120.3467580">
    <ele>15.0</ele>
    <time>2026-09-22T08:27:28Z</time>
   </trkpt>
   <trkpt lat="22.7241930" lon="120.3467850">
    <ele>15.0</ele>
    <time>2026-09-22T08:27:29Z</time>
   </trkpt>
   <trkpt lat="22.7241920" lon="120.3468130">
    <ele>15.0</ele>
    <time>2026-09-22T08:27:30Z</time>
   </trkpt>
   <trkpt lat="22.7242130" lon="120.3467960">
    <ele>15.1</ele>
    <time>2026-09-22T08:27:31Z</time>
   </trkpt>
   <trkpt lat="22.7242220" lon="120.3467890">
    <ele>15.1</ele>
    <time>2026-09-22T08:27:32Z</time>
   </trkpt>
   <trkpt lat="22.7242310" lon="120.3467810">
    <ele>15.1</ele>
    <time>2026-09-22T08:27:33Z</time>
   </trkpt>
   <trkpt lat="22.7242410" lon="120.3467740">
    <ele>15.1</ele>
    <time>2026-09-22T08:27:34Z</time>
   </trkpt>
   <trkpt lat="22.7242500" lon="120.3467660">
    <ele>15.1</ele>
    <time>2026-09-22T08:27:35Z</time>
   </trkpt>
   <trkpt lat="22.7242590" lon="120.3467590">
    <ele>15.1</ele>
    <time>2026-09-22T08:27:36Z</time>
   </trkpt>
   <trkpt lat="22.7242690" lon="120.3467510">
    <ele>15.1</ele>
    <time>2026-09-22T08:27:37Z</time>
   </trkpt>
   <trkpt lat="22.7242780" lon="120.3467440">
    <ele>15.1</ele>
    <time>2026-09-22T08:27:38Z</time>
   </trkpt>
   <trkpt lat="22.7242870" lon="120.3467360">
    <ele>15.1</ele>
    <time>2026-09-22T08:27:39Z</time>
   </trkpt>
   <trkpt lat="22.7242970" lon="120.3467290">
    <ele>15.1</ele>
    <time>2026-09-22T08:27:40Z</time>
   </trkpt>
   <trkpt lat="22.7243060" lon="120.3467210">
    <ele>15.1</ele>
    <time>2026-09-22T08:27:41Z</time>
   </trkpt>
   <trkpt lat="22.7241660" lon="120.3464810">
    <ele>14.1</ele>
    <time>2026-09-22T08:27:42Z</time>
   </trkpt>
   <trkpt lat="22.7239110" lon="120.3465430">
    <ele>14.4</ele>
    <time>2026-09-22T08:27:43Z</time>
   </trkpt>
   <trkpt lat="22.7238880" lon="120.3465220">
    <ele>14.5</ele>
    <time>2026-09-22T08:27:44Z</time>
   </trkpt>
   <trkpt lat="22.7242830" lon="120.3465400">
    <ele>15.7</ele>
    <time>2026-09-22T08:27:45Z</time>
   </trkpt>
   <trkpt lat="22.7243240" lon="120.3465490">
    <ele>15.9</ele>
    <time>2026-09-22T08:27:46Z</time>
   </trkpt>
   <trkpt lat="22.7243070" lon="120.3465460">
    <ele>15.9</ele>
    <time>2026-09-22T08:27:47Z</time>
   </trkpt>
   <trkpt lat="22.7242940" lon="120.3465400">
    <ele>16.0</ele>
    <time>2026-09-22T08:27:48Z</time>
   </trkpt>
   <trkpt lat="22.7242730" lon="120.3465310">
    <ele>16.0</ele>
    <time>2026-09-22T08:27:49Z</time>
   </trkpt>
   <trkpt lat="22.7242630" lon="120.3465390">
    <ele>16.1</ele>
    <time>2026-09-22T08:27:50Z</time>
   </trkpt>
   <trkpt lat="22.7242830" lon="120.3465450">
    <ele>16.1</ele>
    <time>2026-09-22T08:27:51Z</time>
   </trkpt>
   <trkpt lat="22.7243110" lon="120.3465360">
    <ele>16.2</ele>
    <time>2026-09-22T08:27:52Z</time>
   </trkpt>
   <trkpt lat="22.7243000" lon="120.3465330">
    <ele>16.2</ele>
    <time>2026-09-22T08:27:53Z</time>
   </trkpt>
   <trkpt lat="22.7242900" lon="120.3465300">
    <ele>16.3</ele>
    <time>2026-09-22T08:27:54Z</time>
   </trkpt>
   <trkpt lat="22.7242790" lon="120.3465270">
    <ele>16.3</ele>
    <time>2026-09-22T08:27:55Z</time>
   </trkpt>
   <trkpt lat="22.7242690" lon="120.3465250">
    <ele>16.3</ele>
    <time>2026-09-22T08:27:56Z</time>
   </trkpt>
   <trkpt lat="22.7242580" lon="120.3465220">
    <ele>16.4</ele>
    <time>2026-09-22T08:27:57Z</time>
   </trkpt>
   <trkpt lat="22.7242470" lon="120.3465190">
    <ele>16.4</ele>
    <time>2026-09-22T08:27:58Z</time>
   </trkpt>
   <trkpt lat="22.7242370" lon="120.3465160">
    <ele>16.4</ele>
    <time>2026-09-22T08:27:59Z</time>
   </trkpt>
   <trkpt lat="22.7242260" lon="120.3465130">
    <ele>16.5</ele>
    <time>2026-09-22T08:28:00Z</time>
   </trkpt>
   <trkpt lat="22.7240330" lon="120.3466150">
    <ele>17.1</ele>
    <time>2026-09-22T08:28:01Z</time>
   </trkpt>
   <trkpt lat="22.7240980" lon="120.3464970">
    <ele>17.5</ele>
    <time>2026-09-22T08:28:02Z</time>
   </trkpt>
   <trkpt lat="22.7241100" lon="120.3464620">
    <ele>17.6</ele>
    <time>2026-09-22T08:28:03Z</time>
   </trkpt>
   <trkpt lat="22.7241120" lon="120.3464240">
    <ele>17.7</ele>
    <time>2026-09-22T08:28:04Z</time>
   </trkpt>
   <trkpt lat="22.7240850" lon="120.3463870">
    <ele>17.8</ele>
    <time>2026-09-22T08:28:05Z</time>
   </trkpt>
   <trkpt lat="22.7240790" lon="120.3463480">
    <ele>17.9</ele>
    <time>2026-09-22T08:28:06Z</time>
   </trkpt>
   <trkpt lat="22.7240830" lon="120.3463110">
    <ele>18.0</ele>
    <time>2026-09-22T08:28:07Z</time>
   </trkpt>
   <trkpt lat="22.7241000" lon="120.3462890">
    <ele>18.1</ele>
    <time>2026-09-22T08:28:08Z</time>
   </trkpt>
   <trkpt lat="22.7241250" lon="120.3462730">
    <ele>18.2</ele>
    <time>2026-09-22T08:28:09Z</time>
   </trkpt>
   <trkpt lat="22.7241640" lon="120.3462560">
    <ele>18.4</ele>
    <time>2026-09-22T08:28:10Z</time>
   </trkpt>
   <trkpt lat="22.7242070" lon="120.3462480">
    <ele>18.5</ele>
    <time>2026-09-22T08:28:11Z</time>
   </trkpt>
   <trkpt lat="22.7242520" lon="120.3462360">
    <ele>18.6</ele>
    <time>2026-09-22T08:28:12Z</time>
   </trkpt>
   <trkpt lat="22.7242970" lon="120.3462270">
    <ele>18.8</ele>
    <time>2026-09-22T08:28:13Z</time>
   </trkpt>
   <trkpt lat="22.7243470" lon="120.3462130">
    <ele>18.9</ele>
    <time>2026-09-22T08:28:14Z</time>
   </trkpt>
   <trkpt lat="22.7243970" lon="120.3462030">
    <ele>19.1</ele>
    <time>2026-09-22T08:28:15Z</time>
   </trkpt>
   <trkpt lat="22.7244370" lon="120.3461970">
    <ele>19.3</ele>
    <time>2026-09-22T08:28:16Z</time>
   </trkpt>
   <trkpt lat="22.7244720" lon="120.3461960">
    <ele>19.4</ele>
    <time>2026-09-22T08:28:17Z</time>
   </trkpt>
   <trkpt lat="22.7245110" lon="120.3461850">
    <ele>19.5</ele>
    <time>2026-09-22T08:28:18Z</time>
   </trkpt>
   <trkpt lat="22.7245560" lon="120.3461770">
    <ele>19.7</ele>
    <time>2026-09-22T08:28:19Z</time>
   </trkpt>
   <trkpt lat="22.7245880" lon="120.3461690">
    <ele>19.8</ele>
    <time>2026-09-22T08:28:20Z</time>
   </trkpt>
   <trkpt lat="22.7246150" lon="120.3461690">
    <ele>19.9</ele>
    <time>2026-09-22T08:28:21Z</time>
   </trkpt>
   <trkpt lat="22.7246330" lon="120.3461660">
    <ele>20.0</ele>
    <time>2026-09-22T08:28:22Z</time>
   </trkpt>
   <trkpt lat="22.7246460" lon="120.3461640">
    <ele>20.1</ele>
    <time>2026-09-22T08:28:23Z</time>
   </trkpt>
   <trkpt lat="22.7246590" lon="120.3461590">
    <ele>20.1</ele>
    <time>2026-09-22T08:28:24Z</time>
   </trkpt>
   <trkpt lat="22.7246690" lon="120.3461490">
    <ele>20.2</ele>
    <time>2026-09-22T08:28:25Z</time>
   </trkpt>
   <trkpt lat="22.7246770" lon="120.3461420">
    <ele>20.2</ele>
    <time>2026-09-22T08:28:26Z</time>
   </trkpt>
   <trkpt lat="22.7246750" lon="120.3461420">
    <ele>20.2</ele>
    <time>2026-09-22T08:28:27Z</time>
   </trkpt>
   <trkpt lat="22.7246720" lon="120.3461400">
    <ele>20.3</ele>
    <time>2026-09-22T08:28:28Z</time>
   </trkpt>
   <trkpt lat="22.7246740" lon="120.3461370">
    <ele>20.3</ele>
    <time>2026-09-22T08:28:29Z</time>
   </trkpt>
   <trkpt lat="22.7246750" lon="120.3461360">
    <ele>20.3</ele>
    <time>2026-09-22T08:28:30Z</time>
   </trkpt>
   <trkpt lat="22.7246740" lon="120.3461340">
    <ele>20.3</ele>
    <time>2026-09-22T08:28:31Z</time>
   </trkpt>
   <trkpt lat="22.7246740" lon="120.3461340">
    <ele>20.3</ele>
    <time>2026-09-22T08:28:32Z</time>
   </trkpt>
   <trkpt lat="22.7246740" lon="120.3461340">
    <ele>20.3</ele>
    <time>2026-09-22T08:28:33Z</time>
   </trkpt>
   <trkpt lat="22.7246740" lon="120.3461340">
    <ele>20.3</ele>
    <time>2026-09-22T08:28:34Z</time>
   </trkpt>
   <trkpt lat="22.7246740" lon="120.3461340">
    <ele>20.3</ele>
    <time>2026-09-22T08:28:35Z</time>
   </trkpt>
   <trkpt lat="22.7246740" lon="120.3461340">
    <ele>20.3</ele>
    <time>2026-09-22T08:28:36Z</time>
   </trkpt>
   <trkpt lat="22.7246820" lon="120.3461360">
    <ele>20.3</ele>
    <time>2026-09-22T08:28:37Z</time>
   </trkpt>
   <trkpt lat="22.7246850" lon="120.3461340">
    <ele>20.3</ele>
    <time>2026-09-22T08:28:38Z</time>
   </trkpt>
   <trkpt lat="22.7247080" lon="120.3461280">
    <ele>20.4</ele>
    <time>2026-09-22T08:28:39Z</time>
   </trkpt>
   <trkpt lat="22.7247390" lon="120.3461250">
    <ele>20.6</ele>
    <time>2026-09-22T08:28:40Z</time>
   </trkpt>
   <trkpt lat="22.7247730" lon="120.3461310">
    <ele>20.7</ele>
    <time>2026-09-22T08:28:41Z</time>
   </trkpt>
   <trkpt lat="22.7247960" lon="120.3461540">
    <ele>20.9</ele>
    <time>2026-09-22T08:28:42Z</time>
   </trkpt>
   <trkpt lat="22.7248060" lon="120.3461790">
    <ele>21.0</ele>
    <time>2026-09-22T08:28:43Z</time>
   </trkpt>
   <trkpt lat="22.7248040" lon="120.3462220">
    <ele>21.0</ele>
    <time>2026-09-22T08:28:44Z</time>
   </trkpt>
   <trkpt lat="22.7248060" lon="120.3462600">
    <ele>21.0</ele>
    <time>2026-09-22T08:28:45Z</time>
   </trkpt>
   <trkpt lat="22.7248140" lon="120.3463050">
    <ele>20.9</ele>
    <time>2026-09-22T08:28:46Z</time>
   </trkpt>
   <trkpt lat="22.7248380" lon="120.3463580">
    <ele>20.9</ele>
    <time>2026-09-22T08:28:47Z</time>
   </trkpt>
   <trkpt lat="22.7248560" lon="120.3464150">
    <ele>20.9</ele>
    <time>2026-09-22T08:28:48Z</time>
   </trkpt>
   <trkpt lat="22.7248760" lon="120.3464800">
    <ele>20.9</ele>
    <time>2026-09-22T08:28:49Z</time>
   </trkpt>
   <trkpt lat="22.7248940" lon="120.3465490">
    <ele>20.9</ele>
    <time>2026-09-22T08:28:50Z</time>
   </trkpt>
   <trkpt lat="22.7249150" lon="120.3466220">
    <ele>21.0</ele>
    <time>2026-09-22T08:28:51Z</time>
   </trkpt>
   <trkpt lat="22.7249310" lon="120.3466960">
    <ele>21.1</ele>
    <time>2026-09-22T08:28:52Z</time>
   </trkpt>
   <trkpt lat="22.7249520" lon="120.3467710">
    <ele>21.1</ele>
    <time>2026-09-22T08:28:53Z</time>
   </trkpt>
   <trkpt lat="22.7249620" lon="120.3468480">
    <ele>21.2</ele>
    <time>2026-09-22T08:28:54Z</time>
   </trkpt>
   <trkpt lat="22.7249720" lon="120.3469260">
    <ele>21.2</ele>
    <time>2026-09-22T08:28:55Z</time>
   </trkpt>
   <trkpt lat="22.7249900" lon="120.3469980">
    <ele>21.3</ele>
    <time>2026-09-22T08:28:56Z</time>
   </trkpt>
   <trkpt lat="22.7250010" lon="120.3470750">
    <ele>21.3</ele>
    <time>2026-09-22T08:28:57Z</time>
   </trkpt>
   <trkpt lat="22.7250080" lon="120.3471560">
    <ele>21.3</ele>
    <time>2026-09-22T08:28:58Z</time>
   </trkpt>
   <trkpt lat="22.7250250" lon="120.3472400">
    <ele>21.4</ele>
    <time>2026-09-22T08:28:59Z</time>
   </trkpt>
   <trkpt lat="22.7250320" lon="120.3473290">
    <ele>21.4</ele>
    <time>2026-09-22T08:29:00Z</time>
   </trkpt>
   <trkpt lat="22.7250410" lon="120.3474160">
    <ele>21.4</ele>
    <time>2026-09-22T08:29:01Z</time>
   </trkpt>
   <trkpt lat="22.7250480" lon="120.3474880">
    <ele>21.5</ele>
    <time>2026-09-22T08:29:02Z</time>
   </trkpt>
   <trkpt lat="22.7250490" lon="120.3475570">
    <ele>21.5</ele>
    <time>2026-09-22T08:29:03Z</time>
   </trkpt>
   <trkpt lat="22.7250540" lon="120.3476170">
    <ele>21.6</ele>
    <time>2026-09-22T08:29:04Z</time>
   </trkpt>
   <trkpt lat="22.7250550" lon="120.3476700">
    <ele>21.6</ele>
    <time>2026-09-22T08:29:05Z</time>
   </trkpt>
   <trkpt lat="22.7250570" lon="120.3477230">
    <ele>21.6</ele>
    <time>2026-09-22T08:29:06Z</time>
   </trkpt>
   <trkpt lat="22.7250570" lon="120.3477820">
    <ele>21.7</ele>
    <time>2026-09-22T08:29:07Z</time>
   </trkpt>
   <trkpt lat="22.7250640" lon="120.3478370">
    <ele>21.7</ele>
    <time>2026-09-22T08:29:08Z</time>
   </trkpt>
   <trkpt lat="22.7250760" lon="120.3478920">
    <ele>21.7</ele>
    <time>2026-09-22T08:29:09Z</time>
   </trkpt>
   <trkpt lat="22.7250880" lon="120.3479500">
    <ele>21.7</ele>
    <time>2026-09-22T08:29:10Z</time>
   </trkpt>
   <trkpt lat="22.7250980" lon="120.3480160">
    <ele>21.8</ele>
    <time>2026-09-22T08:29:11Z</time>
   </trkpt>
  </trkseg>
 </trk>
</gpx>
