<?xml version="1.0" encoding="UTF-8"?>
<gpx creator="StravaGPX" version="1.1" xmlns="http://www.topografix.com/GPX/1/1" xmlns:xsi="http://www.w3.org/2001/XMLSchema-instance" xsi:schemaLocation="http://www.topografix.com/GPX/1/1 http://www.topografix.com/GPX/1/1/gpx.xsd">
 <metadata>
  <time>2026-09-22T08:31:07Z</time>
 </metadata>
 <trk>
  <name>午後電動自行車騎乘</name>
  <type>ebikeride</type>
  <trkseg>
   <trkpt lat="22.7219460" lon="120.3504820">
    <ele>22.4</ele>
    <time>2026-09-22T08:31:07Z</time>
   </trkpt>
   <trkpt lat="22.7219460" lon="120.3504820">
    <ele>22.4</ele>
    <time>2026-09-22T08:31:08Z</time>
   </trkpt>
   <trkpt lat="22.7219460" lon="120.3504820">
    <ele>22.4</ele>
    <time>2026-09-22T08:31:09Z</time>
   </trkpt>
   <trkpt lat="22.7219470" lon="120.3504830">
    <ele>22.4</ele>
    <time>2026-09-22T08:31:10Z</time>
   </trkpt>
   <trkpt lat="22.7219470" lon="120.3504830">
    <ele>22.4</ele>
    <time>2026-09-22T08:31:11Z</time>
   </trkpt>
   <trkpt lat="22.7219480" lon="120.3504830">
    <ele>22.4</ele>
    <time>2026-09-22T08:31:12Z</time>
   </trkpt>
   <trkpt lat="22.7219480" lon="120.3504840">
    <ele>22.4</ele>
    <time>2026-09-22T08:31:13Z</time>
   </trkpt>
   <trkpt lat="22.7219340" lon="120.3504920">
    <ele>22.4</ele>
    <time>2026-09-22T08:31:14Z</time>
   </trkpt>
   <trkpt lat="22.7219350" lon="120.3504760">
    <ele>22.5</ele>
    <time>2026-09-22T08:31:15Z</time>
   </trkpt>
   <trkpt lat="22.7219270" lon="120.3504790">
    <ele>22.5</ele>
    <time>2026-09-22T08:31:16Z</time>
   </trkpt>
   <trkpt lat="22.7219100" lon="120.3504690">
    <ele>22.5</ele>
    <time>2026-09-22T08:31:17Z</time>
   </trkpt>
   <trkpt lat="22.7218050" lon="120.3504700">
    <ele>22.5</ele>
    <time>2026-09-22T08:31:19Z</time>
   </trkpt>
   <trkpt lat="22.7217630" lon="120.3504590">
    <ele>22.5</ele>
    <time>2026-09-22T08:31:20Z</time>
   </trkpt>
   <trkpt lat="22.7217210" lon="120.3504450">
    <ele>22.5</ele>
    <time>2026-09-22T08:31:21Z</time>
   </trkpt>
   <trkpt lat="22.7216960" lon="120.3504030">
    <ele>22.5</ele>
    <time>2026-09-22T08:31:22Z</time>
   </trkpt>
   <trkpt lat="22.7216740" lon="120.3503510">
    <ele>22.6</ele>
    <time>2026-09-22T08:31:23Z</time>
   </trkpt>
   <trkpt lat="22.7216460" lon="120.3503080">
    <ele>22.7</ele>
    <time>2026-09-22T08:31:24Z</time>
   </trkpt>
   <trkpt lat="22.7216130" lon="120.3502570">
    <ele>22.7</ele>
    <time>2026-09-22T08:31:25Z</time>
   </trkpt>
   <trkpt lat="22.7216010" lon="120.3501620">
    <ele>22.8</ele>
    <time>2026-09-22T08:31:26Z</time>
   </trkpt>
   <trkpt lat="22.7216150" lon="120.3501090">
    <ele>22.9</ele>
    <time>2026-09-22T08:31:27Z</time>
   </trkpt>
   <trkpt lat="22.7217060" lon="120.3500070">
    <ele>23.0</ele>
    <time>2026-09-22T08:31:28Z</time>
   </trkpt>
   <trkpt lat="22.7216490" lon="120.3499530">
    <ele>23.0</ele>
    <time>2026-09-22T08:31:29Z</time>
   </trkpt>
   <trkpt lat="22.7216560" lon="120.3498940">
    <ele>23.0</ele>
    <time>2026-09-22T08:31:30Z</time>
   </trkpt>
   <trkpt lat="22.7216470" lon="120.3498450">
    <ele>23.0</ele>
    <time>2026-09-22T08:31:31Z</time>
   </trkpt>
   <trkpt lat="22.7216360" lon="120.3497940">
    <ele>23.0</ele>
    <time>2026-09-22T08:31:32Z</time>
   </trkpt>
   <trkpt lat="22.7216240" lon="120.3497270">
    <ele>23.0</ele>
    <time>2026-09-22T08:31:33Z</time>
   </trkpt>
   <trkpt lat="22.7216070" lon="120.3496630">
    <ele>22.8</ele>
    <time>2026-09-22T08:31:34Z</time>
   </trkpt>
   <trkpt lat="22.7215920" lon="120.3495910">
    <ele>22.7</ele>
    <time>2026-09-22T08:31:35Z</time>
   </trkpt>
   <trkpt lat="22.7215820" lon="120.3495150">
    <ele>22.5</ele>
    <time>2026-09-22T08:31:36Z</time>
   </trkpt>
   <trkpt lat="22.7215750" lon="120.3494460">
    <ele>22.3</ele>
    <time>2026-09-22T08:31:37Z</time>
   </trkpt>
   <trkpt lat="22.7215600" lon="120.3493860">
    <ele>22.2</ele>
    <time>2026-09-22T08:31:38Z</time>
   </trkpt>
   <trkpt lat="22.7215320" lon="120.3493500">
    <ele>22.1</ele>
    <time>2026-09-22T08:31:39Z</time>
   </trkpt>
   <trkpt lat="22.7215250" lon="120.3492920">
    <ele>22.0</ele>
    <time>2026-09-22T08:31:40Z</time>
   </trkpt>
   <trkpt lat="22.7215340" lon="120.3492510">
    <ele>21.9</ele>
    <time>2026-09-22T08:31:41Z</time>
   </trkpt>
   <trkpt lat="22.7215270" lon="120.3492280">
    <ele>21.8</ele>
    <time>2026-09-22T08:31:42Z</time>
   </trkpt>
   <trkpt lat="22.7215150" lon="120.3491960">
    <ele>21.7</ele>
    <time>2026-09-22T08:31:43Z</time>
   </trkpt>
   <trkpt lat="22.7215140" lon="120.3491470">
    <ele>21.6</ele>
    <time>2026-09-22T08:31:44Z</time>
   </trkpt>
   <trkpt lat="22.7215100" lon="120.3490890">
    <ele>21.5</ele>
    <time>2026-09-22T08:31:45Z</time>
   </trkpt>
   <trkpt lat="22.7214850" lon="120.3490300">
    <ele>21.3</ele>
    <time>2026-09-22T08:31:46Z</time>
   </trkpt>
   <trkpt lat="22.7214860" lon="120.3489850">
    <ele>21.2</ele>
    <time>2026-09-22T08:31:47Z</time>
   </trkpt>
   <trkpt lat="22.7214940" lon="120.3489460">
    <ele>21.1</ele>
    <time>2026-09-22T08:31:48Z</time>
   </trkpt>
   <trkpt lat="22.7215130" lon="120.3489000">
    <ele>21.0</ele>
    <time>2026-09-22T08:31:49Z</time>
   </trkpt>
   <trkpt lat="22.7215250" lon="120.3488700">
    <ele>21.0</ele>
    <time>2026-09-22T08:31:50Z</time>
   </trkpt>
   <trkpt lat="22.7215230" lon="120.3488330">
    <ele>20.9</ele>
    <time>2026-09-22T08:31:51Z</time>
   </trkpt>
   <trkpt lat="22.7215090" lon="120.3487930">
    <ele>20.9</ele>
    <time>2026-09-22T08:31:52Z</time>
   </trkpt>
   <trkpt lat="22.7215070" lon="120.3487360">
    <ele>20.7</ele>
    <time>2026-09-22T08:31:53Z</time>
   </trkpt>
   <trkpt lat="22.7214860" lon="120.3486980">
    <ele>20.7</ele>
    <time>2026-09-22T08:31:54Z</time>
   </trkpt>
   <trkpt lat="22.7215150" lon="120.3486350">
    <ele>20.5</ele>
    <time>2026-09-22T08:31:55Z</time>
   </trkpt>
   <trkpt lat="22.7215310" lon="120.3485660">
    <ele>20.4</ele>
    <time>2026-09-22T08:31:56Z</time>
   </trkpt>
   <trkpt lat="22.7215400" lon="120.3484950">
    <ele>20.3</ele>
    <time>2026-09-22T08:31:57Z</time>
   </trkpt>
   <trkpt lat="22.7215450" lon="120.3484260">
    <ele>20.3</ele>
    <time>2026-09-22T08:31:58Z</time>
   </trkpt>
   <trkpt lat="22.7215530" lon="120.3483540">
    <ele>20.2</ele>
    <time>2026-09-22T08:31:59Z</time>
   </trkpt>
   <trkpt lat="22.7215580" lon="120.3482730">
    <ele>20.2</ele>
    <time>2026-09-22T08:32:00Z</time>
   </trkpt>
   <trkpt lat="22.7215700" lon="120.3481950">
    <ele>20.1</ele>
    <time>2026-09-22T08:32:01Z</time>
   </trkpt>
   <trkpt lat="22.7215800" lon="120.3481110">
    <ele>20.1</ele>
    <time>2026-09-22T08:32:02Z</time>
   </trkpt>
   <trkpt lat="22.7215930" lon="120.3480290">
    <ele>20.0</ele>
    <time>2026-09-22T08:32:03Z</time>
   </trkpt>
   <trkpt lat="22.7216030" lon="120.3479410">
    <ele>19.9</ele>
    <time>2026-09-22T08:32:04Z</time>
   </trkpt>
   <trkpt lat="22.7216190" lon="120.3478570">
    <ele>19.8</ele>
    <time>2026-09-22T08:32:05Z</time>
   </trkpt>
   <trkpt lat="22.7216140" lon="120.3477750">
    <ele>19.7</ele>
    <time>2026-09-22T08:32:06Z</time>
   </trkpt>
   <trkpt lat="22.7216360" lon="120.3477130">
    <ele>19.6</ele>
    <time>2026-09-22T08:32:07Z</time>
   </trkpt>
   <trkpt lat="22.7216490" lon="120.3476520">
    <ele>19.5</ele>
    <time>2026-09-22T08:32:08Z</time>
   </trkpt>
   <trkpt lat="22.7216600" lon="120.3476060">
    <ele>19.5</ele>
    <time>2026-09-22T08:32:09Z</time>
   </trkpt>
   <trkpt lat="22.7216780" lon="120.3475550">
    <ele>19.4</ele>
    <time>2026-09-22T08:32:10Z</time>
   </trkpt>
   <trkpt lat="22.7216900" lon="120.3475210">
    <ele>19.4</ele>
    <time>2026-09-22T08:32:11Z</time>
   </trkpt>
   <trkpt lat="22.7217020" lon="120.3474840">
    <ele>19.3</ele>
    <time>2026-09-22T08:32:12Z</time>
   </trkpt>
   <trkpt lat="22.7217110" lon="120.3474460">
    <ele>19.3</ele>
    <time>2026-09-22T08:32:13Z</time>
   </trkpt>
   <trkpt lat="22.7217190" lon="120.3474120">
    <ele>19.3</ele>
    <time>2026-09-22T08:32:14Z</time>
   </trkpt>
   <trkpt lat="22.7217300" lon="120.3473690">
    <ele>19.2</ele>
    <time>2026-09-22T08:32:15Z</time>
   </trkpt>
   <trkpt lat="22.7217400" lon="120.3473370">
    <ele>19.2</ele>
    <time>2026-09-22T08:32:16Z</time>
   </trkpt>
   <trkpt lat="22.7217530" lon="120.3473020">
    <ele>19.1</ele>
    <time>2026-09-22T08:32:17Z</time>
   </trkpt>
   <trkpt lat="22.7217640" lon="120.3472760">
    <ele>19.1</ele>
    <time>2026-09-22T08:32:18Z</time>
   </trkpt>
   <trkpt lat="22.7217730" lon="120.3472590">
    <ele>19.1</ele>
    <time>2026-09-22T08:32:19Z</time>
   </trkpt>
   <trkpt lat="22.7217860" lon="120.3472400">
    <ele>19.1</ele>
    <time>2026-09-22T08:32:20Z</time>
   </trkpt>
   <trkpt lat="22.7217920" lon="120.3472200">
    <ele>19.1</ele>
    <time>2026-09-22T08:32:21Z</time>
   </trkpt>
   <trkpt lat="22.7217940" lon="120.3471960">
    <ele>19.0</ele>
    <time>2026-09-22T08:32:22Z</time>
   </trkpt>
   <trkpt lat="22.7217900" lon="120.3471820">
    <ele>19.0</ele>
    <time>2026-09-22T08:32:23Z</time>
   </trkpt>
   <trkpt lat="22.7217850" lon="120.3471830">
    <ele>19.0</ele>
    <time>2026-09-22T08:32:24Z</time>
   </trkpt>
   <trkpt lat="22.7217780" lon="120.3472140">
    <ele>19.0</ele>
    <time>2026-09-22T08:32:25Z</time>
   </trkpt>
   <trkpt lat="22.7217720" lon="120.3472370">
    <ele>18.9</ele>
    <time>2026-09-22T08:32:26Z</time>
   </trkpt>
   <trkpt lat="22.7217640" lon="120.3472770">
    <ele>18.9</ele>
    <time>2026-09-22T08:32:27Z</time>
   </trkpt>
   <trkpt lat="22.7217560" lon="120.3473150">
    <ele>18.8</ele>
    <time>2026-09-22T08:32:28Z</time>
   </trkpt>
   <trkpt lat="22.7217450" lon="120.3473610">
    <ele>18.9</ele>
    <time>2026-09-22T08:32:29Z</time>
   </trkpt>
   <trkpt lat="22.7217160" lon="120.3474120">
    <ele>19.0</ele>
    <time>2026-09-22T08:32:30Z</time>
   </trkpt>
   <trkpt lat="22.7216940" lon="120.3474730">
    <ele>19.1</ele>
    <time>2026-09-22T08:32:31Z</time>
   </trkpt>
   <trkpt lat="22.7216800" lon="120.3475160">
    <ele>19.1</ele>
    <time>2026-09-22T08:32:32Z</time>
   </trkpt>
   <trkpt lat="22.7216700" lon="120.3475610">
    <ele>19.2</ele>
    <time>2026-09-22T08:32:33Z</time>
   </trkpt>
   <trkpt lat="22.7216500" lon="120.3476360">
    <ele>19.3</ele>
    <time>2026-09-22T08:32:34Z</time>
   </trkpt>
   <trkpt lat="22.7216310" lon="120.3477000">
    <ele>19.4</ele>
    <time>2026-09-22T08:32:35Z</time>
   </trkpt>
   <trkpt lat="22.7216100" lon="120.3477700">
    <ele>19.5</ele>
    <time>2026-09-22T08:32:36Z</time>
   </trkpt>
   <trkpt lat="22.7215860" lon="120.3478570">
    <ele>19.6</ele>
    <time>2026-09-22T08:32:37Z</time>
   </trkpt>
   <trkpt lat="22.7215510" lon="120.3479370">
    <ele>19.7</ele>
    <time>2026-09-22T08:32:38Z</time>
   </trkpt>
   <trkpt lat="22.7215490" lon="120.3480170">
    <ele>19.8</ele>
    <time>2026-09-22T08:32:39Z</time>
   </trkpt>
   <trkpt lat="22.7215380" lon="120.3480930">
    <ele>19.9</ele>
    <time>2026-09-22T08:32:40Z</time>
   </trkpt>
   <trkpt lat="22.7215310" lon="120.3481670">
    <ele>20.0</ele>
    <time>2026-09-22T08:32:41Z</time>
   </trkpt>
   <trkpt lat="22.7215270" lon="120.3482430">
    <ele>20.1</ele>
    <time>2026-09-22T08:32:42Z</time>
   </trkpt>
   <trkpt lat="22.7215190" lon="120.3483020">
    <ele>20.2</ele>
    <time>2026-09-22T08:32:43Z</time>
   </trkpt>
   <trkpt lat="22.7215150" lon="120.3483550">
    <ele>20.2</ele>
    <time>2026-09-22T08:32:44Z</time>
   </trkpt>
   <trkpt lat="22.7215090" lon="120.3484100">
    <ele>20.2</ele>
    <time>2026-09-22T08:32:45Z</time>
   </trkpt>
   <trkpt lat="22.7215050" lon="120.3484700">
    <ele>20.3</ele>
    <time>2026-09-22T08:32:46Z</time>
   </trkpt>
   <trkpt lat="22.7215020" lon="120.3485190">
    <ele>20.3</ele>
    <time>2026-09-22T08:32:47Z</time>
   </trkpt>
   <trkpt lat="22.7214980" lon="120.3485640">
    <ele>20.4</ele>
    <time>2026-09-22T08:32:48Z</time>
   </trkpt>
   <trkpt lat="22.7214960" lon="120.3486020">
    <ele>20.4</ele>
    <time>2026-09-22T08:32:49Z</time>
   </trkpt>
   <trkpt lat="22.7214930" lon="120.3486370">
    <ele>20.5</ele>
    <time>2026-09-22T08:32:50Z</time>
   </trkpt>
   <trkpt lat="22.7214870" lon="120.3486700">
    <ele>20.6</ele>
    <time>2026-09-22T08:32:51Z</time>
   </trkpt>
   <trkpt lat="22.7214820" lon="120.3487010">
    <ele>20.6</ele>
    <time>2026-09-22T08:32:52Z</time>
   </trkpt>
   <trkpt lat="22.7214820" lon="120.3487280">
    <ele>20.7</ele>
    <time>2026-09-22T08:32:53Z</time>
   </trkpt>
   <trkpt lat="22.7214780" lon="120.3487580">
    <ele>20.8</ele>
    <time>2026-09-22T08:32:54Z</time>
   </trkpt>
   <trkpt lat="22.7214760" lon="120.3487960">
    <ele>20.8</ele>
    <time>2026-09-22T08:32:55Z</time>
   </trkpt>
   <trkpt lat="22.7214670" lon="120.3488400">
    <ele>20.9</ele>
    <time>2026-09-22T08:32:56Z</time>
   </trkpt>
   <trkpt lat="22.7214680" lon="120.3488670">
    <ele>21.0</ele>
    <time>2026-09-22T08:32:57Z</time>
   </trkpt>
   <trkpt lat="22.7214520" lon="120.3488780">
    <ele>21.0</ele>
    <time>2026-09-22T08:32:58Z</time>
   </trkpt>
   <trkpt lat="22.7214290" lon="120.3488920">
    <ele>21.0</ele>
    <time>2026-09-22T08:32:59Z</time>
   </trkpt>
   <trkpt lat="22.7213900" lon="120.3488920">
    <ele>21.3</ele>
    <time>2026-09-22T08:33:00Z</time>
   </trkpt>
   <trkpt lat="22.7213480" lon="120.3488980">
    <ele>21.6</ele>
    <time>2026-09-22T08:33:01Z</time>
   </trkpt>
   <trkpt lat="22.7212980" lon="120.3488930">
    <ele>22.0</ele>
    <time>2026-09-22T08:33:02Z</time>
   </trkpt>
   <trkpt lat="22.7212410" lon="120.3488990">
    <ele>22.5</ele>
    <time>2026-09-22T08:33:03Z</time>
   </trkpt>
   <trkpt lat="22.7211860" lon="120.3489050">
    <ele>22.9</ele>
    <time>2026-09-22T08:33:04Z</time>
   </trkpt>
   <trkpt lat="22.7211420" lon="120.3489150">
    <ele>23.2</ele>
    <time>2026-09-22T08:33:05Z</time>
   </trkpt>
   <trkpt lat="22.7211290" lon="120.3489600">
    <ele>23.6</ele>
    <time>2026-09-22T08:33:06Z</time>
   </trkpt>
   <trkpt lat="22.7211030" lon="120.3489890">
    <ele>23.8</ele>
    <time>2026-09-22T08:33:07Z</time>
   </trkpt>
   <trkpt lat="22.7211010" lon="120.3490170">
    <ele>24.0</ele>
    <time>2026-09-22T08:33:08Z</time>
   </trkpt>
   <trkpt lat="22.7210840" lon="120.3490400">
    <ele>24.2</ele>
    <time>2026-09-22T08:33:09Z</time>
   </trkpt>
   <trkpt lat="22.7210490" lon="120.3491510">
    <ele>25.1</ele>
    <time>2026-09-22T08:33:10Z</time>
   </trkpt>
   <trkpt lat="22.7210320" lon="120.3492380">
    <ele>25.7</ele>
    <time>2026-09-22T08:33:11Z</time>
   </trkpt>
   <trkpt lat="22.7210130" lon="120.3493220">
    <ele>25.8</ele>
    <time>2026-09-22T08:33:12Z</time>
   </trkpt>
   <trkpt lat="22.7209930" lon="120.3493990">
    <ele>25.7</ele>
    <time>2026-09-22T08:33:13Z</time>
   </trkpt>
   <trkpt lat="22.7209780" lon="120.3494770">
    <ele>25.6</ele>
    <time>2026-09-22T08:33:14Z</time>
   </trkpt>
   <trkpt lat="22.7209630" lon="120.3495480">
    <ele>25.5</ele>
    <time>2026-09-22T08:33:15Z</time>
   </trkpt>
   <trkpt lat="22.7209510" lon="120.3496250">
    <ele>25.4</ele>
    <time>2026-09-22T08:33:16Z</time>
   </trkpt>
   <trkpt lat="22.7209390" lon="120.3496940">
    <ele>25.3</ele>
    <time>2026-09-22T08:33:17Z</time>
   </trkpt>
   <trkpt lat="22.7209150" lon="120.3497760">
    <ele>25.1</ele>
    <time>2026-09-22T08:33:18Z</time>
   </trkpt>
   <trkpt lat="22.7209000" lon="120.3498340">
    <ele>25.1</ele>
    <time>2026-09-22T08:33:19Z</time>
   </trkpt>
   <trkpt lat="22.7208880" lon="120.3498740">
    <ele>25.0</ele>
    <time>2026-09-22T08:33:20Z</time>
   </trkpt>
   <trkpt lat="22.7209080" lon="120.3499370">
    <ele>24.9</ele>
    <time>2026-09-22T08:33:21Z</time>
   </trkpt>
   <trkpt lat="22.7209150" lon="120.3499870">
    <ele>24.9</ele>
    <time>2026-09-22T08:33:22Z</time>
   </trkpt>
   <trkpt lat="22.7209280" lon="120.3500270">
    <ele>24.9</ele>
    <time>2026-09-22T08:33:23Z</time>
   </trkpt>
   <trkpt lat="22.7209330" lon="120.3500710">
    <ele>24.8</ele>
    <time>2026-09-22T08:33:24Z</time>
   </trkpt>
   <trkpt lat="22.7209680" lon="120.3500790">
    <ele>24.6</ele>
    <time>2026-09-22T08:33:25Z</time>
   </trkpt>
   <trkpt lat="22.7210040" lon="120.3500840">
    <ele>24.5</ele>
    <time>2026-09-22T08:33:26Z</time>
   </trkpt>
   <trkpt lat="22.7210470" lon="120.3500580">
    <ele>24.4</ele>
    <time>2026-09-22T08:33:27Z</time>
   </trkpt>
   <trkpt lat="22.7210970" lon="120.3500470">
    <ele>24.3</ele>
    <time>2026-09-22T08:33:28Z</time>
   </trkpt>
   <trkpt lat="22.7211580" lon="120.3500250">
    <ele>24.1</ele>
    <time>2026-09-22T08:33:29Z</time>
   </trkpt>
   <trkpt lat="22.7212180" lon="120.3500110">
    <ele>23.9</ele>
    <time>2026-09-22T08:33:30Z</time>
   </trkpt>
   <trkpt lat="22.7212920" lon="120.3500150">
    <ele>23.7</ele>
    <time>2026-09-22T08:33:31Z</time>
   </trkpt>
   <trkpt lat="22.7213610" lon="120.3500050">
    <ele>23.5</ele>
    <time>2026-09-22T08:33:32Z</time>
   </trkpt>
   <trkpt lat="22.7214170" lon="120.3499990">
    <ele>23.4</ele>
    <time>2026-09-22T08:33:33Z</time>
   </trkpt>
   <trkpt lat="22.7214680" lon="120.3499930">
    <ele>23.2</ele>
    <time>2026-09-22T08:33:34Z</time>
   </trkpt>
   <trkpt lat="22.7215220" lon="120.3499910">
    <ele>23.1</ele>
    <time>2026-09-22T08:33:35Z</time>
   </trkpt>
   <trkpt lat="22.7215710" lon="120.3499780">
    <ele>23.0</ele>
    <time>2026-09-22T08:33:36Z</time>
   </trkpt>
   <trkpt lat="22.7216140" lon="120.3499620">
    <ele>23.0</ele>
    <time>2026-09-22T08:33:37Z</time>
   </trkpt>
   <trkpt lat="22.7216330" lon="120.3499640">
    <ele>23.0</ele>
    <time>2026-09-22T08:33:38Z</time>
   </trkpt>
   <trkpt lat="22.7216390" lon="120.3499640">
    <ele>23.0</ele>
    <time>2026-09-22T08:33:39Z</time>
   </trkpt>
   <trkpt lat="22.7216200" lon="120.3499680">
    <ele>23.0</ele>
    <time>2026-09-22T08:33:40Z</time>
   </trkpt>
   <trkpt lat="22.7216200" lon="120.3499830">
    <ele>23.0</ele>
    <time>2026-09-22T08:33:41Z</time>
   </trkpt>
   <trkpt lat="22.7216250" lon="120.3499840">
    <ele>23.0</ele>
    <time>2026-09-22T08:33:42Z</time>
   </trkpt>
   <trkpt lat="22.7216380" lon="120.3499860">
    <ele>23.0</ele>
    <time>2026-09-22T08:33:43Z</time>
   </trkpt>
   <trkpt lat="22.7216700" lon="120.3499740">
    <ele>23.0</ele>
    <time>2026-09-22T08:33:44Z</time>
   </trkpt>
   <trkpt lat="22.7216830" lon="120.3499350">
    <ele>23.0</ele>
    <time>2026-09-22T08:33:45Z</time>
   </trkpt>
   <trkpt lat="22.7217080" lon="120.3498860">
    <ele>23.0</ele>
    <time>2026-09-22T08:33:46Z</time>
   </trkpt>
   <trkpt lat="22.7217220" lon="120.3498470">
    <ele>23.0</ele>
    <time>2026-09-22T08:33:47Z</time>
   </trkpt>
   <trkpt lat="22.7217420" lon="120.3498080">
    <ele>23.0</ele>
    <time>2026-09-22T08:33:48Z</time>
   </trkpt>
   <trkpt lat="22.7217650" lon="120.3497590">
    <ele>23.0</ele>
    <time>2026-09-22T08:33:49Z</time>
   </trkpt>
   <trkpt lat="22.7217340" lon="120.3497350">
    <ele>23.0</ele>
    <time>2026-09-22T08:33:50Z</time>
   </trkpt>
   <trkpt lat="22.7217740" lon="120.3496800">
    <ele>23.0</ele>
    <time>2026-09-22T08:33:51Z</time>
   </trkpt>
   <trkpt lat="22.7218350" lon="120.3496340">
    <ele>23.0</ele>
    <time>2026-09-22T08:33:52Z</time>
   </trkpt>
   <trkpt lat="22.7218910" lon="120.3495930">
    <ele>23.0</ele>
    <time>2026-09-22T08:33:53Z</time>
   </trkpt>
   <trkpt lat="22.7219420" lon="120.3495500">
    <ele>23.0</ele>
    <time>2026-09-22T08:33:54Z</time>
   </trkpt>
   <trkpt lat="22.7219890" lon="120.3494930">
    <ele>23.0</ele>
    <time>2026-09-22T08:33:55Z</time>
   </trkpt>
   <trkpt lat="22.7220370" lon="120.3494650">
    <ele>23.0</ele>
    <time>2026-09-22T08:33:56Z</time>
   </trkpt>
   <trkpt lat="22.7220870" lon="120.3494200">
    <ele>23.0</ele>
    <time>2026-09-22T08:33:57Z</time>
   </trkpt>
   <trkpt lat="22.7221330" lon="120.3493830">
    <ele>23.0</ele>
    <time>2026-09-22T08:33:58Z</time>
   </trkpt>
   <trkpt lat="22.7221750" lon="120.3493500">
    <ele>23.0</ele>
    <time>2026-09-22T08:33:59Z</time>
   </trkpt>
   <trkpt lat="22.7222110" lon="120.3493210">
    <ele>23.0</ele>
    <time>2026-09-22T08:34:00Z</time>
   </trkpt>
   <trkpt lat="22.7222510" lon="120.3492850">
    <ele>23.0</ele>
    <time>2026-09-22T08:34:01Z</time>
   </trkpt>
   <trkpt lat="22.7223000" lon="120.3492480">
    <ele>23.0</ele>
    <time>2026-09-22T08:34:02Z</time>
   </trkpt>
   <trkpt lat="22.7223530" lon="120.3491980">
    <ele>22.9</ele>
    <time>2026-09-22T08:34:03Z</time>
   </trkpt>
   <trkpt lat="22.7224230" lon="120.3491460">
    <ele>22.8</ele>
    <time>2026-09-22T08:34:04Z</time>
   </trkpt>
   <trkpt lat="22.7224630" lon="120.3490940">
    <ele>22.7</ele>
    <time>2026-09-22T08:34:05Z</time>
   </trkpt>
   <trkpt lat="22.7225010" lon="120.3490400">
    <ele>22.6</ele>
    <time>2026-09-22T08:34:06Z</time>
   </trkpt>
   <trkpt lat="22.7225360" lon="120.3489930">
    <ele>22.5</ele>
    <time>2026-09-22T08:34:07Z</time>
   </trkpt>
   <trkpt lat="22.7225830" lon="120.3489410">
    <ele>22.4</ele>
    <time>2026-09-22T08:34:08Z</time>
   </trkpt>
   <trkpt lat="22.7226070" lon="120.3488900">
    <ele>22.4</ele>
    <time>2026-09-22T08:34:09Z</time>
   </trkpt>
   <trkpt lat="22.7226340" lon="120.3488400">
    <ele>22.3</ele>
    <time>2026-09-22T08:34:10Z</time>
   </trkpt>
   <trkpt lat="22.7226430" lon="120.3488140">
    <ele>22.2</ele>
    <time>2026-09-22T08:34:11Z</time>
   </trkpt>
   <trkpt lat="22.7226870" lon="120.3487690">
    <ele>22.2</ele>
    <time>2026-09-22T08:34:12Z</time>
   </trkpt>
   <trkpt lat="22.7227280" lon="120.3487490">
    <ele>22.1</ele>
    <time>2026-09-22T08:34:13Z</time>
   </trkpt>
   <trkpt lat="22.7227720" lon="120.3487050">
    <ele>22.0</ele>
    <time>2026-09-22T08:34:14Z</time>
   </trkpt>
   <trkpt lat="22.7228110" lon="120.3486690">
    <ele>22.0</ele>
    <time>2026-09-22T08:34:15Z</time>
   </trkpt>
   <trkpt lat="22.7228380" lon="120.3486340">
    <ele>22.0</ele>
    <time>2026-09-22T08:34:16Z</time>
   </trkpt>
   <trkpt lat="22.7228720" lon="120.3486120">
    <ele>22.0</ele>
    <time>2026-09-22T08:34:17Z</time>
   </trkpt>
   <trkpt lat="22.7229140" lon="120.3485870">
    <ele>22.0</ele>
    <time>2026-09-22T08:34:18Z</time>
   </trkpt>
   <trkpt lat="22.7229280" lon="120.3485580">
    <ele>22.0</ele>
    <time>2026-09-22T08:34:19Z</time>
   </trkpt>
   <trkpt lat="22.7229670" lon="120.3485260">
    <ele>21.8</ele>
    <time>2026-09-22T08:34:20Z</time>
   </trkpt>
   <trkpt lat="22.7229980" lon="120.3484930">
    <ele>21.7</ele>
    <time>2026-09-22T08:34:21Z</time>
   </trkpt>
   <trkpt lat="22.7230190" lon="120.3484660">
    <ele>21.5</ele>
    <time>2026-09-22T08:34:22Z</time>
   </trkpt>
   <trkpt lat="22.7230410" lon="120.3484430">
    <ele>21.4</ele>
    <time>2026-09-22T08:34:23Z</time>
   </trkpt>
   <trkpt lat="22.7230680" lon="120.3484210">
    <ele>21.3</ele>
    <time>2026-09-22T08:34:24Z</time>
   </trkpt>
   <trkpt lat="22.7231060" lon="120.3484050">
    <ele>21.3</ele>
    <time>2026-09-22T08:34:25Z</time>
   </trkpt>
   <trkpt lat="22.7231520" lon="120.3483970">
    <ele>21.4</ele>
    <time>2026-09-22T08:34:26Z</time>
   </trkpt>
   <trkpt lat="22.7232060" lon="120.3483940">
    <ele>21.4</ele>
    <time>2026-09-22T08:34:27Z</time>
   </trkpt>
   <trkpt lat="22.7232570" lon="120.3483850">
    <ele>21.5</ele>
    <time>2026-09-22T08:34:28Z</time>
   </trkpt>
   <trkpt lat="22.7232940" lon="120.3483650">
    <ele>21.5</ele>
    <time>2026-09-22T08:34:30Z</time>
   </trkpt>
   <trkpt lat="22.7233440" lon="120.3483360">
    <ele>21.5</ele>
    <time>2026-09-22T08:34:31Z</time>
   </trkpt>
   <trkpt lat="22.7233900" lon="120.3483270">
    <ele>21.6</ele>
    <time>2026-09-22T08:34:32Z</time>
   </trkpt>
   <trkpt lat="22.7234380" lon="120.3483140">
    <ele>21.7</ele>
    <time>2026-09-22T08:34:33Z</time>
   </trkpt>
   <trkpt lat="22.7234860" lon="120.3483050">
    <ele>21.7</ele>
    <time>2026-09-22T08:34:34Z</time>
   </trkpt>
   <trkpt lat="22.7235340" lon="120.3482900">
    <ele>21.8</ele>
    <time>2026-09-22T08:34:35Z</time>
   </trkpt>
   <trkpt lat="22.7235790" lon="120.3482760">
    <ele>21.9</ele>
    <time>2026-09-22T08:34:36Z</time>
   </trkpt>
   <trkpt lat="22.7236390" lon="120.3482610">
    <ele>21.9</ele>
    <time>2026-09-22T08:34:37Z</time>
   </trkpt>
   <trkpt lat="22.7236920" lon="120.3482460">
    <ele>22.0</ele>
    <time>2026-09-22T08:34:38Z</time>
   </trkpt>
   <trkpt lat="22.7237470" lon="120.3482330">
    <ele>22.0</ele>
    <time>2026-09-22T08:34:39Z</time>
   </trkpt>
   <trkpt lat="22.7238040" lon="120.3482210">
    <ele>22.0</ele>
    <time>2026-09-22T08:34:40Z</time>
   </trkpt>
   <trkpt lat="22.7238590" lon="120.3482020">
    <ele>22.0</ele>
    <time>2026-09-22T08:34:41Z</time>
   </trkpt>
   <trkpt lat="22.7239180" lon="120.3481880">
    <ele>21.9</ele>
    <time>2026-09-22T08:34:42Z</time>
   </trkpt>
   <trkpt lat="22.7239810" lon="120.3481700">
    <ele>21.9</ele>
    <time>2026-09-22T08:34:43Z</time>
   </trkpt>
   <trkpt lat="22.7240450" lon="120.3481540">
    <ele>21.9</ele>
    <time>2026-09-22T08:34:44Z</time>
   </trkpt>
   <trkpt lat="22.7241110" lon="120.3481360">
    <ele>21.9</ele>
    <time>2026-09-22T08:34:45Z</time>
   </trkpt>
   <trkpt lat="22.7241770" lon="120.3481170">
    <ele>21.9</ele>
    <time>2026-09-22T08:34:46Z</time>
   </trkpt>
   <trkpt lat="22.7242380" lon="120.3481040">
    <ele>22.0</ele>
    <time>2026-09-22T08:34:47Z</time>
   </trkpt>
   <trkpt lat="22.7242910" lon="120.3480730">
    <ele>22.0</ele>
    <time>2026-09-22T08:34:48Z</time>
   </trkpt>
   <trkpt lat="22.7243600" lon="120.3480510">
    <ele>21.9</ele>
    <time>2026-09-22T08:34:49Z</time>
   </trkpt>
   <trkpt lat="22.7244130" lon="120.3480310">
    <ele>21.9</ele>
    <time>2026-09-22T08:34:50Z</time>
   </trkpt>
   <trkpt lat="22.7244610" lon="120.3480270">
    <ele>21.8</ele>
    <time>2026-09-22T08:34:51Z</time>
   </trkpt>
   <trkpt lat="22.7245050" lon="120.3480120">
    <ele>21.8</ele>
    <time>2026-09-22T08:34:52Z</time>
   </trkpt>
   <trkpt lat="22.7245530" lon="120.3480020">
    <ele>21.7</ele>
    <time>2026-09-22T08:34:53Z</time>
   </trkpt>
   <trkpt lat="22.7246090" lon="120.3479800">
    <ele>21.7</ele>
    <time>2026-09-22T08:34:54Z</time>
   </trkpt>
   <trkpt lat="22.7246580" lon="120.3479620">
    <ele>21.6</ele>
    <time>2026-09-22T08:34:55Z</time>
   </trkpt>
   <trkpt lat="22.7247050" lon="120.3479430">
    <ele>21.6</ele>
    <time>2026-09-22T08:34:56Z</time>
   </trkpt>
   <trkpt lat="22.7247560" lon="120.3479220">
    <ele>21.6</ele>
    <time>2026-09-22T08:34:57Z</time>
   </trkpt>
   <trkpt lat="22.7248040" lon="120.3479080">
    <ele>21.5</ele>
    <time>2026-09-22T08:34:58Z</time>
   </trkpt>
   <trkpt lat="22.7248730" lon="120.3478990">
    <ele>21.6</ele>
    <time>2026-09-22T08:34:59Z</time>
   </trkpt>
   <trkpt lat="22.7249160" lon="120.3478820">
    <ele>21.6</ele>
    <time>2026-09-22T08:35:00Z</time>
   </trkpt>
   <trkpt lat="22.7249450" lon="120.3478760">
    <ele>21.6</ele>
    <time>2026-09-22T08:35:01Z</time>
   </trkpt>
   <trkpt lat="22.7249450" lon="120.3478760">
    <ele>21.6</ele>
    <time>2026-09-22T08:35:02Z</time>
   </trkpt>
   <trkpt lat="22.7249450" lon="120.3478760">
    <ele>21.6</ele>
    <time>2026-09-22T08:35:03Z</time>
   </trkpt>
   <trkpt lat="22.7249450" lon="120.3478760">
    <ele>21.6</ele>
    <time>2026-09-22T08:35:04Z</time>
   </trkpt>
   <trkpt lat="22.7249660" lon="120.3478800">
    <ele>21.6</ele>
    <time>2026-09-22T08:35:05Z</time>
   </trkpt>
   <trkpt lat="22.7249660" lon="120.3478800">
    <ele>21.6</ele>
    <time>2026-09-22T08:35:06Z</time>
   </trkpt>
   <trkpt lat="22.7249660" lon="120.3478800">
    <ele>21.6</ele>
    <time>2026-09-22T08:35:07Z</time>
   </trkpt>
   <trkpt lat="22.7249660" lon="120.3478800">
    <ele>21.6</ele>
    <time>2026-09-22T08:35:08Z</time>
   </trkpt>
   <trkpt lat="22.7249850" lon="120.3478830">
    <ele>21.6</ele>
    <time>2026-09-22T08:35:09Z</time>
   </trkpt>
   <trkpt lat="22.7249870" lon="120.3478830">
    <ele>21.6</ele>
    <time>2026-09-22T08:35:10Z</time>
   </trkpt>
   <trkpt lat="22.7249900" lon="120.3478840">
    <ele>21.6</ele>
    <time>2026-09-22T08:35:11Z</time>
   </trkpt>
   <trkpt lat="22.7249930" lon="120.3478840">
    <ele>21.6</ele>
    <time>2026-09-22T08:35:12Z</time>
   </trkpt>
   <trkpt lat="22.7249960" lon="120.3478850">
    <ele>21.6</ele>
    <time>2026-09-22T08:35:13Z</time>
   </trkpt>
   <trkpt lat="22.7250240" lon="120.3478900">
    <ele>21.7</ele>
    <time>2026-09-22T08:35:23Z</time>
   </trkpt>
   <trkpt lat="22.7250270" lon="120.3478900">
    <ele>21.7</ele>
    <time>2026-09-22T08:35:24Z</time>
   </trkpt>
   <trkpt lat="22.7250450" lon="120.3479460">
    <ele>21.7</ele>
    <time>2026-09-22T08:35:25Z</time>
   </trkpt>
   <trkpt lat="22.7250510" lon="120.3480050">
    <ele>21.7</ele>
    <time>2026-09-22T08:35:26Z</time>
   </trkpt>
   <trkpt lat="22.7250520" lon="120.3480530">
    <ele>21.8</ele>
    <time>2026-09-22T08:35:27Z</time>
   </trkpt>
   <trkpt lat="22.7250300" lon="120.3481180">
    <ele>21.8</ele>
    <time>2026-09-22T08:35:28Z</time>
   </trkpt>
   <trkpt lat="22.7250550" lon="120.3481720">
    <ele>21.8</ele>
    <time>2026-09-22T08:35:29Z</time>
   </trkpt>
   <trkpt lat="22.7250700" lon="120.3482200">
    <ele>21.8</ele>
    <time>2026-09-22T08:35:30Z</time>
   </trkpt>
   <trkpt lat="22.7250760" lon="120.3482660">
    <ele>21.8</ele>
    <time>2026-09-22T08:35:31Z</time>
   </trkpt>
   <trkpt lat="22.7250780" lon="120.3482970">
    <ele>21.8</ele>
    <time>2026-09-22T08:35:32Z</time>
   </trkpt>
   <trkpt lat="22.7250760" lon="120.3483270">
    <ele>21.8</ele>
    <time>2026-09-22T08:35:33Z</time>
   </trkpt>
   <trkpt lat="22.7250870" lon="120.3483610">
    <ele>21.8</ele>
    <time>2026-09-22T08:35:34Z</time>
   </trkpt>
   <trkpt lat="22.7251040" lon="120.3483910">
    <ele>21.9</ele>
    <time>2026-09-22T08:35:35Z</time>
   </trkpt>
   <trkpt lat="22.7251060" lon="120.3484150">
    <ele>21.9</ele>
    <time>2026-09-22T08:35:36Z</time>
   </trkpt>
   <trkpt lat="22.7251200" lon="120.3484370">
    <ele>21.9</ele>
    <time>2026-09-22T08:35:37Z</time>
   </trkpt>
   <trkpt lat="22.7251290" lon="120.3484590">
    <ele>21.9</ele>
    <time>2026-09-22T08:35:38Z</time>
   </trkpt>
   <trkpt lat="22.7251360" lon="120.3484880">
    <ele>21.9</ele>
    <time>2026-09-22T08:35:39Z</time>
   </trkpt>
   <trkpt lat="22.7251380" lon="120.3485020">
    <ele>21.9</ele>
    <time>2026-09-22T08:35:40Z</time>
   </trkpt>
   <trkpt lat="22.7251400" lon="120.3485200">
    <ele>21.9</ele>
    <time>2026-09-22T08:35:41Z</time>
   </trkpt>
   <trkpt lat="22.7251390" lon="120.3485360">
    <ele>21.9</ele>
    <time>2026-09-22T08:35:42Z</time>
   </trkpt>
   <trkpt lat="22.7251390" lon="120.3485430">
    <ele>21.9</ele>
    <time>2026-09-22T08:35:43Z</time>
   </trkpt>
   <trkpt lat="22.7251390" lon="120.3485500">
    <ele>21.9</ele>
    <time>2026-09-22T08:35:44Z</time>
   </trkpt>
   <trkpt lat="22.7251390" lon="120.3485480">
    <ele>21.9</ele>
    <time>2026-09-22T08:35:45Z</time>
   </trkpt>
   <trkpt lat="22.7251390" lon="120.3485480">
    <ele>21.9</ele>
    <time>2026-09-22T08:35:46Z</time>
   </trkpt>
   <trkpt lat="22.7251390" lon="120.3485480">
    <ele>21.9</ele>
    <time>2026-09-22T08:35:47Z</time>
   </trkpt>
   <trkpt lat="22.7251430" lon="120.3485740">
    <ele>21.9</ele>
    <time>2026-09-22T08:35:48Z</time>
   </trkpt>
   <trkpt lat="22.7251430" lon="120.3485740">
    <ele>21.9</ele>
    <time>2026-09-22T08:35:49Z</time>
   </trkpt>
   <trkpt lat="22.7251420" lon="120.3485940">
    <ele>21.9</ele>
    <time>2026-09-22T08:35:50Z</time>
   </trkpt>
   <trkpt lat="22.7251360" lon="120.3486110">
    <ele>21.8</ele>
    <time>2026-09-22T08:35:51Z</time>
   </trkpt>
   <trkpt lat="22.7251400" lon="120.3486520">
    <ele>21.8</ele>
    <time>2026-09-22T08:35:52Z</time>
   </trkpt>
   <trkpt lat="22.7251480" lon="120.3487100">
    <ele>22.0</ele>
    <time>2026-09-22T08:35:53Z</time>
   </trkpt>
   <trkpt lat="22.7251560" lon="120.3487710">
    <ele>22.1</ele>
    <time>2026-09-22T08:35:54Z</time>
   </trkpt>
   <trkpt lat="22.7251610" lon="120.3488360">
    <ele>22.3</ele>
    <time>2026-09-22T08:35:55Z</time>
   </trkpt>
   <trkpt lat="22.7251730" lon="120.3489240">
    <ele>22.6</ele>
    <time>2026-09-22T08:35:56Z</time>
   </trkpt>
   <trkpt lat="22.7251880" lon="120.3490080">
    <ele>22.8</ele>
    <time>2026-09-22T08:35:57Z</time>
   </trkpt>
   <trkpt lat="22.7251930" lon="120.3490840">
    <ele>22.9</ele>
    <time>2026-09-22T08:35:58Z</time>
   </trkpt>
   <trkpt lat="22.7251910" lon="120.3491500">
    <ele>23.0</ele>
    <time>2026-09-22T08:35:59Z</time>
   </trkpt>
   <trkpt lat="22.7251940" lon="120.3492090">
    <ele>23.0</ele>
    <time>2026-09-22T08:36:00Z</time>
   </trkpt>
   <trkpt lat="22.7251960" lon="120.3492610">
    <ele>23.1</ele>
    <time>2026-09-22T08:36:01Z</time>
   </trkpt>
   <trkpt lat="22.7251940" lon="120.3493080">
    <ele>23.2</ele>
    <time>2026-09-22T08:36:02Z</time>
   </trkpt>
   <trkpt lat="22.7251910" lon="120.3493530">
    <ele>23.2</ele>
    <time>2026-09-22T08:36:03Z</time>
   </trkpt>
   <trkpt lat="22.7251910" lon="120.3494040">
    <ele>23.3</ele>
    <time>2026-09-22T08:36:04Z</time>
   </trkpt>
   <trkpt lat="22.7251840" lon="120.3494510">
    <ele>23.3</ele>
    <time>2026-09-22T08:36:05Z</time>
   </trkpt>
   <trkpt lat="22.7251810" lon="120.3495130">
    <ele>23.3</ele>
    <time>2026-09-22T08:36:06Z</time>
   </trkpt>
   <trkpt lat="22.7251810" lon="120.3495820">
    <ele>23.3</ele>
    <time>2026-09-22T08:36:07Z</time>
   </trkpt>
   <trkpt lat="22.7251830" lon="120.3496530">
    <ele>23.3</ele>
    <time>2026-09-22T08:36:08Z</time>
   </trkpt>
   <trkpt lat="22.7251800" lon="120.3497180">
    <ele>23.3</ele>
    <time>2026-09-22T08:36:09Z</time>
   </trkpt>
   <trkpt lat="22.7251760" lon="120.3497840">
    <ele>23.3</ele>
    <time>2026-09-22T08:36:10Z</time>
   </trkpt>
   <trkpt lat="22.7251940" lon="120.3498430">
    <ele>23.3</ele>
    <time>2026-09-22T08:36:11Z</time>
   </trkpt>
   <trkpt lat="22.7252070" lon="120.3498960">
    <ele>23.3</ele>
    <time>2026-09-22T08:36:12Z</time>
   </trkpt>
   <trkpt lat="22.7252030" lon="120.3499460">
    <ele>23.4</ele>
    <time>2026-09-22T08:36:13Z</time>
   </trkpt>
   <trkpt lat="22.7252150" lon="120.3499920">
    <ele>23.4</ele>
    <time>2026-09-22T08:36:14Z</time>
   </trkpt>
   <trkpt lat="22.7252040" lon="120.3500030">
    <ele>23.4</ele>
    <time>2026-09-22T08:36:15Z</time>
   </trkpt>
   <trkpt lat="22.7252200" lon="120.3500360">
    <ele>23.4</ele>
    <time>2026-09-22T08:36:16Z</time>
   </trkpt>
   <trkpt lat="22.7252280" lon="120.3500600">
    <ele>23.4</ele>
    <time>2026-09-22T08:36:17Z</time>
   </trkpt>
   <trkpt lat="22.7252240" lon="120.3500740">
    <ele>23.4</ele>
    <time>2026-09-22T08:36:19Z</time>
   </trkpt>
   <trkpt lat="22.7252230" lon="120.3500840">
    <ele>23.4</ele>
    <time>2026-09-22T08:36:20Z</time>
   </trkpt>
   <trkpt lat="22.7252220" lon="120.3500800">
    <ele>23.4</ele>
    <time>2026-09-22T08:36:21Z</time>
   </trkpt>
   <trkpt lat="22.7252370" lon="120.3500830">
    <ele>23.4</ele>
    <time>2026-09-22T08:36:22Z</time>
   </trkpt>
   <trkpt lat="22.7252390" lon="120.3500830">
    <ele>23.4</ele>
    <time>2026-09-22T08:36:23Z</time>
   </trkpt>
   <trkpt lat="22.7252390" lon="120.3500830">
    <ele>23.4</ele>
    <time>2026-09-22T08:36:24Z</time>
   </trkpt>
   <trkpt lat="22.7252400" lon="120.3500820">
    <ele>23.4</ele>
    <time>2026-09-22T08:36:25Z</time>
   </trkpt>
   <trkpt lat="22.7252400" lon="120.3500820">
    <ele>23.4</ele>
    <time>2026-09-22T08:36:26Z</time>
   </trkpt>
   <trkpt lat="22.7252400" lon="120.3500820">
    <ele>23.4</ele>
    <time>2026-09-22T08:36:27Z</time>
   </trkpt>
   <trkpt lat="22.7252540" lon="120.3500810">
    <ele>23.4</ele>
    <time>2026-09-22T08:36:28Z</time>
   </trkpt>
   <trkpt lat="22.7252540" lon="120.3500810">
    <ele>23.4</ele>
    <time>2026-09-22T08:36:29Z</time>
   </trkpt>
   <trkpt lat="22.7252480" lon="120.3500780">
    <ele>23.4</ele>
    <time>2026-09-22T08:36:30Z</time>
   </trkpt>
  </trkseg>
 </trk>
</gpx>
