<?xml version="1.0" encoding="UTF-8"?>
<gpx creator="StravaGPX" version="1.1" xmlns="http://www.topografix.com/GPX/1/1" xmlns:xsi="http://www.w3.org/2001/XMLSchema-instance" xsi:schemaLocation="http://www.topografix.com/GPX/1/1 http://www.topografix.com/GPX/1/1/gpx.xsd">
 <metadata>
  <time>2026-09-22T13:44:44Z</time>
 </metadata>
 <trk>
  <name>0922_Justin</name>
  <type>running</type>
  <trkseg>
   <trkpt lat="22.7510440" lon="120.3300010">
    <ele>16.4</ele>
    <time>2026-09-22T13:44:44Z</time>
   </trkpt>
   <trkpt lat="22.7510230" lon="120.3300020">
    <ele>16.4</ele>
    <time>2026-09-22T13:44:45Z</time>
   </trkpt>
   <trkpt lat="22.7509970" lon="120.3300060">
    <ele>16.3</ele>
    <time>2026-09-22T13:44:46Z</time>
   </trkpt>
   <trkpt lat="22.7509670" lon="120.3300100">
    <ele>16.3</ele>
    <time>2026-09-22T13:44:47Z</time>
   </trkpt>
   <trkpt lat="22.7509440" lon="120.3300090">
    <ele>16.3</ele>
    <time>2026-09-22T13:44:48Z</time>
   </trkpt>
   <trkpt lat="22.7509190" lon="120.3300100">
    <ele>16.3</ele>
    <time>2026-09-22T13:44:49Z</time>
   </trkpt>
   <trkpt lat="22.7508870" lon="120.3300130">
    <ele>16.3</ele>
    <time>2026-09-22T13:44:50Z</time>
   </trkpt>
   <trkpt lat="22.7508540" lon="120.3300110">
    <ele>16.3</ele>
    <time>2026-09-22T13:44:51Z</time>
   </trkpt>
   <trkpt lat="22.7508270" lon="120.3299970">
    <ele>16.3</ele>
    <time>2026-09-22T13:44:52Z</time>
   </trkpt>
   <trkpt lat="22.7507990" lon="120.3299700">
    <ele>16.3</ele>
    <time>2026-09-22T13:44:53Z</time>
   </trkpt>
   <trkpt lat="22.7507760" lon="120.3299380">
    <ele>16.2</ele>
    <time>2026-09-22T13:44:54Z</time>
   </trkpt>
   <trkpt lat="22.7507490" lon="120.3298510">
    <ele>16.2</ele>
    <time>2026-09-22T13:44:56Z</time>
   </trkpt>
   <trkpt lat="22.7507440" lon="120.3297980">
    <ele>16.1</ele>
    <time>2026-09-22T13:44:57Z</time>
   </trkpt>
   <trkpt lat="22.7507450" lon="120.3297440">
    <ele>16.0</ele>
    <time>2026-09-22T13:44:58Z</time>
   </trkpt>
   <trkpt lat="22.7507390" lon="120.3296810">
    <ele>16.0</ele>
    <time>2026-09-22T13:44:59Z</time>
   </trkpt>
   <trkpt lat="22.7507340" lon="120.3296300">
    <ele>16.0</ele>
    <time>2026-09-22T13:45:00Z</time>
   </trkpt>
   <trkpt lat="22.7507300" lon="120.3295860">
    <ele>16.0</ele>
    <time>2026-09-22T13:45:01Z</time>
   </trkpt>
   <trkpt lat="22.7507290" lon="120.3295440">
    <ele>15.9</ele>
    <time>2026-09-22T13:45:02Z</time>
   </trkpt>
   <trkpt lat="22.7507300" lon="120.3295010">
    <ele>15.9</ele>
    <time>2026-09-22T13:45:03Z</time>
   </trkpt>
   <trkpt lat="22.7507290" lon="120.3294430">
    <ele>15.9</ele>
    <time>2026-09-22T13:45:04Z</time>
   </trkpt>
   <trkpt lat="22.7507280" lon="120.3293920">
    <ele>15.9</ele>
    <time>2026-09-22T13:45:05Z</time>
   </trkpt>
   <trkpt lat="22.7507250" lon="120.3292800">
    <ele>15.8</ele>
    <time>2026-09-22T13:45:07Z</time>
   </trkpt>
   <trkpt lat="22.7507250" lon="120.3292210">
    <ele>15.8</ele>
    <time>2026-09-22T13:45:08Z</time>
   </trkpt>
   <trkpt lat="22.7507240" lon="120.3291620">
    <ele>15.8</ele>
    <time>2026-09-22T13:45:09Z</time>
   </trkpt>
   <trkpt lat="22.7507230" lon="120.3290940">
    <ele>15.8</ele>
    <time>2026-09-22T13:45:10Z</time>
   </trkpt>
   <trkpt lat="22.7507230" lon="120.3290250">
    <ele>15.8</ele>
    <time>2026-09-22T13:45:11Z</time>
   </trkpt>
   <trkpt lat="22.7507250" lon="120.3289510">
    <ele>15.8</ele>
    <time>2026-09-22T13:45:12Z</time>
   </trkpt>
   <trkpt lat="22.7507260" lon="120.3288790">
    <ele>15.9</ele>
    <time>2026-09-22T13:45:13Z</time>
   </trkpt>
   <trkpt lat="22.7507330" lon="120.3288120">
    <ele>15.9</ele>
    <time>2026-09-22T13:45:14Z</time>
   </trkpt>
   <trkpt lat="22.7507360" lon="120.3287440">
    <ele>15.9</ele>
    <time>2026-09-22T13:45:15Z</time>
   </trkpt>
   <trkpt lat="22.7507320" lon="120.3286790">
    <ele>15.8</ele>
    <time>2026-09-22T13:45:16Z</time>
   </trkpt>
   <trkpt lat="22.7507220" lon="120.3286030">
    <ele>15.7</ele>
    <time>2026-09-22T13:45:17Z</time>
   </trkpt>
   <trkpt lat="22.7507190" lon="120.3285250">
    <ele>15.5</ele>
    <time>2026-09-22T13:45:18Z</time>
   </trkpt>
   <trkpt lat="22.7507180" lon="120.3284460">
    <ele>15.4</ele>
    <time>2026-09-22T13:45:19Z</time>
   </trkpt>
   <trkpt lat="22.7507170" lon="120.3283720">
    <ele>15.2</ele>
    <time>2026-09-22T13:45:20Z</time>
   </trkpt>
   <trkpt lat="22.7507200" lon="120.3282960">
    <ele>15.1</ele>
    <time>2026-09-22T13:45:21Z</time>
   </trkpt>
   <trkpt lat="22.7507200" lon="120.3282140">
    <ele>15.0</ele>
    <time>2026-09-22T13:45:22Z</time>
   </trkpt>
   <trkpt lat="22.7507200" lon="120.3281320">
    <ele>14.8</ele>
    <time>2026-09-22T13:45:23Z</time>
   </trkpt>
   <trkpt lat="22.7507160" lon="120.3280590">
    <ele>14.7</ele>
    <time>2026-09-22T13:45:24Z</time>
   </trkpt>
   <trkpt lat="22.7507150" lon="120.3279870">
    <ele>14.6</ele>
    <time>2026-09-22T13:45:25Z</time>
   </trkpt>
   <trkpt lat="22.7507080" lon="120.3279190">
    <ele>14.5</ele>
    <time>2026-09-22T13:45:26Z</time>
   </trkpt>
   <trkpt lat="22.7507070" lon="120.3278480">
    <ele>14.4</ele>
    <time>2026-09-22T13:45:27Z</time>
   </trkpt>
   <trkpt lat="22.7507090" lon="120.3277780">
    <ele>14.4</ele>
    <time>2026-09-22T13:45:28Z</time>
   </trkpt>
   <trkpt lat="22.7507040" lon="120.3277030">
    <ele>14.3</ele>
    <time>2026-09-22T13:45:29Z</time>
   </trkpt>
   <trkpt lat="22.7507000" lon="120.3276300">
    <ele>14.2</ele>
    <time>2026-09-22T13:45:30Z</time>
   </trkpt>
   <trkpt lat="22.7507010" lon="120.3275750">
    <ele>14.2</ele>
    <time>2026-09-22T13:45:31Z</time>
   </trkpt>
   <trkpt lat="22.7506960" lon="120.3275150">
    <ele>14.1</ele>
    <time>2026-09-22T13:45:32Z</time>
   </trkpt>
   <trkpt lat="22.7506990" lon="120.3274500">
    <ele>14.1</ele>
    <time>2026-09-22T13:45:33Z</time>
   </trkpt>
   <trkpt lat="22.7506990" lon="120.3273750">
    <ele>14.0</ele>
    <time>2026-09-22T13:45:34Z</time>
   </trkpt>
   <trkpt lat="22.7507040" lon="120.3272960">
    <ele>13.4</ele>
    <time>2026-09-22T13:45:35Z</time>
   </trkpt>
   <trkpt lat="22.7507070" lon="120.3272160">
    <ele>12.8</ele>
    <time>2026-09-22T13:45:36Z</time>
   </trkpt>
   <trkpt lat="22.7507070" lon="120.3271300">
    <ele>12.2</ele>
    <time>2026-09-22T13:45:37Z</time>
   </trkpt>
   <trkpt lat="22.7507070" lon="120.3270450">
    <ele>11.7</ele>
    <time>2026-09-22T13:45:38Z</time>
   </trkpt>
   <trkpt lat="22.7507120" lon="120.3269730">
    <ele>11.2</ele>
    <time>2026-09-22T13:45:39Z</time>
   </trkpt>
   <trkpt lat="22.7507100" lon="120.3268950">
    <ele>11.3</ele>
    <time>2026-09-22T13:45:40Z</time>
   </trkpt>
   <trkpt lat="22.7506990" lon="120.3268140">
    <ele>11.6</ele>
    <time>2026-09-22T13:45:41Z</time>
   </trkpt>
   <trkpt lat="22.7506950" lon="120.3267390">
    <ele>11.9</ele>
    <time>2026-09-22T13:45:42Z</time>
   </trkpt>
   <trkpt lat="22.7506990" lon="120.3266650">
    <ele>12.1</ele>
    <time>2026-09-22T13:45:43Z</time>
   </trkpt>
   <trkpt lat="22.7506980" lon="120.3265940">
    <ele>12.4</ele>
    <time>2026-09-22T13:45:44Z</time>
   </trkpt>
   <trkpt lat="22.7506960" lon="120.3265290">
    <ele>12.6</ele>
    <time>2026-09-22T13:45:45Z</time>
   </trkpt>
   <trkpt lat="22.7506910" lon="120.3264570">
    <ele>12.8</ele>
    <time>2026-09-22T13:45:46Z</time>
   </trkpt>
   <trkpt lat="22.7506910" lon="120.3263840">
    <ele>13.1</ele>
    <time>2026-09-22T13:45:47Z</time>
   </trkpt>
   <trkpt lat="22.7506950" lon="120.3263230">
    <ele>13.3</ele>
    <time>2026-09-22T13:45:48Z</time>
   </trkpt>
   <trkpt lat="22.7507150" lon="120.3262730">
    <ele>13.5</ele>
    <time>2026-09-22T13:45:49Z</time>
   </trkpt>
   <trkpt lat="22.7507460" lon="120.3262250">
    <ele>13.6</ele>
    <time>2026-09-22T13:45:50Z</time>
   </trkpt>
   <trkpt lat="22.7508040" lon="120.3261910">
    <ele>13.7</ele>
    <time>2026-09-22T13:45:51Z</time>
   </trkpt>
   <trkpt lat="22.7508600" lon="120.3261850">
    <ele>13.7</ele>
    <time>2026-09-22T13:45:52Z</time>
   </trkpt>
   <trkpt lat="22.7509280" lon="120.3261880">
    <ele>13.7</ele>
    <time>2026-09-22T13:45:53Z</time>
   </trkpt>
   <trkpt lat="22.7509910" lon="120.3261930">
    <ele>13.7</ele>
    <time>2026-09-22T13:45:54Z</time>
   </trkpt>
   <trkpt lat="22.7510680" lon="120.3261950">
    <ele>13.7</ele>
    <time>2026-09-22T13:45:55Z</time>
   </trkpt>
   <trkpt lat="22.7511460" lon="120.3261960">
    <ele>13.8</ele>
    <time>2026-09-22T13:45:56Z</time>
   </trkpt>
   <trkpt lat="22.7512280" lon="120.3261970">
    <ele>13.8</ele>
    <time>2026-09-22T13:45:57Z</time>
   </trkpt>
   <trkpt lat="22.7512980" lon="120.3262010">
    <ele>13.8</ele>
    <time>2026-09-22T13:45:58Z</time>
   </trkpt>
   <trkpt lat="22.7513680" lon="120.3262030">
    <ele>13.9</ele>
    <time>2026-09-22T13:45:59Z</time>
   </trkpt>
   <trkpt lat="22.7514380" lon="120.3262100">
    <ele>13.9</ele>
    <time>2026-09-22T13:46:00Z</time>
   </trkpt>
   <trkpt lat="22.7515050" lon="120.3262210">
    <ele>13.9</ele>
    <time>2026-09-22T13:46:01Z</time>
   </trkpt>
   <trkpt lat="22.7515500" lon="120.3262440">
    <ele>13.9</ele>
    <time>2026-09-22T13:46:02Z</time>
   </trkpt>
   <trkpt lat="22.7515810" lon="120.3262830">
    <ele>13.9</ele>
    <time>2026-09-22T13:46:03Z</time>
   </trkpt>
   <trkpt lat="22.7516030" lon="120.3263440">
    <ele>14.0</ele>
    <time>2026-09-22T13:46:04Z</time>
   </trkpt>
   <trkpt lat="22.7516120" lon="120.3264110">
    <ele>14.0</ele>
    <time>2026-09-22T13:46:05Z</time>
   </trkpt>
   <trkpt lat="22.7516110" lon="120.3264910">
    <ele>14.1</ele>
    <time>2026-09-22T13:46:06Z</time>
   </trkpt>
   <trkpt lat="22.7516140" lon="120.3265690">
    <ele>14.2</ele>
    <time>2026-09-22T13:46:07Z</time>
   </trkpt>
   <trkpt lat="22.7516190" lon="120.3266390">
    <ele>14.3</ele>
    <time>2026-09-22T13:46:08Z</time>
   </trkpt>
   <trkpt lat="22.7516250" lon="120.3267130">
    <ele>14.4</ele>
    <time>2026-09-22T13:46:09Z</time>
   </trkpt>
   <trkpt lat="22.7516240" lon="120.3267770">
    <ele>14.4</ele>
    <time>2026-09-22T13:46:10Z</time>
   </trkpt>
   <trkpt lat="22.7516260" lon="120.3268350">
    <ele>14.5</ele>
    <time>2026-09-22T13:46:11Z</time>
   </trkpt>
   <trkpt lat="22.7516290" lon="120.3268880">
    <ele>14.5</ele>
    <time>2026-09-22T13:46:12Z</time>
   </trkpt>
   <trkpt lat="22.7516310" lon="120.3269480">
    <ele>14.6</ele>
    <time>2026-09-22T13:46:13Z</time>
   </trkpt>
   <trkpt lat="22.7516280" lon="120.3270120">
    <ele>14.7</ele>
    <time>2026-09-22T13:46:14Z</time>
   </trkpt>
   <trkpt lat="22.7516250" lon="120.3270720">
    <ele>14.7</ele>
    <time>2026-09-22T13:46:15Z</time>
   </trkpt>
   <trkpt lat="22.7516210" lon="120.3271310">
    <ele>14.8</ele>
    <time>2026-09-22T13:46:16Z</time>
   </trkpt>
   <trkpt lat="22.7516170" lon="120.3271930">
    <ele>14.8</ele>
    <time>2026-09-22T13:46:17Z</time>
   </trkpt>
   <trkpt lat="22.7516110" lon="120.3272470">
    <ele>14.9</ele>
    <time>2026-09-22T13:46:18Z</time>
   </trkpt>
   <trkpt lat="22.7515960" lon="120.3272980">
    <ele>14.9</ele>
    <time>2026-09-22T13:46:19Z</time>
   </trkpt>
   <trkpt lat="22.7515690" lon="120.3273420">
    <ele>15.0</ele>
    <time>2026-09-22T13:46:20Z</time>
   </trkpt>
   <trkpt lat="22.7515340" lon="120.3273790">
    <ele>15.0</ele>
    <time>2026-09-22T13:46:21Z</time>
   </trkpt>
   <trkpt lat="22.7514840" lon="120.3274030">
    <ele>15.0</ele>
    <time>2026-09-22T13:46:22Z</time>
   </trkpt>
   <trkpt lat="22.7514220" lon="120.3274140">
    <ele>14.9</ele>
    <time>2026-09-22T13:46:23Z</time>
   </trkpt>
   <trkpt lat="22.7513600" lon="120.3274180">
    <ele>14.9</ele>
    <time>2026-09-22T13:46:24Z</time>
   </trkpt>
   <trkpt lat="22.7512940" lon="120.3274260">
    <ele>14.8</ele>
    <time>2026-09-22T13:46:25Z</time>
   </trkpt>
   <trkpt lat="22.7512230" lon="120.3274290">
    <ele>14.8</ele>
    <time>2026-09-22T13:46:26Z</time>
   </trkpt>
   <trkpt lat="22.7511500" lon="120.3274290">
    <ele>14.7</ele>
    <time>2026-09-22T13:46:27Z</time>
   </trkpt>
   <trkpt lat="22.7510750" lon="120.3274260">
    <ele>14.6</ele>
    <time>2026-09-22T13:46:28Z</time>
   </trkpt>
   <trkpt lat="22.7510000" lon="120.3274250">
    <ele>14.5</ele>
    <time>2026-09-22T13:46:29Z</time>
   </trkpt>
   <trkpt lat="22.7509240" lon="120.3274240">
    <ele>14.4</ele>
    <time>2026-09-22T13:46:30Z</time>
   </trkpt>
   <trkpt lat="22.7508520" lon="120.3274210">
    <ele>14.3</ele>
    <time>2026-09-22T13:46:31Z</time>
   </trkpt>
   <trkpt lat="22.7507910" lon="120.3274200">
    <ele>14.2</ele>
    <time>2026-09-22T13:46:32Z</time>
   </trkpt>
   <trkpt lat="22.7507310" lon="120.3274240">
    <ele>14.2</ele>
    <time>2026-09-22T13:46:33Z</time>
   </trkpt>
   <trkpt lat="22.7506750" lon="120.3274260">
    <ele>14.1</ele>
    <time>2026-09-22T13:46:34Z</time>
   </trkpt>
   <trkpt lat="22.7506100" lon="120.3274370">
    <ele>14.1</ele>
    <time>2026-09-22T13:46:35Z</time>
   </trkpt>
   <trkpt lat="22.7505450" lon="120.3274440">
    <ele>14.1</ele>
    <time>2026-09-22T13:46:36Z</time>
   </trkpt>
   <trkpt lat="22.7504780" lon="120.3274460">
    <ele>14.1</ele>
    <time>2026-09-22T13:46:37Z</time>
   </trkpt>
   <trkpt lat="22.7504140" lon="120.3274460">
    <ele>14.1</ele>
    <time>2026-09-22T13:46:38Z</time>
   </trkpt>
   <trkpt lat="22.7503500" lon="120.3274430">
    <ele>14.1</ele>
    <time>2026-09-22T13:46:39Z</time>
   </trkpt>
   <trkpt lat="22.7502890" lon="120.3274410">
    <ele>14.1</ele>
    <time>2026-09-22T13:46:40Z</time>
   </trkpt>
   <trkpt lat="22.7502290" lon="120.3274390">
    <ele>14.0</ele>
    <time>2026-09-22T13:46:41Z</time>
   </trkpt>
   <trkpt lat="22.7501730" lon="120.3274410">
    <ele>14.0</ele>
    <time>2026-09-22T13:46:42Z</time>
   </trkpt>
   <trkpt lat="22.7501210" lon="120.3274390">
    <ele>14.0</ele>
    <time>2026-09-22T13:46:43Z</time>
   </trkpt>
   <trkpt lat="22.7500710" lon="120.3274220">
    <ele>13.9</ele>
    <time>2026-09-22T13:46:44Z</time>
   </trkpt>
   <trkpt lat="22.7500340" lon="120.3274010">
    <ele>13.9</ele>
    <time>2026-09-22T13:46:45Z</time>
   </trkpt>
   <trkpt lat="22.7500180" lon="120.3273620">
    <ele>13.9</ele>
    <time>2026-09-22T13:46:46Z</time>
   </trkpt>
   <trkpt lat="22.7500060" lon="120.3273120">
    <ele>13.8</ele>
    <time>2026-09-22T13:46:47Z</time>
   </trkpt>
   <trkpt lat="22.7499950" lon="120.3272570">
    <ele>13.8</ele>
    <time>2026-09-22T13:46:48Z</time>
   </trkpt>
   <trkpt lat="22.7499910" lon="120.3271950">
    <ele>13.8</ele>
    <time>2026-09-22T13:46:49Z</time>
   </trkpt>
   <trkpt lat="22.7499820" lon="120.3271160">
    <ele>13.8</ele>
    <time>2026-09-22T13:46:50Z</time>
   </trkpt>
   <trkpt lat="22.7499780" lon="120.3270260">
    <ele>13.8</ele>
    <time>2026-09-22T13:46:51Z</time>
   </trkpt>
   <trkpt lat="22.7499740" lon="120.3269320">
    <ele>13.8</ele>
    <time>2026-09-22T13:46:52Z</time>
   </trkpt>
   <trkpt lat="22.7499710" lon="120.3268360">
    <ele>13.7</ele>
    <time>2026-09-22T13:46:53Z</time>
   </trkpt>
   <trkpt lat="22.7499670" lon="120.3267390">
    <ele>13.8</ele>
    <time>2026-09-22T13:46:54Z</time>
   </trkpt>
   <trkpt lat="22.7499650" lon="120.3266480">
    <ele>13.8</ele>
    <time>2026-09-22T13:46:55Z</time>
   </trkpt>
   <trkpt lat="22.7499620" lon="120.3265750">
    <ele>13.8</ele>
    <time>2026-09-22T13:46:56Z</time>
   </trkpt>
   <trkpt lat="22.7499720" lon="120.3265040">
    <ele>13.8</ele>
    <time>2026-09-22T13:46:57Z</time>
   </trkpt>
   <trkpt lat="22.7499750" lon="120.3264550">
    <ele>13.7</ele>
    <time>2026-09-22T13:46:58Z</time>
   </trkpt>
   <trkpt lat="22.7499780" lon="120.3264000">
    <ele>13.7</ele>
    <time>2026-09-22T13:46:59Z</time>
   </trkpt>
   <trkpt lat="22.7499790" lon="120.3263630">
    <ele>13.7</ele>
    <time>2026-09-22T13:47:00Z</time>
   </trkpt>
   <trkpt lat="22.7499800" lon="120.3263310">
    <ele>13.7</ele>
    <time>2026-09-22T13:47:01Z</time>
   </trkpt>
   <trkpt lat="22.7499780" lon="120.3263010">
    <ele>13.7</ele>
    <time>2026-09-22T13:47:02Z</time>
   </trkpt>
   <trkpt lat="22.7499700" lon="120.3262840">
    <ele>13.7</ele>
    <time>2026-09-22T13:47:03Z</time>
   </trkpt>
   <trkpt lat="22.7499520" lon="120.3262810">
    <ele>13.7</ele>
    <time>2026-09-22T13:47:04Z</time>
   </trkpt>
   <trkpt lat="22.7499380" lon="120.3262870">
    <ele>13.7</ele>
    <time>2026-09-22T13:47:05Z</time>
   </trkpt>
   <trkpt lat="22.7499350" lon="120.3262990">
    <ele>13.7</ele>
    <time>2026-09-22T13:47:06Z</time>
   </trkpt>
   <trkpt lat="22.7499420" lon="120.3263170">
    <ele>13.7</ele>
    <time>2026-09-22T13:47:07Z</time>
   </trkpt>
   <trkpt lat="22.7499460" lon="120.3263480">
    <ele>13.7</ele>
    <time>2026-09-22T13:47:08Z</time>
   </trkpt>
   <trkpt lat="22.7499500" lon="120.3264090">
    <ele>13.7</ele>
    <time>2026-09-22T13:47:09Z</time>
   </trkpt>
   <trkpt lat="22.7499470" lon="120.3264670">
    <ele>13.7</ele>
    <time>2026-09-22T13:47:10Z</time>
   </trkpt>
   <trkpt lat="22.7499480" lon="120.3265260">
    <ele>13.8</ele>
    <time>2026-09-22T13:47:11Z</time>
   </trkpt>
   <trkpt lat="22.7499550" lon="120.3265910">
    <ele>13.8</ele>
    <time>2026-09-22T13:47:12Z</time>
   </trkpt>
   <trkpt lat="22.7499570" lon="120.3266620">
    <ele>13.8</ele>
    <time>2026-09-22T13:47:13Z</time>
   </trkpt>
   <trkpt lat="22.7499580" lon="120.3267340">
    <ele>13.8</ele>
    <time>2026-09-22T13:47:14Z</time>
   </trkpt>
   <trkpt lat="22.7499570" lon="120.3268100">
    <ele>13.7</ele>
    <time>2026-09-22T13:47:15Z</time>
   </trkpt>
   <trkpt lat="22.7499630" lon="120.3268860">
    <ele>13.7</ele>
    <time>2026-09-22T13:47:16Z</time>
   </trkpt>
   <trkpt lat="22.7499680" lon="120.3269630">
    <ele>13.8</ele>
    <time>2026-09-22T13:47:17Z</time>
   </trkpt>
   <trkpt lat="22.7499710" lon="120.3270430">
    <ele>13.8</ele>
    <time>2026-09-22T13:47:18Z</time>
   </trkpt>
   <trkpt lat="22.7499710" lon="120.3271240">
    <ele>13.8</ele>
    <time>2026-09-22T13:47:19Z</time>
   </trkpt>
   <trkpt lat="22.7499710" lon="120.3272100">
    <ele>13.8</ele>
    <time>2026-09-22T13:47:20Z</time>
   </trkpt>
   <trkpt lat="22.7499730" lon="120.3272910">
    <ele>13.8</ele>
    <time>2026-09-22T13:47:21Z</time>
   </trkpt>
   <trkpt lat="22.7499780" lon="120.3273630">
    <ele>13.9</ele>
    <time>2026-09-22T13:47:22Z</time>
   </trkpt>
   <trkpt lat="22.7499820" lon="120.3274240">
    <ele>13.9</ele>
    <time>2026-09-22T13:47:23Z</time>
   </trkpt>
   <trkpt lat="22.7499880" lon="120.3274940">
    <ele>14.0</ele>
    <time>2026-09-22T13:47:24Z</time>
   </trkpt>
   <trkpt lat="22.7499870" lon="120.3275670">
    <ele>14.1</ele>
    <time>2026-09-22T13:47:25Z</time>
   </trkpt>
   <trkpt lat="22.7499880" lon="120.3276440">
    <ele>14.3</ele>
    <time>2026-09-22T13:47:26Z</time>
   </trkpt>
   <trkpt lat="22.7499830" lon="120.3277190">
    <ele>14.4</ele>
    <time>2026-09-22T13:47:27Z</time>
   </trkpt>
   <trkpt lat="22.7499800" lon="120.3278000">
    <ele>14.5</ele>
    <time>2026-09-22T13:47:28Z</time>
   </trkpt>
   <trkpt lat="22.7499790" lon="120.3278780">
    <ele>14.6</ele>
    <time>2026-09-22T13:47:29Z</time>
   </trkpt>
   <trkpt lat="22.7499830" lon="120.3279600">
    <ele>14.7</ele>
    <time>2026-09-22T13:47:30Z</time>
   </trkpt>
   <trkpt lat="22.7499890" lon="120.3280490">
    <ele>14.8</ele>
    <time>2026-09-22T13:47:31Z</time>
   </trkpt>
   <trkpt lat="22.7499930" lon="120.3281340">
    <ele>14.9</ele>
    <time>2026-09-22T13:47:32Z</time>
   </trkpt>
   <trkpt lat="22.7499960" lon="120.3282190">
    <ele>15.0</ele>
    <time>2026-09-22T13:47:33Z</time>
   </trkpt>
   <trkpt lat="22.7499960" lon="120.3283080">
    <ele>15.1</ele>
    <time>2026-09-22T13:47:34Z</time>
   </trkpt>
   <trkpt lat="22.7499940" lon="120.3283910">
    <ele>15.2</ele>
    <time>2026-09-22T13:47:35Z</time>
   </trkpt>
   <trkpt lat="22.7499930" lon="120.3284580">
    <ele>15.2</ele>
    <time>2026-09-22T13:47:36Z</time>
   </trkpt>
  </trkseg>
 </trk>
</gpx>
