<?xml version="1.0" encoding="UTF-8"?>
<gpx creator="StravaGPX" version="1.1" xmlns="http://www.topografix.com/GPX/1/1" xmlns:xsi="http://www.w3.org/2001/XMLSchema-instance" xsi:schemaLocation="http://www.topografix.com/GPX/1/1 http://www.topografix.com/GPX/1/1/gpx.xsd">
 <metadata>
  <time>2026-09-27T12:11:16Z</time>
 </metadata>
 <trk>
  <name>傍晚騎車</name>
  <type>cycling</type>
  <trkseg>
   <trkpt lat="22.7241180" lon="120.2971540">
    <ele>15.6</ele>
    <time>2026-09-27T12:11:16Z</time>
   </trkpt>
   <trkpt lat="22.7241180" lon="120.2971540">
    <ele>15.6</ele>
    <time>2026-09-27T12:11:20Z</time>
   </trkpt>
   <trkpt lat="22.7241180" lon="120.2971540">
    <ele>15.6</ele>
    <time>2026-09-27T12:11:21Z</time>
   </trkpt>
   <trkpt lat="22.7238600" lon="120.2966960">
    <ele>15.5</ele>
    <time>2026-09-27T12:11:24Z</time>
   </trkpt>
   <trkpt lat="22.7238640" lon="120.2967290">
    <ele>15.5</ele>
    <time>2026-09-27T12:11:25Z</time>
   </trkpt>
   <trkpt lat="22.7238540" lon="120.2966980">
    <ele>15.5</ele>
    <time>2026-09-27T12:11:26Z</time>
   </trkpt>
   <trkpt lat="22.7238540" lon="120.2966980">
    <ele>15.5</ele>
    <time>2026-09-27T12:11:27Z</time>
   </trkpt>
   <trkpt lat="22.7238540" lon="120.2966980">
    <ele>15.5</ele>
    <time>2026-09-27T12:11:28Z</time>
   </trkpt>
   <trkpt lat="22.7238470" lon="120.2967030">
    <ele>15.5</ele>
    <time>2026-09-27T12:11:29Z</time>
   </trkpt>
   <trkpt lat="22.7238470" lon="120.2967030">
    <ele>15.5</ele>
    <time>2026-09-27T12:11:30Z</time>
   </trkpt>
   <trkpt lat="22.7238470" lon="120.2967030">
    <ele>15.5</ele>
    <time>2026-09-27T12:11:31Z</time>
   </trkpt>
   <trkpt lat="22.7238420" lon="120.2967080">
    <ele>15.5</ele>
    <time>2026-09-27T12:11:32Z</time>
   </trkpt>
   <trkpt lat="22.7238420" lon="120.2967080">
    <ele>15.5</ele>
    <time>2026-09-27T12:11:33Z</time>
   </trkpt>
   <trkpt lat="22.7238420" lon="120.2967080">
    <ele>15.5</ele>
    <time>2026-09-27T12:11:34Z</time>
   </trkpt>
   <trkpt lat="22.7238350" lon="120.2967140">
    <ele>15.5</ele>
    <time>2026-09-27T12:11:35Z</time>
   </trkpt>
   <trkpt lat="22.7238350" lon="120.2967140">
    <ele>15.5</ele>
    <time>2026-09-27T12:11:36Z</time>
   </trkpt>
   <trkpt lat="22.7238350" lon="120.2967140">
    <ele>15.5</ele>
    <time>2026-09-27T12:11:37Z</time>
   </trkpt>
   <trkpt lat="22.7238290" lon="120.2967190">
    <ele>15.5</ele>
    <time>2026-09-27T12:11:38Z</time>
   </trkpt>
   <trkpt lat="22.7238290" lon="120.2967190">
    <ele>15.5</ele>
    <time>2026-09-27T12:11:39Z</time>
   </trkpt>
   <trkpt lat="22.7238290" lon="120.2967190">
    <ele>15.5</ele>
    <time>2026-09-27T12:11:40Z</time>
   </trkpt>
   <trkpt lat="22.7238290" lon="120.2967190">
    <ele>15.5</ele>
    <time>2026-09-27T12:11:41Z</time>
   </trkpt>
   <trkpt lat="22.7238290" lon="120.2967190">
    <ele>15.5</ele>
    <time>2026-09-27T12:11:42Z</time>
   </trkpt>
   <trkpt lat="22.7238290" lon="120.2967190">
    <ele>15.5</ele>
    <time>2026-09-27T12:11:43Z</time>
   </trkpt>
   <trkpt lat="22.7238230" lon="120.2967240">
    <ele>15.5</ele>
    <time>2026-09-27T12:11:44Z</time>
   </trkpt>
   <trkpt lat="22.7238230" lon="120.2967240">
    <ele>15.5</ele>
    <time>2026-09-27T12:11:45Z</time>
   </trkpt>
   <trkpt lat="22.7238230" lon="120.2967240">
    <ele>15.5</ele>
    <time>2026-09-27T12:11:46Z</time>
   </trkpt>
   <trkpt lat="22.7238230" lon="120.2967240">
    <ele>15.5</ele>
    <time>2026-09-27T12:11:47Z</time>
   </trkpt>
   <trkpt lat="22.7238230" lon="120.2967240">
    <ele>15.5</ele>
    <time>2026-09-27T12:11:48Z</time>
   </trkpt>
   <trkpt lat="22.7238160" lon="120.2967300">
    <ele>15.5</ele>
    <time>2026-09-27T12:11:49Z</time>
   </trkpt>
   <trkpt lat="22.7238090" lon="120.2967360">
    <ele>15.5</ele>
    <time>2026-09-27T12:11:50Z</time>
   </trkpt>
   <trkpt lat="22.7238070" lon="120.2967370">
    <ele>15.5</ele>
    <time>2026-09-27T12:11:51Z</time>
   </trkpt>
   <trkpt lat="22.7238050" lon="120.2967390">
    <ele>15.5</ele>
    <time>2026-09-27T12:11:52Z</time>
   </trkpt>
   <trkpt lat="22.7237920" lon="120.2967380">
    <ele>15.5</ele>
    <time>2026-09-27T12:11:53Z</time>
   </trkpt>
   <trkpt lat="22.7237640" lon="120.2967390">
    <ele>15.5</ele>
    <time>2026-09-27T12:11:54Z</time>
   </trkpt>
   <trkpt lat="22.7237270" lon="120.2967540">
    <ele>15.5</ele>
    <time>2026-09-27T12:11:55Z</time>
   </trkpt>
   <trkpt lat="22.7236760" lon="120.2968210">
    <ele>15.4</ele>
    <time>2026-09-27T12:11:56Z</time>
   </trkpt>
   <trkpt lat="22.7236660" lon="120.2968600">
    <ele>15.4</ele>
    <time>2026-09-27T12:11:57Z</time>
   </trkpt>
   <trkpt lat="22.7236960" lon="120.2969040">
    <ele>15.4</ele>
    <time>2026-09-27T12:11:58Z</time>
   </trkpt>
   <trkpt lat="22.7236650" lon="120.2969260">
    <ele>15.4</ele>
    <time>2026-09-27T12:11:59Z</time>
   </trkpt>
   <trkpt lat="22.7236240" lon="120.2969350">
    <ele>15.4</ele>
    <time>2026-09-27T12:12:00Z</time>
   </trkpt>
   <trkpt lat="22.7236140" lon="120.2969480">
    <ele>15.4</ele>
    <time>2026-09-27T12:12:01Z</time>
   </trkpt>
   <trkpt lat="22.7236440" lon="120.2969150">
    <ele>15.4</ele>
    <time>2026-09-27T12:12:02Z</time>
   </trkpt>
   <trkpt lat="22.7236020" lon="120.2968770">
    <ele>15.4</ele>
    <time>2026-09-27T12:12:03Z</time>
   </trkpt>
   <trkpt lat="22.7235740" lon="120.2969020">
    <ele>15.4</ele>
    <time>2026-09-27T12:12:04Z</time>
   </trkpt>
   <trkpt lat="22.7235880" lon="120.2969090">
    <ele>15.4</ele>
    <time>2026-09-27T12:12:05Z</time>
   </trkpt>
   <trkpt lat="22.7235960" lon="120.2969020">
    <ele>15.4</ele>
    <time>2026-09-27T12:12:06Z</time>
   </trkpt>
   <trkpt lat="22.7236140" lon="120.2968940">
    <ele>15.3</ele>
    <time>2026-09-27T12:12:07Z</time>
   </trkpt>
   <trkpt lat="22.7236690" lon="120.2968530">
    <ele>15.3</ele>
    <time>2026-09-27T12:12:08Z</time>
   </trkpt>
   <trkpt lat="22.7237700" lon="120.2967950">
    <ele>15.3</ele>
    <time>2026-09-27T12:12:09Z</time>
   </trkpt>
   <trkpt lat="22.7236810" lon="120.2967600">
    <ele>15.3</ele>
    <time>2026-09-27T12:12:10Z</time>
   </trkpt>
   <trkpt lat="22.7237070" lon="120.2967610">
    <ele>15.3</ele>
    <time>2026-09-27T12:12:11Z</time>
   </trkpt>
   <trkpt lat="22.7237350" lon="120.2967310">
    <ele>15.2</ele>
    <time>2026-09-27T12:12:12Z</time>
   </trkpt>
   <trkpt lat="22.7238100" lon="120.2966440">
    <ele>15.2</ele>
    <time>2026-09-27T12:12:13Z</time>
   </trkpt>
   <trkpt lat="22.7238600" lon="120.2966260">
    <ele>15.4</ele>
    <time>2026-09-27T12:12:14Z</time>
   </trkpt>
   <trkpt lat="22.7238810" lon="120.2966140">
    <ele>15.5</ele>
    <time>2026-09-27T12:12:15Z</time>
   </trkpt>
   <trkpt lat="22.7238830" lon="120.2966190">
    <ele>15.5</ele>
    <time>2026-09-27T12:12:16Z</time>
   </trkpt>
   <trkpt lat="22.7238460" lon="120.2966130">
    <ele>15.6</ele>
    <time>2026-09-27T12:12:17Z</time>
   </trkpt>
   <trkpt lat="22.7238490" lon="120.2966210">
    <ele>15.7</ele>
    <time>2026-09-27T12:12:18Z</time>
   </trkpt>
   <trkpt lat="22.7238500" lon="120.2966070">
    <ele>15.7</ele>
    <time>2026-09-27T12:12:19Z</time>
   </trkpt>
   <trkpt lat="22.7238500" lon="120.2966000">
    <ele>15.7</ele>
    <time>2026-09-27T12:12:20Z</time>
   </trkpt>
   <trkpt lat="22.7238460" lon="120.2965940">
    <ele>15.8</ele>
    <time>2026-09-27T12:12:21Z</time>
   </trkpt>
   <trkpt lat="22.7238520" lon="120.2965990">
    <ele>15.8</ele>
    <time>2026-09-27T12:12:22Z</time>
   </trkpt>
   <trkpt lat="22.7238870" lon="120.2966010">
    <ele>15.9</ele>
    <time>2026-09-27T12:12:23Z</time>
   </trkpt>
   <trkpt lat="22.7238730" lon="120.2965990">
    <ele>16.0</ele>
    <time>2026-09-27T12:12:24Z</time>
   </trkpt>
   <trkpt lat="22.7238590" lon="120.2965970">
    <ele>16.0</ele>
    <time>2026-09-27T12:12:25Z</time>
   </trkpt>
   <trkpt lat="22.7238460" lon="120.2965950">
    <ele>16.1</ele>
    <time>2026-09-27T12:12:26Z</time>
   </trkpt>
   <trkpt lat="22.7238320" lon="120.2965930">
    <ele>16.1</ele>
    <time>2026-09-27T12:12:27Z</time>
   </trkpt>
   <trkpt lat="22.7238180" lon="120.2965910">
    <ele>16.2</ele>
    <time>2026-09-27T12:12:28Z</time>
   </trkpt>
   <trkpt lat="22.7238130" lon="120.2965890">
    <ele>16.2</ele>
    <time>2026-09-27T12:12:29Z</time>
   </trkpt>
   <trkpt lat="22.7238080" lon="120.2965870">
    <ele>16.2</ele>
    <time>2026-09-27T12:12:30Z</time>
   </trkpt>
   <trkpt lat="22.7238030" lon="120.2965860">
    <ele>16.2</ele>
    <time>2026-09-27T12:12:31Z</time>
   </trkpt>
   <trkpt lat="22.7237980" lon="120.2965840">
    <ele>16.2</ele>
    <time>2026-09-27T12:12:32Z</time>
   </trkpt>
   <trkpt lat="22.7237930" lon="120.2965820">
    <ele>16.3</ele>
    <time>2026-09-27T12:12:33Z</time>
   </trkpt>
   <trkpt lat="22.7237880" lon="120.2965800">
    <ele>16.3</ele>
    <time>2026-09-27T12:12:34Z</time>
   </trkpt>
   <trkpt lat="22.7237830" lon="120.2965790">
    <ele>16.3</ele>
    <time>2026-09-27T12:12:35Z</time>
   </trkpt>
   <trkpt lat="22.7237780" lon="120.2965770">
    <ele>16.3</ele>
    <time>2026-09-27T12:12:36Z</time>
   </trkpt>
   <trkpt lat="22.7237730" lon="120.2965750">
    <ele>16.3</ele>
    <time>2026-09-27T12:12:37Z</time>
   </trkpt>
   <trkpt lat="22.7237790" lon="120.2965800">
    <ele>16.4</ele>
    <time>2026-09-27T12:12:38Z</time>
   </trkpt>
   <trkpt lat="22.7237650" lon="120.2965800">
    <ele>16.4</ele>
    <time>2026-09-27T12:12:39Z</time>
   </trkpt>
   <trkpt lat="22.7237600" lon="120.2966270">
    <ele>16.6</ele>
    <time>2026-09-27T12:12:40Z</time>
   </trkpt>
   <trkpt lat="22.7238220" lon="120.2966650">
    <ele>16.8</ele>
    <time>2026-09-27T12:12:46Z</time>
   </trkpt>
   <trkpt lat="22.7238450" lon="120.2966370">
    <ele>16.9</ele>
    <time>2026-09-27T12:12:47Z</time>
   </trkpt>
   <trkpt lat="22.7238580" lon="120.2966280">
    <ele>17.0</ele>
    <time>2026-09-27T12:12:48Z</time>
   </trkpt>
   <trkpt lat="22.7238870" lon="120.2966120">
    <ele>17.1</ele>
    <time>2026-09-27T12:12:49Z</time>
   </trkpt>
   <trkpt lat="22.7239150" lon="120.2966060">
    <ele>17.2</ele>
    <time>2026-09-27T12:12:50Z</time>
   </trkpt>
   <trkpt lat="22.7239300" lon="120.2965990">
    <ele>17.3</ele>
    <time>2026-09-27T12:12:51Z</time>
   </trkpt>
   <trkpt lat="22.7239460" lon="120.2965900">
    <ele>17.3</ele>
    <time>2026-09-27T12:12:52Z</time>
   </trkpt>
   <trkpt lat="22.7239680" lon="120.2965930">
    <ele>17.4</ele>
    <time>2026-09-27T12:12:53Z</time>
   </trkpt>
   <trkpt lat="22.7239770" lon="120.2965910">
    <ele>17.4</ele>
    <time>2026-09-27T12:12:54Z</time>
   </trkpt>
   <trkpt lat="22.7239850" lon="120.2965910">
    <ele>17.5</ele>
    <time>2026-09-27T12:12:55Z</time>
   </trkpt>
   <trkpt lat="22.7240060" lon="120.2965860">
    <ele>17.6</ele>
    <time>2026-09-27T12:12:56Z</time>
   </trkpt>
   <trkpt lat="22.7240230" lon="120.2965790">
    <ele>17.6</ele>
    <time>2026-09-27T12:12:57Z</time>
   </trkpt>
   <trkpt lat="22.7240400" lon="120.2965720">
    <ele>17.7</ele>
    <time>2026-09-27T12:12:58Z</time>
   </trkpt>
   <trkpt lat="22.7240590" lon="120.2965710">
    <ele>17.8</ele>
    <time>2026-09-27T12:12:59Z</time>
   </trkpt>
   <trkpt lat="22.7240750" lon="120.2965630">
    <ele>17.8</ele>
    <time>2026-09-27T12:13:00Z</time>
   </trkpt>
   <trkpt lat="22.7240890" lon="120.2965740">
    <ele>17.9</ele>
    <time>2026-09-27T12:13:01Z</time>
   </trkpt>
   <trkpt lat="22.7241100" lon="120.2965760">
    <ele>18.0</ele>
    <time>2026-09-27T12:13:02Z</time>
   </trkpt>
   <trkpt lat="22.7241280" lon="120.2965700">
    <ele>18.0</ele>
    <time>2026-09-27T12:13:03Z</time>
   </trkpt>
   <trkpt lat="22.7241380" lon="120.2965620">
    <ele>18.1</ele>
    <time>2026-09-27T12:13:04Z</time>
   </trkpt>
   <trkpt lat="22.7241510" lon="120.2965540">
    <ele>18.1</ele>
    <time>2026-09-27T12:13:05Z</time>
   </trkpt>
   <trkpt lat="22.7241610" lon="120.2965500">
    <ele>18.2</ele>
    <time>2026-09-27T12:13:06Z</time>
   </trkpt>
   <trkpt lat="22.7241680" lon="120.2965380">
    <ele>18.2</ele>
    <time>2026-09-27T12:13:07Z</time>
   </trkpt>
   <trkpt lat="22.7241740" lon="120.2965240">
    <ele>18.3</ele>
    <time>2026-09-27T12:13:08Z</time>
   </trkpt>
   <trkpt lat="22.7241730" lon="120.2965170">
    <ele>18.3</ele>
    <time>2026-09-27T12:13:09Z</time>
   </trkpt>
   <trkpt lat="22.7241880" lon="120.2964880">
    <ele>18.4</ele>
    <time>2026-09-27T12:13:10Z</time>
   </trkpt>
   <trkpt lat="22.7242010" lon="120.2964780">
    <ele>18.4</ele>
    <time>2026-09-27T12:13:11Z</time>
   </trkpt>
   <trkpt lat="22.7242100" lon="120.2964680">
    <ele>18.5</ele>
    <time>2026-09-27T12:13:12Z</time>
   </trkpt>
   <trkpt lat="22.7242190" lon="120.2964610">
    <ele>18.5</ele>
    <time>2026-09-27T12:13:13Z</time>
   </trkpt>
   <trkpt lat="22.7242370" lon="120.2964450">
    <ele>18.6</ele>
    <time>2026-09-27T12:13:14Z</time>
   </trkpt>
   <trkpt lat="22.7242420" lon="120.2964310">
    <ele>18.7</ele>
    <time>2026-09-27T12:13:15Z</time>
   </trkpt>
   <trkpt lat="22.7242510" lon="120.2964230">
    <ele>18.7</ele>
    <time>2026-09-27T12:13:16Z</time>
   </trkpt>
   <trkpt lat="22.7242520" lon="120.2964260">
    <ele>18.7</ele>
    <time>2026-09-27T12:13:17Z</time>
   </trkpt>
   <trkpt lat="22.7242620" lon="120.2964240">
    <ele>18.8</ele>
    <time>2026-09-27T12:13:18Z</time>
   </trkpt>
   <trkpt lat="22.7242710" lon="120.2964190">
    <ele>18.8</ele>
    <time>2026-09-27T12:13:19Z</time>
   </trkpt>
   <trkpt lat="22.7242760" lon="120.2964190">
    <ele>18.8</ele>
    <time>2026-09-27T12:13:20Z</time>
   </trkpt>
   <trkpt lat="22.7242880" lon="120.2964090">
    <ele>18.9</ele>
    <time>2026-09-27T12:13:21Z</time>
   </trkpt>
   <trkpt lat="22.7242950" lon="120.2963980">
    <ele>18.9</ele>
    <time>2026-09-27T12:13:22Z</time>
   </trkpt>
   <trkpt lat="22.7242930" lon="120.2964020">
    <ele>18.9</ele>
    <time>2026-09-27T12:13:23Z</time>
   </trkpt>
   <trkpt lat="22.7242840" lon="120.2964040">
    <ele>18.9</ele>
    <time>2026-09-27T12:13:24Z</time>
   </trkpt>
   <trkpt lat="22.7242860" lon="120.2964010">
    <ele>18.9</ele>
    <time>2026-09-27T12:13:25Z</time>
   </trkpt>
   <trkpt lat="22.7242860" lon="120.2963960">
    <ele>18.9</ele>
    <time>2026-09-27T12:13:26Z</time>
   </trkpt>
   <trkpt lat="22.7242820" lon="120.2963970">
    <ele>18.9</ele>
    <time>2026-09-27T12:13:27Z</time>
   </trkpt>
   <trkpt lat="22.7242780" lon="120.2963980">
    <ele>18.9</ele>
    <time>2026-09-27T12:13:28Z</time>
   </trkpt>
   <trkpt lat="22.7242760" lon="120.2963990">
    <ele>18.9</ele>
    <time>2026-09-27T12:13:29Z</time>
   </trkpt>
   <trkpt lat="22.7242750" lon="120.2963990">
    <ele>18.9</ele>
    <time>2026-09-27T12:13:30Z</time>
   </trkpt>
   <trkpt lat="22.7242720" lon="120.2963990">
    <ele>18.9</ele>
    <time>2026-09-27T12:13:31Z</time>
   </trkpt>
   <trkpt lat="22.7242680" lon="120.2964000">
    <ele>18.9</ele>
    <time>2026-09-27T12:13:32Z</time>
   </trkpt>
   <trkpt lat="22.7242660" lon="120.2964000">
    <ele>18.9</ele>
    <time>2026-09-27T12:13:33Z</time>
   </trkpt>
   <trkpt lat="22.7242310" lon="120.2964030">
    <ele>18.9</ele>
    <time>2026-09-27T12:13:47Z</time>
   </trkpt>
   <trkpt lat="22.7242340" lon="120.2963910">
    <ele>18.9</ele>
    <time>2026-09-27T12:13:48Z</time>
   </trkpt>
   <trkpt lat="22.7242400" lon="120.2963770">
    <ele>18.9</ele>
    <time>2026-09-27T12:13:49Z</time>
   </trkpt>
   <trkpt lat="22.7242330" lon="120.2963630">
    <ele>18.9</ele>
    <time>2026-09-27T12:13:50Z</time>
   </trkpt>
   <trkpt lat="22.7242290" lon="120.2963540">
    <ele>18.9</ele>
    <time>2026-09-27T12:13:51Z</time>
   </trkpt>
   <trkpt lat="22.7242290" lon="120.2963410">
    <ele>18.8</ele>
    <time>2026-09-27T12:13:53Z</time>
   </trkpt>
   <trkpt lat="22.7242260" lon="120.2963310">
    <ele>18.8</ele>
    <time>2026-09-27T12:13:54Z</time>
   </trkpt>
   <trkpt lat="22.7242280" lon="120.2963150">
    <ele>18.8</ele>
    <time>2026-09-27T12:13:55Z</time>
   </trkpt>
   <trkpt lat="22.7242330" lon="120.2963010">
    <ele>18.8</ele>
    <time>2026-09-27T12:13:56Z</time>
   </trkpt>
   <trkpt lat="22.7242510" lon="120.2962920">
    <ele>18.8</ele>
    <time>2026-09-27T12:13:57Z</time>
   </trkpt>
   <trkpt lat="22.7242530" lon="120.2962910">
    <ele>18.8</ele>
    <time>2026-09-27T12:13:58Z</time>
   </trkpt>
   <trkpt lat="22.7242530" lon="120.2962920">
    <ele>18.8</ele>
    <time>2026-09-27T12:13:59Z</time>
   </trkpt>
   <trkpt lat="22.7242590" lon="120.2962890">
    <ele>18.8</ele>
    <time>2026-09-27T12:14:00Z</time>
   </trkpt>
   <trkpt lat="22.7242670" lon="120.2962910">
    <ele>18.8</ele>
    <time>2026-09-27T12:14:01Z</time>
   </trkpt>
   <trkpt lat="22.7242640" lon="120.2962980">
    <ele>18.8</ele>
    <time>2026-09-27T12:14:02Z</time>
   </trkpt>
   <trkpt lat="22.7242640" lon="120.2962990">
    <ele>18.8</ele>
    <time>2026-09-27T12:14:03Z</time>
   </trkpt>
   <trkpt lat="22.7242720" lon="120.2963010">
    <ele>18.8</ele>
    <time>2026-09-27T12:14:04Z</time>
   </trkpt>
   <trkpt lat="22.7242830" lon="120.2962970">
    <ele>18.8</ele>
    <time>2026-09-27T12:14:05Z</time>
   </trkpt>
   <trkpt lat="22.7242750" lon="120.2962950">
    <ele>18.8</ele>
    <time>2026-09-27T12:14:06Z</time>
   </trkpt>
   <trkpt lat="22.7242960" lon="120.2962840">
    <ele>18.8</ele>
    <time>2026-09-27T12:14:07Z</time>
   </trkpt>
   <trkpt lat="22.7243020" lon="120.2962710">
    <ele>18.8</ele>
    <time>2026-09-27T12:14:09Z</time>
   </trkpt>
   <trkpt lat="22.7243070" lon="120.2962960">
    <ele>18.8</ele>
    <time>2026-09-27T12:14:10Z</time>
   </trkpt>
   <trkpt lat="22.7243280" lon="120.2962900">
    <ele>18.8</ele>
    <time>2026-09-27T12:14:11Z</time>
   </trkpt>
   <trkpt lat="22.7243360" lon="120.2962860">
    <ele>18.8</ele>
    <time>2026-09-27T12:14:12Z</time>
   </trkpt>
   <trkpt lat="22.7243430" lon="120.2962770">
    <ele>18.8</ele>
    <time>2026-09-27T12:14:13Z</time>
   </trkpt>
   <trkpt lat="22.7243400" lon="120.2962770">
    <ele>18.8</ele>
    <time>2026-09-27T12:14:14Z</time>
   </trkpt>
   <trkpt lat="22.7243330" lon="120.2962770">
    <ele>18.8</ele>
    <time>2026-09-27T12:14:15Z</time>
   </trkpt>
   <trkpt lat="22.7243230" lon="120.2962780">
    <ele>18.8</ele>
    <time>2026-09-27T12:14:16Z</time>
   </trkpt>
   <trkpt lat="22.7243120" lon="120.2962770">
    <ele>18.8</ele>
    <time>2026-09-27T12:14:17Z</time>
   </trkpt>
   <trkpt lat="22.7243110" lon="120.2962780">
    <ele>18.8</ele>
    <time>2026-09-27T12:14:18Z</time>
   </trkpt>
   <trkpt lat="22.7243210" lon="120.2962690">
    <ele>18.8</ele>
    <time>2026-09-27T12:14:19Z</time>
   </trkpt>
   <trkpt lat="22.7243310" lon="120.2962680">
    <ele>18.8</ele>
    <time>2026-09-27T12:14:20Z</time>
   </trkpt>
   <trkpt lat="22.7243410" lon="120.2962640">
    <ele>18.8</ele>
    <time>2026-09-27T12:14:21Z</time>
   </trkpt>
   <trkpt lat="22.7243350" lon="120.2962720">
    <ele>18.8</ele>
    <time>2026-09-27T12:14:22Z</time>
   </trkpt>
   <trkpt lat="22.7243300" lon="120.2962980">
    <ele>18.7</ele>
    <time>2026-09-27T12:14:23Z</time>
   </trkpt>
   <trkpt lat="22.7243060" lon="120.2962910">
    <ele>18.7</ele>
    <time>2026-09-27T12:14:24Z</time>
   </trkpt>
   <trkpt lat="22.7242800" lon="120.2962660">
    <ele>18.7</ele>
    <time>2026-09-27T12:14:25Z</time>
   </trkpt>
   <trkpt lat="22.7242450" lon="120.2962510">
    <ele>18.7</ele>
    <time>2026-09-27T12:14:26Z</time>
   </trkpt>
   <trkpt lat="22.7242230" lon="120.2962510">
    <ele>18.7</ele>
    <time>2026-09-27T12:14:27Z</time>
   </trkpt>
   <trkpt lat="22.7242070" lon="120.2962440">
    <ele>18.7</ele>
    <time>2026-09-27T12:14:28Z</time>
   </trkpt>
   <trkpt lat="22.7241910" lon="120.2962240">
    <ele>18.7</ele>
    <time>2026-09-27T12:14:29Z</time>
   </trkpt>
   <trkpt lat="22.7241860" lon="120.2962130">
    <ele>18.7</ele>
    <time>2026-09-27T12:14:30Z</time>
   </trkpt>
   <trkpt lat="22.7241780" lon="120.2962110">
    <ele>18.7</ele>
    <time>2026-09-27T12:14:31Z</time>
   </trkpt>
   <trkpt lat="22.7241670" lon="120.2962050">
    <ele>18.7</ele>
    <time>2026-09-27T12:14:32Z</time>
   </trkpt>
   <trkpt lat="22.7241590" lon="120.2962050">
    <ele>18.7</ele>
    <time>2026-09-27T12:14:33Z</time>
   </trkpt>
   <trkpt lat="22.7241650" lon="120.2962090">
    <ele>18.7</ele>
    <time>2026-09-27T12:14:34Z</time>
   </trkpt>
   <trkpt lat="22.7241630" lon="120.2962160">
    <ele>18.7</ele>
    <time>2026-09-27T12:14:35Z</time>
   </trkpt>
   <trkpt lat="22.7241690" lon="120.2962270">
    <ele>18.7</ele>
    <time>2026-09-27T12:14:36Z</time>
   </trkpt>
   <trkpt lat="22.7241620" lon="120.2962560">
    <ele>18.7</ele>
    <time>2026-09-27T12:14:37Z</time>
   </trkpt>
   <trkpt lat="22.7241620" lon="120.2962640">
    <ele>18.7</ele>
    <time>2026-09-27T12:14:38Z</time>
   </trkpt>
   <trkpt lat="22.7241450" lon="120.2962480">
    <ele>18.6</ele>
    <time>2026-09-27T12:14:39Z</time>
   </trkpt>
   <trkpt lat="22.7241320" lon="120.2962380">
    <ele>18.6</ele>
    <time>2026-09-27T12:14:40Z</time>
   </trkpt>
   <trkpt lat="22.7241250" lon="120.2962270">
    <ele>18.6</ele>
    <time>2026-09-27T12:14:41Z</time>
   </trkpt>
   <trkpt lat="22.7241100" lon="120.2962370">
    <ele>18.6</ele>
    <time>2026-09-27T12:14:42Z</time>
   </trkpt>
   <trkpt lat="22.7241070" lon="120.2962590">
    <ele>18.6</ele>
    <time>2026-09-27T12:14:43Z</time>
   </trkpt>
   <trkpt lat="22.7241110" lon="120.2962530">
    <ele>18.6</ele>
    <time>2026-09-27T12:14:44Z</time>
   </trkpt>
   <trkpt lat="22.7241110" lon="120.2962380">
    <ele>18.6</ele>
    <time>2026-09-27T12:14:45Z</time>
   </trkpt>
   <trkpt lat="22.7241190" lon="120.2962500">
    <ele>18.6</ele>
    <time>2026-09-27T12:14:46Z</time>
   </trkpt>
   <trkpt lat="22.7241120" lon="120.2962540">
    <ele>18.6</ele>
    <time>2026-09-27T12:14:47Z</time>
   </trkpt>
   <trkpt lat="22.7241030" lon="120.2962340">
    <ele>18.6</ele>
    <time>2026-09-27T12:14:48Z</time>
   </trkpt>
   <trkpt lat="22.7241040" lon="120.2962340">
    <ele>18.6</ele>
    <time>2026-09-27T12:14:49Z</time>
   </trkpt>
   <trkpt lat="22.7240950" lon="120.2962410">
    <ele>18.6</ele>
    <time>2026-09-27T12:14:50Z</time>
   </trkpt>
   <trkpt lat="22.7240900" lon="120.2962430">
    <ele>18.6</ele>
    <time>2026-09-27T12:14:51Z</time>
   </trkpt>
   <trkpt lat="22.7240980" lon="120.2962470">
    <ele>18.6</ele>
    <time>2026-09-27T12:14:52Z</time>
   </trkpt>
   <trkpt lat="22.7241030" lon="120.2962470">
    <ele>18.6</ele>
    <time>2026-09-27T12:14:53Z</time>
   </trkpt>
   <trkpt lat="22.7241080" lon="120.2962510">
    <ele>18.6</ele>
    <time>2026-09-27T12:14:54Z</time>
   </trkpt>
   <trkpt lat="22.7241120" lon="120.2962420">
    <ele>18.6</ele>
    <time>2026-09-27T12:14:55Z</time>
   </trkpt>
   <trkpt lat="22.7241160" lon="120.2962360">
    <ele>18.6</ele>
    <time>2026-09-27T12:14:56Z</time>
   </trkpt>
   <trkpt lat="22.7241260" lon="120.2962300">
    <ele>18.6</ele>
    <time>2026-09-27T12:14:57Z</time>
   </trkpt>
   <trkpt lat="22.7241270" lon="120.2962340">
    <ele>18.6</ele>
    <time>2026-09-27T12:14:58Z</time>
   </trkpt>
   <trkpt lat="22.7241270" lon="120.2962340">
    <ele>18.6</ele>
    <time>2026-09-27T12:14:59Z</time>
   </trkpt>
   <trkpt lat="22.7241270" lon="120.2962340">
    <ele>18.6</ele>
    <time>2026-09-27T12:15:00Z</time>
   </trkpt>
   <trkpt lat="22.7241170" lon="120.2961590">
    <ele>18.6</ele>
    <time>2026-09-27T12:15:08Z</time>
   </trkpt>
   <trkpt lat="22.7241200" lon="120.2961630">
    <ele>18.6</ele>
    <time>2026-09-27T12:15:09Z</time>
   </trkpt>
   <trkpt lat="22.7241390" lon="120.2961460">
    <ele>18.5</ele>
    <time>2026-09-27T12:15:10Z</time>
   </trkpt>
   <trkpt lat="22.7241570" lon="120.2961460">
    <ele>18.5</ele>
    <time>2026-09-27T12:15:11Z</time>
   </trkpt>
   <trkpt lat="22.7241590" lon="120.2961550">
    <ele>18.5</ele>
    <time>2026-09-27T12:15:12Z</time>
   </trkpt>
   <trkpt lat="22.7241690" lon="120.2961550">
    <ele>18.5</ele>
    <time>2026-09-27T12:15:13Z</time>
   </trkpt>
   <trkpt lat="22.7241740" lon="120.2961570">
    <ele>18.5</ele>
    <time>2026-09-27T12:15:14Z</time>
   </trkpt>
   <trkpt lat="22.7241840" lon="120.2961530">
    <ele>18.5</ele>
    <time>2026-09-27T12:15:15Z</time>
   </trkpt>
   <trkpt lat="22.7241870" lon="120.2961480">
    <ele>18.5</ele>
    <time>2026-09-27T12:15:16Z</time>
   </trkpt>
   <trkpt lat="22.7241900" lon="120.2961440">
    <ele>18.5</ele>
    <time>2026-09-27T12:15:17Z</time>
   </trkpt>
   <trkpt lat="22.7241890" lon="120.2961430">
    <ele>18.5</ele>
    <time>2026-09-27T12:15:18Z</time>
   </trkpt>
   <trkpt lat="22.7241880" lon="120.2961440">
    <ele>18.5</ele>
    <time>2026-09-27T12:15:19Z</time>
   </trkpt>
   <trkpt lat="22.7241850" lon="120.2961490">
    <ele>18.5</ele>
    <time>2026-09-27T12:15:20Z</time>
   </trkpt>
   <trkpt lat="22.7241870" lon="120.2961460">
    <ele>18.5</ele>
    <time>2026-09-27T12:15:21Z</time>
   </trkpt>
   <trkpt lat="22.7241540" lon="120.2961130">
    <ele>18.5</ele>
    <time>2026-09-27T12:15:37Z</time>
   </trkpt>
   <trkpt lat="22.7241480" lon="120.2961020">
    <ele>18.5</ele>
    <time>2026-09-27T12:15:38Z</time>
   </trkpt>
   <trkpt lat="22.7241460" lon="120.2960940">
    <ele>18.5</ele>
    <time>2026-09-27T12:15:39Z</time>
   </trkpt>
   <trkpt lat="22.7241420" lon="120.2960840">
    <ele>18.5</ele>
    <time>2026-09-27T12:15:40Z</time>
   </trkpt>
   <trkpt lat="22.7241370" lon="120.2960700">
    <ele>18.5</ele>
    <time>2026-09-27T12:15:41Z</time>
   </trkpt>
   <trkpt lat="22.7241270" lon="120.2960600">
    <ele>18.5</ele>
    <time>2026-09-27T12:15:42Z</time>
   </trkpt>
   <trkpt lat="22.7241230" lon="120.2960470">
    <ele>18.5</ele>
    <time>2026-09-27T12:15:43Z</time>
   </trkpt>
   <trkpt lat="22.7241170" lon="120.2960360">
    <ele>18.5</ele>
    <time>2026-09-27T12:15:44Z</time>
   </trkpt>
   <trkpt lat="22.7241220" lon="120.2960250">
    <ele>18.5</ele>
    <time>2026-09-27T12:15:45Z</time>
   </trkpt>
   <trkpt lat="22.7241200" lon="120.2960140">
    <ele>18.5</ele>
    <time>2026-09-27T12:15:46Z</time>
   </trkpt>
   <trkpt lat="22.7241190" lon="120.2959990">
    <ele>18.5</ele>
    <time>2026-09-27T12:15:47Z</time>
   </trkpt>
   <trkpt lat="22.7241010" lon="120.2959940">
    <ele>18.5</ele>
    <time>2026-09-27T12:15:48Z</time>
   </trkpt>
   <trkpt lat="22.7240860" lon="120.2959910">
    <ele>18.5</ele>
    <time>2026-09-27T12:15:49Z</time>
   </trkpt>
   <trkpt lat="22.7240820" lon="120.2959970">
    <ele>18.4</ele>
    <time>2026-09-27T12:15:50Z</time>
   </trkpt>
   <trkpt lat="22.7240790" lon="120.2960010">
    <ele>18.4</ele>
    <time>2026-09-27T12:15:51Z</time>
   </trkpt>
   <trkpt lat="22.7240790" lon="120.2960020">
    <ele>18.4</ele>
    <time>2026-09-27T12:15:52Z</time>
   </trkpt>
   <trkpt lat="22.7240790" lon="120.2960010">
    <ele>18.4</ele>
    <time>2026-09-27T12:15:53Z</time>
   </trkpt>
   <trkpt lat="22.7240830" lon="120.2960030">
    <ele>18.4</ele>
    <time>2026-09-27T12:15:54Z</time>
   </trkpt>
   <trkpt lat="22.7240810" lon="120.2960050">
    <ele>18.4</ele>
    <time>2026-09-27T12:15:55Z</time>
   </trkpt>
   <trkpt lat="22.7240640" lon="120.2960040">
    <ele>18.4</ele>
    <time>2026-09-27T12:15:56Z</time>
   </trkpt>
   <trkpt lat="22.7240590" lon="120.2960070">
    <ele>18.4</ele>
    <time>2026-09-27T12:15:57Z</time>
   </trkpt>
   <trkpt lat="22.7240490" lon="120.2960020">
    <ele>18.4</ele>
    <time>2026-09-27T12:15:58Z</time>
   </trkpt>
   <trkpt lat="22.7240510" lon="120.2959990">
    <ele>18.4</ele>
    <time>2026-09-27T12:15:59Z</time>
   </trkpt>
   <trkpt lat="22.7240540" lon="120.2960020">
    <ele>18.4</ele>
    <time>2026-09-27T12:16:00Z</time>
   </trkpt>
   <trkpt lat="22.7240570" lon="120.2960070">
    <ele>18.4</ele>
    <time>2026-09-27T12:16:01Z</time>
   </trkpt>
   <trkpt lat="22.7240600" lon="120.2960010">
    <ele>18.4</ele>
    <time>2026-09-27T12:16:02Z</time>
   </trkpt>
   <trkpt lat="22.7240690" lon="120.2959990">
    <ele>18.4</ele>
    <time>2026-09-27T12:16:03Z</time>
   </trkpt>
   <trkpt lat="22.7240580" lon="120.2959920">
    <ele>18.4</ele>
    <time>2026-09-27T12:16:04Z</time>
   </trkpt>
   <trkpt lat="22.7240490" lon="120.2959990">
    <ele>18.4</ele>
    <time>2026-09-27T12:16:05Z</time>
   </trkpt>
   <trkpt lat="22.7240590" lon="120.2959980">
    <ele>18.4</ele>
    <time>2026-09-27T12:16:06Z</time>
   </trkpt>
   <trkpt lat="22.7240570" lon="120.2960030">
    <ele>18.4</ele>
    <time>2026-09-27T12:16:07Z</time>
   </trkpt>
   <trkpt lat="22.7240630" lon="120.2960120">
    <ele>18.4</ele>
    <time>2026-09-27T12:16:08Z</time>
   </trkpt>
   <trkpt lat="22.7240670" lon="120.2960100">
    <ele>18.4</ele>
    <time>2026-09-27T12:16:09Z</time>
   </trkpt>
   <trkpt lat="22.7240580" lon="120.2960200">
    <ele>18.4</ele>
    <time>2026-09-27T12:16:10Z</time>
   </trkpt>
   <trkpt lat="22.7241510" lon="120.2961170">
    <ele>18.4</ele>
    <time>2026-09-27T12:16:32Z</time>
   </trkpt>
   <trkpt lat="22.7241570" lon="120.2961360">
    <ele>18.4</ele>
    <time>2026-09-27T12:16:33Z</time>
   </trkpt>
   <trkpt lat="22.7241680" lon="120.2961370">
    <ele>18.3</ele>
    <time>2026-09-27T12:16:34Z</time>
   </trkpt>
   <trkpt lat="22.7241820" lon="120.2961460">
    <ele>18.3</ele>
    <time>2026-09-27T12:16:35Z</time>
   </trkpt>
   <trkpt lat="22.7241940" lon="120.2961620">
    <ele>18.3</ele>
    <time>2026-09-27T12:16:36Z</time>
   </trkpt>
   <trkpt lat="22.7242220" lon="120.2961720">
    <ele>18.3</ele>
    <time>2026-09-27T12:16:37Z</time>
   </trkpt>
   <trkpt lat="22.7242300" lon="120.2961730">
    <ele>18.3</ele>
    <time>2026-09-27T12:16:38Z</time>
   </trkpt>
   <trkpt lat="22.7242400" lon="120.2961710">
    <ele>18.3</ele>
    <time>2026-09-27T12:16:39Z</time>
   </trkpt>
   <trkpt lat="22.7242280" lon="120.2961770">
    <ele>18.3</ele>
    <time>2026-09-27T12:16:40Z</time>
   </trkpt>
   <trkpt lat="22.7242180" lon="120.2962060">
    <ele>18.3</ele>
    <time>2026-09-27T12:16:41Z</time>
   </trkpt>
   <trkpt lat="22.7242060" lon="120.2962300">
    <ele>18.3</ele>
    <time>2026-09-27T12:16:42Z</time>
   </trkpt>
   <trkpt lat="22.7241760" lon="120.2962530">
    <ele>18.3</ele>
    <time>2026-09-27T12:16:43Z</time>
   </trkpt>
   <trkpt lat="22.7241820" lon="120.2962590">
    <ele>18.3</ele>
    <time>2026-09-27T12:16:44Z</time>
   </trkpt>
   <trkpt lat="22.7242090" lon="120.2962650">
    <ele>18.3</ele>
    <time>2026-09-27T12:16:45Z</time>
   </trkpt>
   <trkpt lat="22.7242380" lon="120.2962770">
    <ele>18.3</ele>
    <time>2026-09-27T12:16:46Z</time>
   </trkpt>
   <trkpt lat="22.7242340" lon="120.2962900">
    <ele>18.3</ele>
    <time>2026-09-27T12:16:47Z</time>
   </trkpt>
   <trkpt lat="22.7242270" lon="120.2963060">
    <ele>18.3</ele>
    <time>2026-09-27T12:16:48Z</time>
   </trkpt>
   <trkpt lat="22.7242350" lon="120.2963160">
    <ele>18.2</ele>
    <time>2026-09-27T12:16:49Z</time>
   </trkpt>
   <trkpt lat="22.7242300" lon="120.2963100">
    <ele>18.2</ele>
    <time>2026-09-27T12:16:50Z</time>
   </trkpt>
   <trkpt lat="22.7242140" lon="120.2963080">
    <ele>18.2</ele>
    <time>2026-09-27T12:16:51Z</time>
   </trkpt>
   <trkpt lat="22.7242030" lon="120.2963150">
    <ele>18.2</ele>
    <time>2026-09-27T12:16:52Z</time>
   </trkpt>
   <trkpt lat="22.7242040" lon="120.2963140">
    <ele>18.2</ele>
    <time>2026-09-27T12:16:53Z</time>
   </trkpt>
   <trkpt lat="22.7242090" lon="120.2963190">
    <ele>18.2</ele>
    <time>2026-09-27T12:16:54Z</time>
   </trkpt>
   <trkpt lat="22.7242020" lon="120.2963550">
    <ele>18.2</ele>
    <time>2026-09-27T12:16:55Z</time>
   </trkpt>
   <trkpt lat="22.7242120" lon="120.2963580">
    <ele>18.2</ele>
    <time>2026-09-27T12:16:56Z</time>
   </trkpt>
   <trkpt lat="22.7242130" lon="120.2963700">
    <ele>18.2</ele>
    <time>2026-09-27T12:16:57Z</time>
   </trkpt>
   <trkpt lat="22.7242060" lon="120.2963670">
    <ele>18.2</ele>
    <time>2026-09-27T12:16:58Z</time>
   </trkpt>
   <trkpt lat="22.7242090" lon="120.2963610">
    <ele>18.2</ele>
    <time>2026-09-27T12:16:59Z</time>
   </trkpt>
   <trkpt lat="22.7242220" lon="120.2963530">
    <ele>18.2</ele>
    <time>2026-09-27T12:17:00Z</time>
   </trkpt>
   <trkpt lat="22.7242170" lon="120.2963620">
    <ele>18.2</ele>
    <time>2026-09-27T12:17:01Z</time>
   </trkpt>
   <trkpt lat="22.7242020" lon="120.2963650">
    <ele>18.2</ele>
    <time>2026-09-27T12:17:02Z</time>
   </trkpt>
   <trkpt lat="22.7241900" lon="120.2963550">
    <ele>18.2</ele>
    <time>2026-09-27T12:17:03Z</time>
   </trkpt>
   <trkpt lat="22.7241790" lon="120.2963420">
    <ele>18.2</ele>
    <time>2026-09-27T12:17:04Z</time>
   </trkpt>
   <trkpt lat="22.7241750" lon="120.2963350">
    <ele>18.2</ele>
    <time>2026-09-27T12:17:05Z</time>
   </trkpt>
   <trkpt lat="22.7241870" lon="120.2963170">
    <ele>18.2</ele>
    <time>2026-09-27T12:17:06Z</time>
   </trkpt>
   <trkpt lat="22.7241700" lon="120.2963010">
    <ele>18.2</ele>
    <time>2026-09-27T12:17:07Z</time>
   </trkpt>
   <trkpt lat="22.7241850" lon="120.2962900">
    <ele>18.2</ele>
    <time>2026-09-27T12:17:08Z</time>
   </trkpt>
   <trkpt lat="22.7241920" lon="120.2962710">
    <ele>18.2</ele>
    <time>2026-09-27T12:17:09Z</time>
   </trkpt>
   <trkpt lat="22.7241860" lon="120.2962740">
    <ele>18.2</ele>
    <time>2026-09-27T12:17:10Z</time>
   </trkpt>
   <trkpt lat="22.7241970" lon="120.2962500">
    <ele>18.1</ele>
    <time>2026-09-27T12:17:11Z</time>
   </trkpt>
   <trkpt lat="22.7241980" lon="120.2962410">
    <ele>18.1</ele>
    <time>2026-09-27T12:17:12Z</time>
   </trkpt>
   <trkpt lat="22.7241950" lon="120.2962190">
    <ele>18.1</ele>
    <time>2026-09-27T12:17:13Z</time>
   </trkpt>
   <trkpt lat="22.7241820" lon="120.2962060">
    <ele>18.1</ele>
    <time>2026-09-27T12:17:14Z</time>
   </trkpt>
   <trkpt lat="22.7241780" lon="120.2962080">
    <ele>18.1</ele>
    <time>2026-09-27T12:17:15Z</time>
   </trkpt>
   <trkpt lat="22.7241770" lon="120.2961920">
    <ele>18.1</ele>
    <time>2026-09-27T12:17:16Z</time>
   </trkpt>
   <trkpt lat="22.7241880" lon="120.2961780">
    <ele>18.1</ele>
    <time>2026-09-27T12:17:17Z</time>
   </trkpt>
   <trkpt lat="22.7241860" lon="120.2961630">
    <ele>18.1</ele>
    <time>2026-09-27T12:17:18Z</time>
   </trkpt>
   <trkpt lat="22.7241920" lon="120.2961430">
    <ele>18.1</ele>
    <time>2026-09-27T12:17:19Z</time>
   </trkpt>
   <trkpt lat="22.7242070" lon="120.2961260">
    <ele>18.1</ele>
    <time>2026-09-27T12:17:20Z</time>
   </trkpt>
   <trkpt lat="22.7242250" lon="120.2961140">
    <ele>18.1</ele>
    <time>2026-09-27T12:17:21Z</time>
   </trkpt>
   <trkpt lat="22.7242160" lon="120.2960980">
    <ele>18.1</ele>
    <time>2026-09-27T12:17:22Z</time>
   </trkpt>
   <trkpt lat="22.7242170" lon="120.2960810">
    <ele>18.1</ele>
    <time>2026-09-27T12:17:23Z</time>
   </trkpt>
   <trkpt lat="22.7242120" lon="120.2960710">
    <ele>18.1</ele>
    <time>2026-09-27T12:17:24Z</time>
   </trkpt>
   <trkpt lat="22.7242010" lon="120.2960670">
    <ele>18.1</ele>
    <time>2026-09-27T12:17:25Z</time>
   </trkpt>
   <trkpt lat="22.7241930" lon="120.2960520">
    <ele>18.1</ele>
    <time>2026-09-27T12:17:26Z</time>
   </trkpt>
   <trkpt lat="22.7241880" lon="120.2960400">
    <ele>18.1</ele>
    <time>2026-09-27T12:17:27Z</time>
   </trkpt>
   <trkpt lat="22.7241750" lon="120.2960330">
    <ele>18.1</ele>
    <time>2026-09-27T12:17:28Z</time>
   </trkpt>
   <trkpt lat="22.7241620" lon="120.2960230">
    <ele>18.0</ele>
    <time>2026-09-27T12:17:29Z</time>
   </trkpt>
   <trkpt lat="22.7241590" lon="120.2960090">
    <ele>18.0</ele>
    <time>2026-09-27T12:17:30Z</time>
   </trkpt>
   <trkpt lat="22.7241500" lon="120.2959990">
    <ele>18.0</ele>
    <time>2026-09-27T12:17:31Z</time>
   </trkpt>
   <trkpt lat="22.7241500" lon="120.2959860">
    <ele>18.0</ele>
    <time>2026-09-27T12:17:32Z</time>
   </trkpt>
   <trkpt lat="22.7241490" lon="120.2959740">
    <ele>18.0</ele>
    <time>2026-09-27T12:17:33Z</time>
   </trkpt>
   <trkpt lat="22.7241440" lon="120.2959660">
    <ele>18.0</ele>
    <time>2026-09-27T12:17:34Z</time>
   </trkpt>
   <trkpt lat="22.7241270" lon="120.2959540">
    <ele>18.0</ele>
    <time>2026-09-27T12:17:35Z</time>
   </trkpt>
   <trkpt lat="22.7241070" lon="120.2959560">
    <ele>18.0</ele>
    <time>2026-09-27T12:17:36Z</time>
   </trkpt>
   <trkpt lat="22.7240880" lon="120.2959520">
    <ele>18.0</ele>
    <time>2026-09-27T12:17:37Z</time>
   </trkpt>
   <trkpt lat="22.7240820" lon="120.2959390">
    <ele>18.0</ele>
    <time>2026-09-27T12:17:38Z</time>
   </trkpt>
   <trkpt lat="22.7240770" lon="120.2959270">
    <ele>18.0</ele>
    <time>2026-09-27T12:17:39Z</time>
   </trkpt>
   <trkpt lat="22.7240710" lon="120.2959190">
    <ele>18.0</ele>
    <time>2026-09-27T12:17:40Z</time>
   </trkpt>
   <trkpt lat="22.7240640" lon="120.2959120">
    <ele>18.0</ele>
    <time>2026-09-27T12:17:41Z</time>
   </trkpt>
   <trkpt lat="22.7240570" lon="120.2959070">
    <ele>18.0</ele>
    <time>2026-09-27T12:17:42Z</time>
   </trkpt>
   <trkpt lat="22.7240470" lon="120.2958930">
    <ele>17.9</ele>
    <time>2026-09-27T12:17:43Z</time>
   </trkpt>
   <trkpt lat="22.7240440" lon="120.2958890">
    <ele>17.9</ele>
    <time>2026-09-27T12:17:44Z</time>
   </trkpt>
   <trkpt lat="22.7240390" lon="120.2958810">
    <ele>17.8</ele>
    <time>2026-09-27T12:17:45Z</time>
   </trkpt>
   <trkpt lat="22.7240310" lon="120.2958730">
    <ele>17.6</ele>
    <time>2026-09-27T12:17:46Z</time>
   </trkpt>
   <trkpt lat="22.7240210" lon="120.2958710">
    <ele>17.5</ele>
    <time>2026-09-27T12:17:47Z</time>
   </trkpt>
   <trkpt lat="22.7240150" lon="120.2958630">
    <ele>17.4</ele>
    <time>2026-09-27T12:17:48Z</time>
   </trkpt>
   <trkpt lat="22.7240050" lon="120.2958640">
    <ele>17.2</ele>
    <time>2026-09-27T12:17:49Z</time>
   </trkpt>
   <trkpt lat="22.7240020" lon="120.2958690">
    <ele>17.2</ele>
    <time>2026-09-27T12:17:50Z</time>
   </trkpt>
   <trkpt lat="22.7239950" lon="120.2958700">
    <ele>17.1</ele>
    <time>2026-09-27T12:17:51Z</time>
   </trkpt>
   <trkpt lat="22.7239870" lon="120.2958730">
    <ele>17.0</ele>
    <time>2026-09-27T12:17:52Z</time>
   </trkpt>
   <trkpt lat="22.7239820" lon="120.2958820">
    <ele>16.9</ele>
    <time>2026-09-27T12:17:53Z</time>
   </trkpt>
   <trkpt lat="22.7239700" lon="120.2958800">
    <ele>16.7</ele>
    <time>2026-09-27T12:17:54Z</time>
   </trkpt>
   <trkpt lat="22.7239600" lon="120.2958860">
    <ele>16.6</ele>
    <time>2026-09-27T12:17:55Z</time>
   </trkpt>
   <trkpt lat="22.7239480" lon="120.2958890">
    <ele>16.4</ele>
    <time>2026-09-27T12:17:56Z</time>
   </trkpt>
   <trkpt lat="22.7239410" lon="120.2958960">
    <ele>16.3</ele>
    <time>2026-09-27T12:17:57Z</time>
   </trkpt>
   <trkpt lat="22.7239280" lon="120.2959010">
    <ele>16.1</ele>
    <time>2026-09-27T12:17:58Z</time>
   </trkpt>
   <trkpt lat="22.7239190" lon="120.2959040">
    <ele>16.0</ele>
    <time>2026-09-27T12:17:59Z</time>
   </trkpt>
   <trkpt lat="22.7239100" lon="120.2959150">
    <ele>15.8</ele>
    <time>2026-09-27T12:18:00Z</time>
   </trkpt>
   <trkpt lat="22.7239060" lon="120.2959250">
    <ele>15.7</ele>
    <time>2026-09-27T12:18:01Z</time>
   </trkpt>
   <trkpt lat="22.7239060" lon="120.2959280">
    <ele>15.7</ele>
    <time>2026-09-27T12:18:02Z</time>
   </trkpt>
   <trkpt lat="22.7238960" lon="120.2959250">
    <ele>15.6</ele>
    <time>2026-09-27T12:18:03Z</time>
   </trkpt>
   <trkpt lat="22.7238840" lon="120.2959310">
    <ele>15.4</ele>
    <time>2026-09-27T12:18:04Z</time>
   </trkpt>
   <trkpt lat="22.7238730" lon="120.2959320">
    <ele>15.3</ele>
    <time>2026-09-27T12:18:05Z</time>
   </trkpt>
   <trkpt lat="22.7238670" lon="120.2959320">
    <ele>15.2</ele>
    <time>2026-09-27T12:18:06Z</time>
   </trkpt>
   <trkpt lat="22.7238610" lon="120.2959290">
    <ele>15.1</ele>
    <time>2026-09-27T12:18:07Z</time>
   </trkpt>
   <trkpt lat="22.7238540" lon="120.2959380">
    <ele>15.0</ele>
    <time>2026-09-27T12:18:08Z</time>
   </trkpt>
   <trkpt lat="22.7238400" lon="120.2959450">
    <ele>14.8</ele>
    <time>2026-09-27T12:18:09Z</time>
   </trkpt>
   <trkpt lat="22.7238290" lon="120.2959500">
    <ele>14.6</ele>
    <time>2026-09-27T12:18:10Z</time>
   </trkpt>
   <trkpt lat="22.7238210" lon="120.2959550">
    <ele>14.5</ele>
    <time>2026-09-27T12:18:11Z</time>
   </trkpt>
   <trkpt lat="22.7238080" lon="120.2959580">
    <ele>14.3</ele>
    <time>2026-09-27T12:18:12Z</time>
   </trkpt>
   <trkpt lat="22.7238010" lon="120.2959620">
    <ele>14.2</ele>
    <time>2026-09-27T12:18:13Z</time>
   </trkpt>
   <trkpt lat="22.7237900" lon="120.2959700">
    <ele>14.0</ele>
    <time>2026-09-27T12:18:14Z</time>
   </trkpt>
   <trkpt lat="22.7237800" lon="120.2959790">
    <ele>13.9</ele>
    <time>2026-09-27T12:18:15Z</time>
   </trkpt>
   <trkpt lat="22.7237700" lon="120.2959900">
    <ele>13.7</ele>
    <time>2026-09-27T12:18:16Z</time>
   </trkpt>
   <trkpt lat="22.7237690" lon="120.2959960">
    <ele>13.7</ele>
    <time>2026-09-27T12:18:17Z</time>
   </trkpt>
   <trkpt lat="22.7237660" lon="120.2960050">
    <ele>13.7</ele>
    <time>2026-09-27T12:18:18Z</time>
   </trkpt>
   <trkpt lat="22.7237670" lon="120.2960110">
    <ele>13.7</ele>
    <time>2026-09-27T12:18:19Z</time>
   </trkpt>
   <trkpt lat="22.7237670" lon="120.2960140">
    <ele>13.8</ele>
    <time>2026-09-27T12:18:20Z</time>
   </trkpt>
   <trkpt lat="22.7237690" lon="120.2960240">
    <ele>13.8</ele>
    <time>2026-09-27T12:18:21Z</time>
   </trkpt>
   <trkpt lat="22.7237690" lon="120.2960380">
    <ele>13.8</ele>
    <time>2026-09-27T12:18:22Z</time>
   </trkpt>
   <trkpt lat="22.7237710" lon="120.2960480">
    <ele>13.8</ele>
    <time>2026-09-27T12:18:23Z</time>
   </trkpt>
   <trkpt lat="22.7237740" lon="120.2960630">
    <ele>13.9</ele>
    <time>2026-09-27T12:18:24Z</time>
   </trkpt>
   <trkpt lat="22.7237790" lon="120.2960720">
    <ele>13.9</ele>
    <time>2026-09-27T12:18:25Z</time>
   </trkpt>
   <trkpt lat="22.7237830" lon="120.2960770">
    <ele>13.9</ele>
    <time>2026-09-27T12:18:26Z</time>
   </trkpt>
   <trkpt lat="22.7237860" lon="120.2960930">
    <ele>13.9</ele>
    <time>2026-09-27T12:18:27Z</time>
   </trkpt>
   <trkpt lat="22.7237900" lon="120.2960980">
    <ele>13.9</ele>
    <time>2026-09-27T12:18:28Z</time>
   </trkpt>
   <trkpt lat="22.7237960" lon="120.2961080">
    <ele>14.0</ele>
    <time>2026-09-27T12:18:29Z</time>
   </trkpt>
   <trkpt lat="22.7238020" lon="120.2961200">
    <ele>14.0</ele>
    <time>2026-09-27T12:18:30Z</time>
   </trkpt>
   <trkpt lat="22.7238060" lon="120.2961310">
    <ele>14.0</ele>
    <time>2026-09-27T12:18:31Z</time>
   </trkpt>
   <trkpt lat="22.7238080" lon="120.2961430">
    <ele>14.1</ele>
    <time>2026-09-27T12:18:32Z</time>
   </trkpt>
   <trkpt lat="22.7238110" lon="120.2961520">
    <ele>14.1</ele>
    <time>2026-09-27T12:18:33Z</time>
   </trkpt>
   <trkpt lat="22.7238160" lon="120.2961660">
    <ele>14.1</ele>
    <time>2026-09-27T12:18:34Z</time>
   </trkpt>
   <trkpt lat="22.7238210" lon="120.2961780">
    <ele>14.2</ele>
    <time>2026-09-27T12:18:35Z</time>
   </trkpt>
   <trkpt lat="22.7238250" lon="120.2961860">
    <ele>14.2</ele>
    <time>2026-09-27T12:18:36Z</time>
   </trkpt>
   <trkpt lat="22.7238320" lon="120.2961970">
    <ele>14.2</ele>
    <time>2026-09-27T12:18:37Z</time>
   </trkpt>
   <trkpt lat="22.7238350" lon="120.2962110">
    <ele>14.3</ele>
    <time>2026-09-27T12:18:38Z</time>
   </trkpt>
   <trkpt lat="22.7238350" lon="120.2962170">
    <ele>14.3</ele>
    <time>2026-09-27T12:18:39Z</time>
   </trkpt>
   <trkpt lat="22.7238430" lon="120.2962230">
    <ele>14.3</ele>
    <time>2026-09-27T12:18:40Z</time>
   </trkpt>
   <trkpt lat="22.7238470" lon="120.2962300">
    <ele>14.3</ele>
    <time>2026-09-27T12:18:41Z</time>
   </trkpt>
   <trkpt lat="22.7238500" lon="120.2962440">
    <ele>14.4</ele>
    <time>2026-09-27T12:18:42Z</time>
   </trkpt>
   <trkpt lat="22.7238500" lon="120.2962550">
    <ele>14.4</ele>
    <time>2026-09-27T12:18:43Z</time>
   </trkpt>
   <trkpt lat="22.7238530" lon="120.2962660">
    <ele>14.4</ele>
    <time>2026-09-27T12:18:44Z</time>
   </trkpt>
   <trkpt lat="22.7238580" lon="120.2962770">
    <ele>14.4</ele>
    <time>2026-09-27T12:18:45Z</time>
   </trkpt>
   <trkpt lat="22.7238610" lon="120.2962860">
    <ele>14.5</ele>
    <time>2026-09-27T12:18:46Z</time>
   </trkpt>
   <trkpt lat="22.7238650" lon="120.2962940">
    <ele>14.5</ele>
    <time>2026-09-27T12:18:47Z</time>
   </trkpt>
   <trkpt lat="22.7238690" lon="120.2963100">
    <ele>14.5</ele>
    <time>2026-09-27T12:18:48Z</time>
   </trkpt>
   <trkpt lat="22.7238730" lon="120.2963220">
    <ele>14.6</ele>
    <time>2026-09-27T12:18:49Z</time>
   </trkpt>
   <trkpt lat="22.7238770" lon="120.2963310">
    <ele>14.6</ele>
    <time>2026-09-27T12:18:50Z</time>
   </trkpt>
   <trkpt lat="22.7238790" lon="120.2963400">
    <ele>14.6</ele>
    <time>2026-09-27T12:18:51Z</time>
   </trkpt>
   <trkpt lat="22.7238860" lon="120.2963520">
    <ele>14.6</ele>
    <time>2026-09-27T12:18:52Z</time>
   </trkpt>
   <trkpt lat="22.7238890" lon="120.2963630">
    <ele>14.7</ele>
    <time>2026-09-27T12:18:53Z</time>
   </trkpt>
   <trkpt lat="22.7238890" lon="120.2963750">
    <ele>14.7</ele>
    <time>2026-09-27T12:18:54Z</time>
   </trkpt>
   <trkpt lat="22.7238980" lon="120.2963820">
    <ele>14.7</ele>
    <time>2026-09-27T12:18:55Z</time>
   </trkpt>
   <trkpt lat="22.7239010" lon="120.2963920">
    <ele>14.7</ele>
    <time>2026-09-27T12:18:56Z</time>
   </trkpt>
   <trkpt lat="22.7239030" lon="120.2964070">
    <ele>14.8</ele>
    <time>2026-09-27T12:18:57Z</time>
   </trkpt>
   <trkpt lat="22.7239060" lon="120.2964140">
    <ele>14.8</ele>
    <time>2026-09-27T12:18:58Z</time>
   </trkpt>
   <trkpt lat="22.7239130" lon="120.2964180">
    <ele>14.8</ele>
    <time>2026-09-27T12:18:59Z</time>
   </trkpt>
   <trkpt lat="22.7239180" lon="120.2964300">
    <ele>14.8</ele>
    <time>2026-09-27T12:19:00Z</time>
   </trkpt>
   <trkpt lat="22.7239170" lon="120.2964340">
    <ele>14.8</ele>
    <time>2026-09-27T12:19:01Z</time>
   </trkpt>
   <trkpt lat="22.7239190" lon="120.2964460">
    <ele>14.9</ele>
    <time>2026-09-27T12:19:02Z</time>
   </trkpt>
   <trkpt lat="22.7239220" lon="120.2964570">
    <ele>14.9</ele>
    <time>2026-09-27T12:19:03Z</time>
   </trkpt>
   <trkpt lat="22.7239250" lon="120.2964670">
    <ele>14.9</ele>
    <time>2026-09-27T12:19:04Z</time>
   </trkpt>
   <trkpt lat="22.7239240" lon="120.2964760">
    <ele>14.9</ele>
    <time>2026-09-27T12:19:05Z</time>
   </trkpt>
   <trkpt lat="22.7239240" lon="120.2964740">
    <ele>15.0</ele>
    <time>2026-09-27T12:19:06Z</time>
   </trkpt>
   <trkpt lat="22.7239240" lon="120.2964760">
    <ele>15.0</ele>
    <time>2026-09-27T12:19:07Z</time>
   </trkpt>
   <trkpt lat="22.7239270" lon="120.2964800">
    <ele>15.0</ele>
    <time>2026-09-27T12:19:08Z</time>
   </trkpt>
   <trkpt lat="22.7239280" lon="120.2964910">
    <ele>15.0</ele>
    <time>2026-09-27T12:19:09Z</time>
   </trkpt>
   <trkpt lat="22.7239330" lon="120.2965030">
    <ele>15.0</ele>
    <time>2026-09-27T12:19:10Z</time>
   </trkpt>
   <trkpt lat="22.7239350" lon="120.2965180">
    <ele>15.1</ele>
    <time>2026-09-27T12:19:11Z</time>
   </trkpt>
   <trkpt lat="22.7239440" lon="120.2965300">
    <ele>15.1</ele>
    <time>2026-09-27T12:19:12Z</time>
   </trkpt>
   <trkpt lat="22.7239480" lon="120.2965390">
    <ele>15.1</ele>
    <time>2026-09-27T12:19:13Z</time>
   </trkpt>
   <trkpt lat="22.7239500" lon="120.2965510">
    <ele>15.1</ele>
    <time>2026-09-27T12:19:14Z</time>
   </trkpt>
   <trkpt lat="22.7239480" lon="120.2965660">
    <ele>15.2</ele>
    <time>2026-09-27T12:19:15Z</time>
   </trkpt>
   <trkpt lat="22.7239480" lon="120.2965800">
    <ele>15.2</ele>
    <time>2026-09-27T12:19:16Z</time>
   </trkpt>
   <trkpt lat="22.7239510" lon="120.2965940">
    <ele>15.2</ele>
    <time>2026-09-27T12:19:17Z</time>
   </trkpt>
   <trkpt lat="22.7239510" lon="120.2966060">
    <ele>15.2</ele>
    <time>2026-09-27T12:19:18Z</time>
   </trkpt>
   <trkpt lat="22.7239510" lon="120.2966200">
    <ele>15.2</ele>
    <time>2026-09-27T12:19:19Z</time>
   </trkpt>
   <trkpt lat="22.7239560" lon="120.2966340">
    <ele>15.2</ele>
    <time>2026-09-27T12:19:20Z</time>
   </trkpt>
   <trkpt lat="22.7239580" lon="120.2966430">
    <ele>15.2</ele>
    <time>2026-09-27T12:19:21Z</time>
   </trkpt>
   <trkpt lat="22.7239600" lon="120.2966560">
    <ele>15.2</ele>
    <time>2026-09-27T12:19:22Z</time>
   </trkpt>
   <trkpt lat="22.7239630" lon="120.2966690">
    <ele>15.3</ele>
    <time>2026-09-27T12:19:23Z</time>
   </trkpt>
   <trkpt lat="22.7239660" lon="120.2966780">
    <ele>15.3</ele>
    <time>2026-09-27T12:19:24Z</time>
   </trkpt>
   <trkpt lat="22.7239740" lon="120.2966870">
    <ele>15.3</ele>
    <time>2026-09-27T12:19:25Z</time>
   </trkpt>
   <trkpt lat="22.7239810" lon="120.2966980">
    <ele>15.3</ele>
    <time>2026-09-27T12:19:26Z</time>
   </trkpt>
   <trkpt lat="22.7239830" lon="120.2967060">
    <ele>15.3</ele>
    <time>2026-09-27T12:19:27Z</time>
   </trkpt>
   <trkpt lat="22.7239890" lon="120.2967160">
    <ele>15.3</ele>
    <time>2026-09-27T12:19:28Z</time>
   </trkpt>
   <trkpt lat="22.7239910" lon="120.2967230">
    <ele>15.3</ele>
    <time>2026-09-27T12:19:29Z</time>
   </trkpt>
   <trkpt lat="22.7239970" lon="120.2967260">
    <ele>15.3</ele>
    <time>2026-09-27T12:19:30Z</time>
   </trkpt>
   <trkpt lat="22.7240040" lon="120.2967260">
    <ele>15.3</ele>
    <time>2026-09-27T12:19:31Z</time>
   </trkpt>
   <trkpt lat="22.7240140" lon="120.2967260">
    <ele>15.3</ele>
    <time>2026-09-27T12:19:32Z</time>
   </trkpt>
   <trkpt lat="22.7240300" lon="120.2967310">
    <ele>15.3</ele>
    <time>2026-09-27T12:19:33Z</time>
   </trkpt>
   <trkpt lat="22.7240420" lon="120.2967370">
    <ele>15.3</ele>
    <time>2026-09-27T12:19:34Z</time>
   </trkpt>
   <trkpt lat="22.7240450" lon="120.2967490">
    <ele>15.3</ele>
    <time>2026-09-27T12:19:35Z</time>
   </trkpt>
   <trkpt lat="22.7240500" lon="120.2967600">
    <ele>15.3</ele>
    <time>2026-09-27T12:19:36Z</time>
   </trkpt>
   <trkpt lat="22.7240610" lon="120.2967630">
    <ele>15.3</ele>
    <time>2026-09-27T12:19:37Z</time>
   </trkpt>
   <trkpt lat="22.7240710" lon="120.2967570">
    <ele>15.3</ele>
    <time>2026-09-27T12:19:38Z</time>
   </trkpt>
   <trkpt lat="22.7240750" lon="120.2967480">
    <ele>15.3</ele>
    <time>2026-09-27T12:19:39Z</time>
   </trkpt>
   <trkpt lat="22.7240680" lon="120.2967500">
    <ele>15.3</ele>
    <time>2026-09-27T12:19:40Z</time>
   </trkpt>
   <trkpt lat="22.7240660" lon="120.2967510">
    <ele>15.3</ele>
    <time>2026-09-27T12:19:41Z</time>
   </trkpt>
   <trkpt lat="22.7240700" lon="120.2967510">
    <ele>15.3</ele>
    <time>2026-09-27T12:19:42Z</time>
   </trkpt>
   <trkpt lat="22.7240680" lon="120.2967510">
    <ele>15.3</ele>
    <time>2026-09-27T12:19:43Z</time>
   </trkpt>
   <trkpt lat="22.7240690" lon="120.2967510">
    <ele>15.3</ele>
    <time>2026-09-27T12:19:44Z</time>
   </trkpt>
   <trkpt lat="22.7240750" lon="120.2967510">
    <ele>15.3</ele>
    <time>2026-09-27T12:19:45Z</time>
   </trkpt>
   <trkpt lat="22.7240770" lon="120.2967530">
    <ele>15.3</ele>
    <time>2026-09-27T12:19:46Z</time>
   </trkpt>
   <trkpt lat="22.7240830" lon="120.2967600">
    <ele>15.3</ele>
    <time>2026-09-27T12:19:47Z</time>
   </trkpt>
   <trkpt lat="22.7240610" lon="120.2967480">
    <ele>15.4</ele>
    <time>2026-09-27T12:19:53Z</time>
   </trkpt>
   <trkpt lat="22.7240680" lon="120.2967490">
    <ele>15.4</ele>
    <time>2026-09-27T12:19:54Z</time>
   </trkpt>
   <trkpt lat="22.7240570" lon="120.2967550">
    <ele>15.4</ele>
    <time>2026-09-27T12:19:55Z</time>
   </trkpt>
   <trkpt lat="22.7240540" lon="120.2967550">
    <ele>15.4</ele>
    <time>2026-09-27T12:19:56Z</time>
   </trkpt>
   <trkpt lat="22.7240560" lon="120.2967590">
    <ele>15.4</ele>
    <time>2026-09-27T12:19:57Z</time>
   </trkpt>
   <trkpt lat="22.7240500" lon="120.2967650">
    <ele>15.4</ele>
    <time>2026-09-27T12:19:58Z</time>
   </trkpt>
   <trkpt lat="22.7240620" lon="120.2967590">
    <ele>15.4</ele>
    <time>2026-09-27T12:19:59Z</time>
   </trkpt>
   <trkpt lat="22.7240680" lon="120.2967600">
    <ele>15.4</ele>
    <time>2026-09-27T12:20:00Z</time>
   </trkpt>
   <trkpt lat="22.7240790" lon="120.2967510">
    <ele>15.4</ele>
    <time>2026-09-27T12:20:01Z</time>
   </trkpt>
   <trkpt lat="22.7240810" lon="120.2967640">
    <ele>15.4</ele>
    <time>2026-09-27T12:20:02Z</time>
   </trkpt>
  </trkseg>
 </trk>
</gpx>
