<?xml version="1.0" encoding="UTF-8"?>
<gpx creator="StravaGPX" version="1.1" xmlns="http://www.topografix.com/GPX/1/1" xmlns:xsi="http://www.w3.org/2001/XMLSchema-instance" xsi:schemaLocation="http://www.topografix.com/GPX/1/1 http://www.topografix.com/GPX/1/1/gpx.xsd">
 <metadata>
  <time>2026-10-07T12:56:30Z</time>
 </metadata>
 <trk>
  <name>傍晚步行</name>
  <type>walking</type>
  <trkseg>
   <trkpt lat="22.7366260" lon="120.3299950">
    <ele>17.3</ele>
    <time>2026-10-07T12:56:30Z</time>
   </trkpt>
   <trkpt lat="22.7366400" lon="120.3299740">
    <ele>16.9</ele>
    <time>2026-10-07T12:56:31Z</time>
   </trkpt>
   <trkpt lat="22.7366470" lon="120.3299660">
    <ele>16.8</ele>
    <time>2026-10-07T12:56:32Z</time>
   </trkpt>
   <trkpt lat="22.7366530" lon="120.3299590">
    <ele>16.6</ele>
    <time>2026-10-07T12:56:33Z</time>
   </trkpt>
   <trkpt lat="22.7366580" lon="120.3299550">
    <ele>16.6</ele>
    <time>2026-10-07T12:56:34Z</time>
   </trkpt>
   <trkpt lat="22.7366620" lon="120.3299380">
    <ele>16.3</ele>
    <time>2026-10-07T12:56:35Z</time>
   </trkpt>
   <trkpt lat="22.7366700" lon="120.3299250">
    <ele>16.1</ele>
    <time>2026-10-07T12:56:36Z</time>
   </trkpt>
   <trkpt lat="22.7366800" lon="120.3299130">
    <ele>15.9</ele>
    <time>2026-10-07T12:56:37Z</time>
   </trkpt>
   <trkpt lat="22.7366910" lon="120.3299000">
    <ele>15.6</ele>
    <time>2026-10-07T12:56:38Z</time>
   </trkpt>
   <trkpt lat="22.7367040" lon="120.3298860">
    <ele>15.4</ele>
    <time>2026-10-07T12:56:39Z</time>
   </trkpt>
   <trkpt lat="22.7367160" lon="120.3298740">
    <ele>15.1</ele>
    <time>2026-10-07T12:56:40Z</time>
   </trkpt>
   <trkpt lat="22.7366990" lon="120.3298450">
    <ele>14.6</ele>
    <time>2026-10-07T12:56:41Z</time>
   </trkpt>
   <trkpt lat="22.7367110" lon="120.3298400">
    <ele>14.5</ele>
    <time>2026-10-07T12:56:42Z</time>
   </trkpt>
   <trkpt lat="22.7367210" lon="120.3298330">
    <ele>14.3</ele>
    <time>2026-10-07T12:56:43Z</time>
   </trkpt>
   <trkpt lat="22.7367410" lon="120.3298340">
    <ele>14.0</ele>
    <time>2026-10-07T12:56:44Z</time>
   </trkpt>
   <trkpt lat="22.7367680" lon="120.3298330">
    <ele>14.2</ele>
    <time>2026-10-07T12:56:45Z</time>
   </trkpt>
   <trkpt lat="22.7367850" lon="120.3298250">
    <ele>14.4</ele>
    <time>2026-10-07T12:56:46Z</time>
   </trkpt>
   <trkpt lat="22.7368000" lon="120.3298150">
    <ele>14.5</ele>
    <time>2026-10-07T12:56:47Z</time>
   </trkpt>
   <trkpt lat="22.7368210" lon="120.3297980">
    <ele>14.7</ele>
    <time>2026-10-07T12:56:48Z</time>
   </trkpt>
   <trkpt lat="22.7368390" lon="120.3297830">
    <ele>14.9</ele>
    <time>2026-10-07T12:56:49Z</time>
   </trkpt>
   <trkpt lat="22.7368540" lon="120.3297710">
    <ele>15.0</ele>
    <time>2026-10-07T12:56:50Z</time>
   </trkpt>
   <trkpt lat="22.7368650" lon="120.3297610">
    <ele>15.1</ele>
    <time>2026-10-07T12:56:51Z</time>
   </trkpt>
   <trkpt lat="22.7368750" lon="120.3297450">
    <ele>15.2</ele>
    <time>2026-10-07T12:56:52Z</time>
   </trkpt>
   <trkpt lat="22.7368860" lon="120.3297350">
    <ele>15.3</ele>
    <time>2026-10-07T12:56:53Z</time>
   </trkpt>
   <trkpt lat="22.7368990" lon="120.3297250">
    <ele>15.4</ele>
    <time>2026-10-07T12:56:54Z</time>
   </trkpt>
   <trkpt lat="22.7369130" lon="120.3297080">
    <ele>15.5</ele>
    <time>2026-10-07T12:56:55Z</time>
   </trkpt>
   <trkpt lat="22.7369220" lon="120.3296930">
    <ele>15.6</ele>
    <time>2026-10-07T12:56:56Z</time>
   </trkpt>
   <trkpt lat="22.7369410" lon="120.3296820">
    <ele>15.8</ele>
    <time>2026-10-07T12:56:57Z</time>
   </trkpt>
   <trkpt lat="22.7369540" lon="120.3296680">
    <ele>15.9</ele>
    <time>2026-10-07T12:56:58Z</time>
   </trkpt>
   <trkpt lat="22.7369580" lon="120.3296500">
    <ele>16.0</ele>
    <time>2026-10-07T12:56:59Z</time>
   </trkpt>
   <trkpt lat="22.7369630" lon="120.3296280">
    <ele>16.1</ele>
    <time>2026-10-07T12:57:00Z</time>
   </trkpt>
   <trkpt lat="22.7369690" lon="120.3296090">
    <ele>16.2</ele>
    <time>2026-10-07T12:57:01Z</time>
   </trkpt>
   <trkpt lat="22.7369780" lon="120.3295840">
    <ele>16.3</ele>
    <time>2026-10-07T12:57:02Z</time>
   </trkpt>
   <trkpt lat="22.7369910" lon="120.3295660">
    <ele>16.5</ele>
    <time>2026-10-07T12:57:03Z</time>
   </trkpt>
   <trkpt lat="22.7369940" lon="120.3295510">
    <ele>16.5</ele>
    <time>2026-10-07T12:57:04Z</time>
   </trkpt>
   <trkpt lat="22.7369980" lon="120.3295400">
    <ele>16.6</ele>
    <time>2026-10-07T12:57:05Z</time>
   </trkpt>
   <trkpt lat="22.7370050" lon="120.3295310">
    <ele>16.6</ele>
    <time>2026-10-07T12:57:06Z</time>
   </trkpt>
   <trkpt lat="22.7370280" lon="120.3295330">
    <ele>16.8</ele>
    <time>2026-10-07T12:57:07Z</time>
   </trkpt>
   <trkpt lat="22.7370340" lon="120.3295200">
    <ele>16.8</ele>
    <time>2026-10-07T12:57:08Z</time>
   </trkpt>
   <trkpt lat="22.7370440" lon="120.3295100">
    <ele>16.9</ele>
    <time>2026-10-07T12:57:09Z</time>
   </trkpt>
   <trkpt lat="22.7370550" lon="120.3295040">
    <ele>16.9</ele>
    <time>2026-10-07T12:57:10Z</time>
   </trkpt>
   <trkpt lat="22.7370640" lon="120.3294970">
    <ele>17.0</ele>
    <time>2026-10-07T12:57:11Z</time>
   </trkpt>
   <trkpt lat="22.7370720" lon="120.3294880">
    <ele>17.0</ele>
    <time>2026-10-07T12:57:12Z</time>
   </trkpt>
   <trkpt lat="22.7370800" lon="120.3294760">
    <ele>17.1</ele>
    <time>2026-10-07T12:57:13Z</time>
   </trkpt>
   <trkpt lat="22.7370890" lon="120.3294670">
    <ele>17.2</ele>
    <time>2026-10-07T12:57:14Z</time>
   </trkpt>
   <trkpt lat="22.7370980" lon="120.3294540">
    <ele>17.2</ele>
    <time>2026-10-07T12:57:15Z</time>
   </trkpt>
   <trkpt lat="22.7371090" lon="120.3294440">
    <ele>17.3</ele>
    <time>2026-10-07T12:57:16Z</time>
   </trkpt>
   <trkpt lat="22.7371160" lon="120.3294340">
    <ele>17.3</ele>
    <time>2026-10-07T12:57:17Z</time>
   </trkpt>
   <trkpt lat="22.7371270" lon="120.3294230">
    <ele>17.4</ele>
    <time>2026-10-07T12:57:18Z</time>
   </trkpt>
   <trkpt lat="22.7371360" lon="120.3294120">
    <ele>17.5</ele>
    <time>2026-10-07T12:57:19Z</time>
   </trkpt>
   <trkpt lat="22.7371450" lon="120.3293960">
    <ele>17.5</ele>
    <time>2026-10-07T12:57:20Z</time>
   </trkpt>
   <trkpt lat="22.7371540" lon="120.3293840">
    <ele>17.6</ele>
    <time>2026-10-07T12:57:21Z</time>
   </trkpt>
   <trkpt lat="22.7371640" lon="120.3293730">
    <ele>17.6</ele>
    <time>2026-10-07T12:57:22Z</time>
   </trkpt>
   <trkpt lat="22.7371750" lon="120.3293640">
    <ele>17.7</ele>
    <time>2026-10-07T12:57:23Z</time>
   </trkpt>
   <trkpt lat="22.7371860" lon="120.3293570">
    <ele>17.7</ele>
    <time>2026-10-07T12:57:24Z</time>
   </trkpt>
   <trkpt lat="22.7371920" lon="120.3293500">
    <ele>17.8</ele>
    <time>2026-10-07T12:57:25Z</time>
   </trkpt>
   <trkpt lat="22.7372030" lon="120.3293400">
    <ele>17.8</ele>
    <time>2026-10-07T12:57:26Z</time>
   </trkpt>
   <trkpt lat="22.7372080" lon="120.3293320">
    <ele>17.9</ele>
    <time>2026-10-07T12:57:27Z</time>
   </trkpt>
   <trkpt lat="22.7372170" lon="120.3293250">
    <ele>17.9</ele>
    <time>2026-10-07T12:57:28Z</time>
   </trkpt>
   <trkpt lat="22.7372300" lon="120.3293140">
    <ele>18.0</ele>
    <time>2026-10-07T12:57:29Z</time>
   </trkpt>
   <trkpt lat="22.7372410" lon="120.3293010">
    <ele>18.0</ele>
    <time>2026-10-07T12:57:30Z</time>
   </trkpt>
   <trkpt lat="22.7372530" lon="120.3292920">
    <ele>18.1</ele>
    <time>2026-10-07T12:57:31Z</time>
   </trkpt>
   <trkpt lat="22.7372630" lon="120.3292790">
    <ele>18.1</ele>
    <time>2026-10-07T12:57:32Z</time>
   </trkpt>
   <trkpt lat="22.7372780" lon="120.3292700">
    <ele>18.2</ele>
    <time>2026-10-07T12:57:33Z</time>
   </trkpt>
   <trkpt lat="22.7372910" lon="120.3292600">
    <ele>18.2</ele>
    <time>2026-10-07T12:57:34Z</time>
   </trkpt>
   <trkpt lat="22.7373010" lon="120.3292520">
    <ele>18.3</ele>
    <time>2026-10-07T12:57:35Z</time>
   </trkpt>
   <trkpt lat="22.7373130" lon="120.3292430">
    <ele>18.3</ele>
    <time>2026-10-07T12:57:36Z</time>
   </trkpt>
   <trkpt lat="22.7373200" lon="120.3292370">
    <ele>18.3</ele>
    <time>2026-10-07T12:57:37Z</time>
   </trkpt>
   <trkpt lat="22.7373290" lon="120.3292270">
    <ele>18.4</ele>
    <time>2026-10-07T12:57:38Z</time>
   </trkpt>
   <trkpt lat="22.7373400" lon="120.3292170">
    <ele>18.4</ele>
    <time>2026-10-07T12:57:39Z</time>
   </trkpt>
   <trkpt lat="22.7373480" lon="120.3292050">
    <ele>18.5</ele>
    <time>2026-10-07T12:57:40Z</time>
   </trkpt>
   <trkpt lat="22.7373590" lon="120.3291940">
    <ele>18.5</ele>
    <time>2026-10-07T12:57:41Z</time>
   </trkpt>
   <trkpt lat="22.7373750" lon="120.3291940">
    <ele>18.6</ele>
    <time>2026-10-07T12:57:42Z</time>
   </trkpt>
   <trkpt lat="22.7373830" lon="120.3291790">
    <ele>18.6</ele>
    <time>2026-10-07T12:57:43Z</time>
   </trkpt>
   <trkpt lat="22.7373920" lon="120.3291690">
    <ele>18.7</ele>
    <time>2026-10-07T12:57:44Z</time>
   </trkpt>
   <trkpt lat="22.7374060" lon="120.3291540">
    <ele>18.7</ele>
    <time>2026-10-07T12:57:45Z</time>
   </trkpt>
   <trkpt lat="22.7374180" lon="120.3291410">
    <ele>18.8</ele>
    <time>2026-10-07T12:57:46Z</time>
   </trkpt>
   <trkpt lat="22.7374320" lon="120.3291300">
    <ele>18.8</ele>
    <time>2026-10-07T12:57:47Z</time>
   </trkpt>
   <trkpt lat="22.7374440" lon="120.3291170">
    <ele>18.9</ele>
    <time>2026-10-07T12:57:48Z</time>
   </trkpt>
   <trkpt lat="22.7374550" lon="120.3291020">
    <ele>19.0</ele>
    <time>2026-10-07T12:57:49Z</time>
   </trkpt>
   <trkpt lat="22.7374650" lon="120.3290880">
    <ele>19.0</ele>
    <time>2026-10-07T12:57:50Z</time>
   </trkpt>
   <trkpt lat="22.7374750" lon="120.3290730">
    <ele>19.1</ele>
    <time>2026-10-07T12:57:51Z</time>
   </trkpt>
   <trkpt lat="22.7374860" lon="120.3290560">
    <ele>19.1</ele>
    <time>2026-10-07T12:57:52Z</time>
   </trkpt>
   <trkpt lat="22.7374940" lon="120.3290440">
    <ele>19.2</ele>
    <time>2026-10-07T12:57:53Z</time>
   </trkpt>
   <trkpt lat="22.7375080" lon="120.3290310">
    <ele>19.2</ele>
    <time>2026-10-07T12:57:54Z</time>
   </trkpt>
   <trkpt lat="22.7375200" lon="120.3290140">
    <ele>19.3</ele>
    <time>2026-10-07T12:57:55Z</time>
   </trkpt>
   <trkpt lat="22.7375330" lon="120.3290020">
    <ele>19.3</ele>
    <time>2026-10-07T12:57:56Z</time>
   </trkpt>
   <trkpt lat="22.7375470" lon="120.3289880">
    <ele>19.4</ele>
    <time>2026-10-07T12:57:57Z</time>
   </trkpt>
   <trkpt lat="22.7375600" lon="120.3289730">
    <ele>19.4</ele>
    <time>2026-10-07T12:57:58Z</time>
   </trkpt>
   <trkpt lat="22.7375720" lon="120.3289560">
    <ele>19.5</ele>
    <time>2026-10-07T12:57:59Z</time>
   </trkpt>
   <trkpt lat="22.7375850" lon="120.3289400">
    <ele>19.5</ele>
    <time>2026-10-07T12:58:00Z</time>
   </trkpt>
   <trkpt lat="22.7375990" lon="120.3289240">
    <ele>19.6</ele>
    <time>2026-10-07T12:58:01Z</time>
   </trkpt>
   <trkpt lat="22.7376130" lon="120.3289050">
    <ele>19.6</ele>
    <time>2026-10-07T12:58:02Z</time>
   </trkpt>
   <trkpt lat="22.7376250" lon="120.3288900">
    <ele>19.6</ele>
    <time>2026-10-07T12:58:03Z</time>
   </trkpt>
   <trkpt lat="22.7376360" lon="120.3288730">
    <ele>19.7</ele>
    <time>2026-10-07T12:58:04Z</time>
   </trkpt>
   <trkpt lat="22.7376440" lon="120.3288630">
    <ele>19.7</ele>
    <time>2026-10-07T12:58:05Z</time>
   </trkpt>
   <trkpt lat="22.7376510" lon="120.3288510">
    <ele>19.7</ele>
    <time>2026-10-07T12:58:06Z</time>
   </trkpt>
   <trkpt lat="22.7376600" lon="120.3288420">
    <ele>19.8</ele>
    <time>2026-10-07T12:58:07Z</time>
   </trkpt>
   <trkpt lat="22.7376680" lon="120.3288310">
    <ele>19.8</ele>
    <time>2026-10-07T12:58:08Z</time>
   </trkpt>
   <trkpt lat="22.7376770" lon="120.3288200">
    <ele>19.8</ele>
    <time>2026-10-07T12:58:09Z</time>
   </trkpt>
   <trkpt lat="22.7376860" lon="120.3288110">
    <ele>19.8</ele>
    <time>2026-10-07T12:58:10Z</time>
   </trkpt>
   <trkpt lat="22.7377000" lon="120.3288020">
    <ele>19.8</ele>
    <time>2026-10-07T12:58:11Z</time>
   </trkpt>
   <trkpt lat="22.7377170" lon="120.3287920">
    <ele>19.9</ele>
    <time>2026-10-07T12:58:12Z</time>
   </trkpt>
   <trkpt lat="22.7377320" lon="120.3287830">
    <ele>19.9</ele>
    <time>2026-10-07T12:58:13Z</time>
   </trkpt>
   <trkpt lat="22.7377460" lon="120.3287710">
    <ele>19.9</ele>
    <time>2026-10-07T12:58:14Z</time>
   </trkpt>
   <trkpt lat="22.7377580" lon="120.3287600">
    <ele>19.9</ele>
    <time>2026-10-07T12:58:15Z</time>
   </trkpt>
   <trkpt lat="22.7377690" lon="120.3287500">
    <ele>19.9</ele>
    <time>2026-10-07T12:58:16Z</time>
   </trkpt>
   <trkpt lat="22.7377790" lon="120.3287400">
    <ele>19.9</ele>
    <time>2026-10-07T12:58:17Z</time>
   </trkpt>
   <trkpt lat="22.7377880" lon="120.3287260">
    <ele>19.9</ele>
    <time>2026-10-07T12:58:18Z</time>
   </trkpt>
   <trkpt lat="22.7377980" lon="120.3287140">
    <ele>19.9</ele>
    <time>2026-10-07T12:58:19Z</time>
   </trkpt>
   <trkpt lat="22.7378070" lon="120.3287020">
    <ele>19.9</ele>
    <time>2026-10-07T12:58:20Z</time>
   </trkpt>
   <trkpt lat="22.7378170" lon="120.3286900">
    <ele>19.9</ele>
    <time>2026-10-07T12:58:21Z</time>
   </trkpt>
   <trkpt lat="22.7378270" lon="120.3286780">
    <ele>19.9</ele>
    <time>2026-10-07T12:58:22Z</time>
   </trkpt>
   <trkpt lat="22.7378370" lon="120.3286660">
    <ele>19.9</ele>
    <time>2026-10-07T12:58:23Z</time>
   </trkpt>
   <trkpt lat="22.7378470" lon="120.3286540">
    <ele>19.9</ele>
    <time>2026-10-07T12:58:24Z</time>
   </trkpt>
   <trkpt lat="22.7378570" lon="120.3286400">
    <ele>20.0</ele>
    <time>2026-10-07T12:58:25Z</time>
   </trkpt>
   <trkpt lat="22.7378670" lon="120.3286250">
    <ele>20.0</ele>
    <time>2026-10-07T12:58:26Z</time>
   </trkpt>
   <trkpt lat="22.7378800" lon="120.3286130">
    <ele>20.0</ele>
    <time>2026-10-07T12:58:27Z</time>
   </trkpt>
   <trkpt lat="22.7378910" lon="120.3286000">
    <ele>20.0</ele>
    <time>2026-10-07T12:58:28Z</time>
   </trkpt>
   <trkpt lat="22.7379040" lon="120.3285860">
    <ele>20.0</ele>
    <time>2026-10-07T12:58:29Z</time>
   </trkpt>
   <trkpt lat="22.7379180" lon="120.3285760">
    <ele>20.0</ele>
    <time>2026-10-07T12:58:30Z</time>
   </trkpt>
   <trkpt lat="22.7379320" lon="120.3285660">
    <ele>20.0</ele>
    <time>2026-10-07T12:58:31Z</time>
   </trkpt>
   <trkpt lat="22.7379490" lon="120.3285550">
    <ele>20.0</ele>
    <time>2026-10-07T12:58:32Z</time>
   </trkpt>
   <trkpt lat="22.7379620" lon="120.3285420">
    <ele>20.0</ele>
    <time>2026-10-07T12:58:33Z</time>
   </trkpt>
   <trkpt lat="22.7379760" lon="120.3285300">
    <ele>20.0</ele>
    <time>2026-10-07T12:58:34Z</time>
   </trkpt>
   <trkpt lat="22.7379900" lon="120.3285190">
    <ele>20.0</ele>
    <time>2026-10-07T12:58:35Z</time>
   </trkpt>
   <trkpt lat="22.7380030" lon="120.3285070">
    <ele>20.0</ele>
    <time>2026-10-07T12:58:36Z</time>
   </trkpt>
   <trkpt lat="22.7380140" lon="120.3284970">
    <ele>20.0</ele>
    <time>2026-10-07T12:58:37Z</time>
   </trkpt>
   <trkpt lat="22.7380210" lon="120.3284890">
    <ele>20.0</ele>
    <time>2026-10-07T12:58:38Z</time>
   </trkpt>
   <trkpt lat="22.7380310" lon="120.3284790">
    <ele>20.0</ele>
    <time>2026-10-07T12:58:39Z</time>
   </trkpt>
   <trkpt lat="22.7380230" lon="120.3284790">
    <ele>20.0</ele>
    <time>2026-10-07T12:58:40Z</time>
   </trkpt>
   <trkpt lat="22.7380190" lon="120.3284770">
    <ele>20.0</ele>
    <time>2026-10-07T12:58:41Z</time>
   </trkpt>
   <trkpt lat="22.7380070" lon="120.3284830">
    <ele>20.0</ele>
    <time>2026-10-07T12:58:42Z</time>
   </trkpt>
   <trkpt lat="22.7380000" lon="120.3284940">
    <ele>20.0</ele>
    <time>2026-10-07T12:58:43Z</time>
   </trkpt>
   <trkpt lat="22.7379930" lon="120.3285010">
    <ele>20.0</ele>
    <time>2026-10-07T12:58:44Z</time>
   </trkpt>
   <trkpt lat="22.7379840" lon="120.3285120">
    <ele>20.0</ele>
    <time>2026-10-07T12:58:45Z</time>
   </trkpt>
   <trkpt lat="22.7379720" lon="120.3285250">
    <ele>20.0</ele>
    <time>2026-10-07T12:58:46Z</time>
   </trkpt>
   <trkpt lat="22.7379590" lon="120.3285380">
    <ele>20.0</ele>
    <time>2026-10-07T12:58:47Z</time>
   </trkpt>
   <trkpt lat="22.7379490" lon="120.3285490">
    <ele>20.0</ele>
    <time>2026-10-07T12:58:48Z</time>
   </trkpt>
   <trkpt lat="22.7379360" lon="120.3285570">
    <ele>20.0</ele>
    <time>2026-10-07T12:58:49Z</time>
   </trkpt>
   <trkpt lat="22.7379230" lon="120.3285610">
    <ele>20.0</ele>
    <time>2026-10-07T12:58:50Z</time>
   </trkpt>
   <trkpt lat="22.7379070" lon="120.3285530">
    <ele>19.8</ele>
    <time>2026-10-07T12:58:51Z</time>
   </trkpt>
   <trkpt lat="22.7378930" lon="120.3285440">
    <ele>19.8</ele>
    <time>2026-10-07T12:58:52Z</time>
   </trkpt>
   <trkpt lat="22.7378850" lon="120.3285340">
    <ele>19.8</ele>
    <time>2026-10-07T12:58:53Z</time>
   </trkpt>
   <trkpt lat="22.7378730" lon="120.3285260">
    <ele>19.8</ele>
    <time>2026-10-07T12:58:54Z</time>
   </trkpt>
   <trkpt lat="22.7378610" lon="120.3285150">
    <ele>19.8</ele>
    <time>2026-10-07T12:58:55Z</time>
   </trkpt>
   <trkpt lat="22.7378530" lon="120.3285070">
    <ele>19.8</ele>
    <time>2026-10-07T12:58:56Z</time>
   </trkpt>
   <trkpt lat="22.7378420" lon="120.3284970">
    <ele>19.7</ele>
    <time>2026-10-07T12:58:57Z</time>
   </trkpt>
   <trkpt lat="22.7378310" lon="120.3284850">
    <ele>19.7</ele>
    <time>2026-10-07T12:58:58Z</time>
   </trkpt>
   <trkpt lat="22.7378230" lon="120.3284670">
    <ele>19.7</ele>
    <time>2026-10-07T12:58:59Z</time>
   </trkpt>
   <trkpt lat="22.7378100" lon="120.3284510">
    <ele>19.7</ele>
    <time>2026-10-07T12:59:00Z</time>
   </trkpt>
   <trkpt lat="22.7377970" lon="120.3284410">
    <ele>19.6</ele>
    <time>2026-10-07T12:59:01Z</time>
   </trkpt>
   <trkpt lat="22.7377900" lon="120.3284300">
    <ele>19.6</ele>
    <time>2026-10-07T12:59:02Z</time>
   </trkpt>
   <trkpt lat="22.7377820" lon="120.3284150">
    <ele>19.6</ele>
    <time>2026-10-07T12:59:03Z</time>
   </trkpt>
   <trkpt lat="22.7377680" lon="120.3284050">
    <ele>19.6</ele>
    <time>2026-10-07T12:59:04Z</time>
   </trkpt>
   <trkpt lat="22.7377580" lon="120.3283890">
    <ele>19.6</ele>
    <time>2026-10-07T12:59:05Z</time>
   </trkpt>
   <trkpt lat="22.7377490" lon="120.3283740">
    <ele>19.5</ele>
    <time>2026-10-07T12:59:06Z</time>
   </trkpt>
   <trkpt lat="22.7377350" lon="120.3283630">
    <ele>19.5</ele>
    <time>2026-10-07T12:59:07Z</time>
   </trkpt>
   <trkpt lat="22.7377280" lon="120.3283490">
    <ele>19.5</ele>
    <time>2026-10-07T12:59:08Z</time>
   </trkpt>
   <trkpt lat="22.7377140" lon="120.3283440">
    <ele>19.5</ele>
    <time>2026-10-07T12:59:09Z</time>
   </trkpt>
   <trkpt lat="22.7377040" lon="120.3283360">
    <ele>19.5</ele>
    <time>2026-10-07T12:59:10Z</time>
   </trkpt>
   <trkpt lat="22.7376930" lon="120.3283250">
    <ele>19.4</ele>
    <time>2026-10-07T12:59:11Z</time>
   </trkpt>
   <trkpt lat="22.7376840" lon="120.3283140">
    <ele>19.4</ele>
    <time>2026-10-07T12:59:12Z</time>
   </trkpt>
   <trkpt lat="22.7376720" lon="120.3283030">
    <ele>19.4</ele>
    <time>2026-10-07T12:59:13Z</time>
   </trkpt>
   <trkpt lat="22.7376620" lon="120.3282930">
    <ele>19.4</ele>
    <time>2026-10-07T12:59:14Z</time>
   </trkpt>
   <trkpt lat="22.7376500" lon="120.3282810">
    <ele>19.4</ele>
    <time>2026-10-07T12:59:15Z</time>
   </trkpt>
   <trkpt lat="22.7376410" lon="120.3282690">
    <ele>19.3</ele>
    <time>2026-10-07T12:59:16Z</time>
   </trkpt>
   <trkpt lat="22.7376290" lon="120.3282590">
    <ele>19.3</ele>
    <time>2026-10-07T12:59:17Z</time>
   </trkpt>
   <trkpt lat="22.7376140" lon="120.3282490">
    <ele>19.3</ele>
    <time>2026-10-07T12:59:18Z</time>
   </trkpt>
   <trkpt lat="22.7376040" lon="120.3282430">
    <ele>19.3</ele>
    <time>2026-10-07T12:59:19Z</time>
   </trkpt>
   <trkpt lat="22.7375980" lon="120.3282310">
    <ele>19.3</ele>
    <time>2026-10-07T12:59:20Z</time>
   </trkpt>
   <trkpt lat="22.7375910" lon="120.3282200">
    <ele>19.3</ele>
    <time>2026-10-07T12:59:21Z</time>
   </trkpt>
   <trkpt lat="22.7375820" lon="120.3282140">
    <ele>19.2</ele>
    <time>2026-10-07T12:59:22Z</time>
   </trkpt>
   <trkpt lat="22.7375750" lon="120.3282120">
    <ele>19.2</ele>
    <time>2026-10-07T12:59:23Z</time>
   </trkpt>
   <trkpt lat="22.7375650" lon="120.3282170">
    <ele>19.2</ele>
    <time>2026-10-07T12:59:24Z</time>
   </trkpt>
   <trkpt lat="22.7375630" lon="120.3282250">
    <ele>19.2</ele>
    <time>2026-10-07T12:59:25Z</time>
   </trkpt>
   <trkpt lat="22.7375690" lon="120.3282230">
    <ele>19.2</ele>
    <time>2026-10-07T12:59:26Z</time>
   </trkpt>
   <trkpt lat="22.7375840" lon="120.3282370">
    <ele>19.2</ele>
    <time>2026-10-07T12:59:27Z</time>
   </trkpt>
   <trkpt lat="22.7375970" lon="120.3282450">
    <ele>19.2</ele>
    <time>2026-10-07T12:59:28Z</time>
   </trkpt>
   <trkpt lat="22.7376080" lon="120.3282570">
    <ele>19.1</ele>
    <time>2026-10-07T12:59:29Z</time>
   </trkpt>
   <trkpt lat="22.7376220" lon="120.3282690">
    <ele>19.1</ele>
    <time>2026-10-07T12:59:30Z</time>
   </trkpt>
   <trkpt lat="22.7376350" lon="120.3282790">
    <ele>19.1</ele>
    <time>2026-10-07T12:59:31Z</time>
   </trkpt>
   <trkpt lat="22.7376470" lon="120.3282860">
    <ele>19.1</ele>
    <time>2026-10-07T12:59:32Z</time>
   </trkpt>
   <trkpt lat="22.7376590" lon="120.3282970">
    <ele>19.1</ele>
    <time>2026-10-07T12:59:33Z</time>
   </trkpt>
   <trkpt lat="22.7376700" lon="120.3283110">
    <ele>19.0</ele>
    <time>2026-10-07T12:59:34Z</time>
   </trkpt>
   <trkpt lat="22.7376850" lon="120.3283210">
    <ele>19.0</ele>
    <time>2026-10-07T12:59:35Z</time>
   </trkpt>
   <trkpt lat="22.7376990" lon="120.3283310">
    <ele>19.0</ele>
    <time>2026-10-07T12:59:36Z</time>
   </trkpt>
   <trkpt lat="22.7377120" lon="120.3283420">
    <ele>19.0</ele>
    <time>2026-10-07T12:59:37Z</time>
   </trkpt>
   <trkpt lat="22.7377230" lon="120.3283540">
    <ele>19.0</ele>
    <time>2026-10-07T12:59:38Z</time>
   </trkpt>
   <trkpt lat="22.7377320" lon="120.3283660">
    <ele>18.9</ele>
    <time>2026-10-07T12:59:39Z</time>
   </trkpt>
   <trkpt lat="22.7377470" lon="120.3283780">
    <ele>18.9</ele>
    <time>2026-10-07T12:59:40Z</time>
   </trkpt>
   <trkpt lat="22.7377640" lon="120.3283930">
    <ele>18.9</ele>
    <time>2026-10-07T12:59:41Z</time>
   </trkpt>
   <trkpt lat="22.7377740" lon="120.3284050">
    <ele>18.9</ele>
    <time>2026-10-07T12:59:42Z</time>
   </trkpt>
   <trkpt lat="22.7377870" lon="120.3284170">
    <ele>18.8</ele>
    <time>2026-10-07T12:59:43Z</time>
   </trkpt>
   <trkpt lat="22.7377980" lon="120.3284290">
    <ele>18.8</ele>
    <time>2026-10-07T12:59:44Z</time>
   </trkpt>
   <trkpt lat="22.7378090" lon="120.3284400">
    <ele>18.9</ele>
    <time>2026-10-07T12:59:45Z</time>
   </trkpt>
   <trkpt lat="22.7378200" lon="120.3284520">
    <ele>19.0</ele>
    <time>2026-10-07T12:59:46Z</time>
   </trkpt>
   <trkpt lat="22.7378330" lon="120.3284690">
    <ele>19.1</ele>
    <time>2026-10-07T12:59:47Z</time>
   </trkpt>
   <trkpt lat="22.7378430" lon="120.3284800">
    <ele>19.2</ele>
    <time>2026-10-07T12:59:48Z</time>
   </trkpt>
   <trkpt lat="22.7378550" lon="120.3284930">
    <ele>19.3</ele>
    <time>2026-10-07T12:59:49Z</time>
   </trkpt>
   <trkpt lat="22.7378650" lon="120.3285070">
    <ele>19.4</ele>
    <time>2026-10-07T12:59:50Z</time>
   </trkpt>
   <trkpt lat="22.7378760" lon="120.3285220">
    <ele>19.5</ele>
    <time>2026-10-07T12:59:51Z</time>
   </trkpt>
   <trkpt lat="22.7378830" lon="120.3285340">
    <ele>19.6</ele>
    <time>2026-10-07T12:59:52Z</time>
   </trkpt>
   <trkpt lat="22.7378920" lon="120.3285480">
    <ele>19.6</ele>
    <time>2026-10-07T12:59:53Z</time>
   </trkpt>
   <trkpt lat="22.7379000" lon="120.3285590">
    <ele>19.7</ele>
    <time>2026-10-07T12:59:54Z</time>
   </trkpt>
   <trkpt lat="22.7379070" lon="120.3285720">
    <ele>19.8</ele>
    <time>2026-10-07T12:59:55Z</time>
   </trkpt>
   <trkpt lat="22.7379110" lon="120.3285840">
    <ele>19.9</ele>
    <time>2026-10-07T12:59:56Z</time>
   </trkpt>
   <trkpt lat="22.7379170" lon="120.3285970">
    <ele>19.9</ele>
    <time>2026-10-07T12:59:57Z</time>
   </trkpt>
   <trkpt lat="22.7379210" lon="120.3286110">
    <ele>20.0</ele>
    <time>2026-10-07T12:59:58Z</time>
   </trkpt>
   <trkpt lat="22.7379230" lon="120.3286210">
    <ele>20.0</ele>
    <time>2026-10-07T12:59:59Z</time>
   </trkpt>
   <trkpt lat="22.7379230" lon="120.3286310">
    <ele>20.0</ele>
    <time>2026-10-07T13:00:00Z</time>
   </trkpt>
   <trkpt lat="22.7379180" lon="120.3286420">
    <ele>20.0</ele>
    <time>2026-10-07T13:00:01Z</time>
   </trkpt>
   <trkpt lat="22.7379120" lon="120.3286520">
    <ele>20.0</ele>
    <time>2026-10-07T13:00:02Z</time>
   </trkpt>
   <trkpt lat="22.7379030" lon="120.3286610">
    <ele>20.0</ele>
    <time>2026-10-07T13:00:03Z</time>
   </trkpt>
   <trkpt lat="22.7378940" lon="120.3286670">
    <ele>19.9</ele>
    <time>2026-10-07T13:00:04Z</time>
   </trkpt>
   <trkpt lat="22.7378870" lon="120.3286750">
    <ele>19.9</ele>
    <time>2026-10-07T13:00:05Z</time>
   </trkpt>
   <trkpt lat="22.7378750" lon="120.3286840">
    <ele>19.9</ele>
    <time>2026-10-07T13:00:06Z</time>
   </trkpt>
   <trkpt lat="22.7378640" lon="120.3286940">
    <ele>19.9</ele>
    <time>2026-10-07T13:00:07Z</time>
   </trkpt>
   <trkpt lat="22.7378530" lon="120.3287060">
    <ele>19.9</ele>
    <time>2026-10-07T13:00:08Z</time>
   </trkpt>
   <trkpt lat="22.7378420" lon="120.3287120">
    <ele>19.9</ele>
    <time>2026-10-07T13:00:09Z</time>
   </trkpt>
   <trkpt lat="22.7378320" lon="120.3287240">
    <ele>19.9</ele>
    <time>2026-10-07T13:00:10Z</time>
   </trkpt>
   <trkpt lat="22.7378230" lon="120.3287330">
    <ele>19.9</ele>
    <time>2026-10-07T13:00:11Z</time>
   </trkpt>
   <trkpt lat="22.7378130" lon="120.3287460">
    <ele>19.9</ele>
    <time>2026-10-07T13:00:12Z</time>
   </trkpt>
   <trkpt lat="22.7378030" lon="120.3287580">
    <ele>19.9</ele>
    <time>2026-10-07T13:00:13Z</time>
   </trkpt>
   <trkpt lat="22.7377920" lon="120.3287690">
    <ele>19.9</ele>
    <time>2026-10-07T13:00:14Z</time>
   </trkpt>
   <trkpt lat="22.7377820" lon="120.3287800">
    <ele>19.9</ele>
    <time>2026-10-07T13:00:15Z</time>
   </trkpt>
   <trkpt lat="22.7377740" lon="120.3287930">
    <ele>19.9</ele>
    <time>2026-10-07T13:00:16Z</time>
   </trkpt>
   <trkpt lat="22.7377630" lon="120.3288020">
    <ele>19.9</ele>
    <time>2026-10-07T13:00:17Z</time>
   </trkpt>
   <trkpt lat="22.7377530" lon="120.3288130">
    <ele>19.9</ele>
    <time>2026-10-07T13:00:18Z</time>
   </trkpt>
   <trkpt lat="22.7377370" lon="120.3288190">
    <ele>19.8</ele>
    <time>2026-10-07T13:00:19Z</time>
   </trkpt>
   <trkpt lat="22.7377190" lon="120.3288140">
    <ele>19.7</ele>
    <time>2026-10-07T13:00:20Z</time>
   </trkpt>
   <trkpt lat="22.7377070" lon="120.3288040">
    <ele>19.6</ele>
    <time>2026-10-07T13:00:21Z</time>
   </trkpt>
   <trkpt lat="22.7377000" lon="120.3287940">
    <ele>19.6</ele>
    <time>2026-10-07T13:00:22Z</time>
   </trkpt>
   <trkpt lat="22.7376950" lon="120.3287860">
    <ele>19.5</ele>
    <time>2026-10-07T13:00:23Z</time>
   </trkpt>
   <trkpt lat="22.7376840" lon="120.3287780">
    <ele>19.4</ele>
    <time>2026-10-07T13:00:24Z</time>
   </trkpt>
   <trkpt lat="22.7376730" lon="120.3287690">
    <ele>19.3</ele>
    <time>2026-10-07T13:00:25Z</time>
   </trkpt>
   <trkpt lat="22.7376640" lon="120.3287610">
    <ele>19.3</ele>
    <time>2026-10-07T13:00:26Z</time>
   </trkpt>
   <trkpt lat="22.7376540" lon="120.3287490">
    <ele>19.2</ele>
    <time>2026-10-07T13:00:27Z</time>
   </trkpt>
   <trkpt lat="22.7376430" lon="120.3287380">
    <ele>19.1</ele>
    <time>2026-10-07T13:00:28Z</time>
   </trkpt>
   <trkpt lat="22.7376330" lon="120.3287260">
    <ele>19.0</ele>
    <time>2026-10-07T13:00:29Z</time>
   </trkpt>
   <trkpt lat="22.7376250" lon="120.3287140">
    <ele>18.9</ele>
    <time>2026-10-07T13:00:30Z</time>
   </trkpt>
   <trkpt lat="22.7376130" lon="120.3287050">
    <ele>18.9</ele>
    <time>2026-10-07T13:00:31Z</time>
   </trkpt>
   <trkpt lat="22.7376040" lon="120.3286940">
    <ele>18.8</ele>
    <time>2026-10-07T13:00:32Z</time>
   </trkpt>
   <trkpt lat="22.7375950" lon="120.3286830">
    <ele>18.7</ele>
    <time>2026-10-07T13:00:33Z</time>
   </trkpt>
   <trkpt lat="22.7375840" lon="120.3286740">
    <ele>18.7</ele>
    <time>2026-10-07T13:00:34Z</time>
   </trkpt>
   <trkpt lat="22.7375730" lon="120.3286640">
    <ele>18.6</ele>
    <time>2026-10-07T13:00:35Z</time>
   </trkpt>
   <trkpt lat="22.7375610" lon="120.3286540">
    <ele>18.5</ele>
    <time>2026-10-07T13:00:36Z</time>
   </trkpt>
   <trkpt lat="22.7375450" lon="120.3286460">
    <ele>18.4</ele>
    <time>2026-10-07T13:00:37Z</time>
   </trkpt>
   <trkpt lat="22.7375320" lon="120.3286380">
    <ele>18.4</ele>
    <time>2026-10-07T13:00:38Z</time>
   </trkpt>
   <trkpt lat="22.7375230" lon="120.3286280">
    <ele>18.3</ele>
    <time>2026-10-07T13:00:39Z</time>
   </trkpt>
   <trkpt lat="22.7375140" lon="120.3286160">
    <ele>18.2</ele>
    <time>2026-10-07T13:00:40Z</time>
   </trkpt>
   <trkpt lat="22.7374990" lon="120.3286030">
    <ele>18.1</ele>
    <time>2026-10-07T13:00:41Z</time>
   </trkpt>
   <trkpt lat="22.7374850" lon="120.3285920">
    <ele>18.0</ele>
    <time>2026-10-07T13:00:42Z</time>
   </trkpt>
   <trkpt lat="22.7374720" lon="120.3285800">
    <ele>17.9</ele>
    <time>2026-10-07T13:00:43Z</time>
   </trkpt>
   <trkpt lat="22.7374600" lon="120.3285660">
    <ele>17.9</ele>
    <time>2026-10-07T13:00:44Z</time>
   </trkpt>
   <trkpt lat="22.7374480" lon="120.3285550">
    <ele>17.8</ele>
    <time>2026-10-07T13:00:45Z</time>
   </trkpt>
   <trkpt lat="22.7374360" lon="120.3285400">
    <ele>17.7</ele>
    <time>2026-10-07T13:00:46Z</time>
   </trkpt>
   <trkpt lat="22.7374240" lon="120.3285300">
    <ele>17.6</ele>
    <time>2026-10-07T13:00:47Z</time>
   </trkpt>
   <trkpt lat="22.7374110" lon="120.3285170">
    <ele>17.5</ele>
    <time>2026-10-07T13:00:48Z</time>
   </trkpt>
   <trkpt lat="22.7374000" lon="120.3284990">
    <ele>17.4</ele>
    <time>2026-10-07T13:00:49Z</time>
   </trkpt>
   <trkpt lat="22.7373870" lon="120.3284890">
    <ele>17.3</ele>
    <time>2026-10-07T13:00:50Z</time>
   </trkpt>
   <trkpt lat="22.7373770" lon="120.3284770">
    <ele>17.3</ele>
    <time>2026-10-07T13:00:51Z</time>
   </trkpt>
   <trkpt lat="22.7373630" lon="120.3284640">
    <ele>17.2</ele>
    <time>2026-10-07T13:00:52Z</time>
   </trkpt>
   <trkpt lat="22.7373490" lon="120.3284510">
    <ele>17.1</ele>
    <time>2026-10-07T13:00:53Z</time>
   </trkpt>
   <trkpt lat="22.7373380" lon="120.3284400">
    <ele>17.0</ele>
    <time>2026-10-07T13:00:54Z</time>
   </trkpt>
   <trkpt lat="22.7373330" lon="120.3284260">
    <ele>16.9</ele>
    <time>2026-10-07T13:00:55Z</time>
   </trkpt>
   <trkpt lat="22.7373250" lon="120.3284160">
    <ele>16.9</ele>
    <time>2026-10-07T13:00:56Z</time>
   </trkpt>
   <trkpt lat="22.7373150" lon="120.3284040">
    <ele>16.8</ele>
    <time>2026-10-07T13:00:57Z</time>
   </trkpt>
   <trkpt lat="22.7373050" lon="120.3283930">
    <ele>16.8</ele>
    <time>2026-10-07T13:00:58Z</time>
   </trkpt>
   <trkpt lat="22.7372930" lon="120.3283850">
    <ele>16.7</ele>
    <time>2026-10-07T13:00:59Z</time>
   </trkpt>
   <trkpt lat="22.7372820" lon="120.3283700">
    <ele>16.6</ele>
    <time>2026-10-07T13:01:00Z</time>
   </trkpt>
   <trkpt lat="22.7372670" lon="120.3283580">
    <ele>16.6</ele>
    <time>2026-10-07T13:01:01Z</time>
   </trkpt>
   <trkpt lat="22.7372570" lon="120.3283460">
    <ele>16.5</ele>
    <time>2026-10-07T13:01:02Z</time>
   </trkpt>
   <trkpt lat="22.7372480" lon="120.3283350">
    <ele>16.5</ele>
    <time>2026-10-07T13:01:03Z</time>
   </trkpt>
   <trkpt lat="22.7372380" lon="120.3283320">
    <ele>16.4</ele>
    <time>2026-10-07T13:01:04Z</time>
   </trkpt>
   <trkpt lat="22.7372310" lon="120.3283340">
    <ele>16.4</ele>
    <time>2026-10-07T13:01:05Z</time>
   </trkpt>
   <trkpt lat="22.7372280" lon="120.3283410">
    <ele>16.4</ele>
    <time>2026-10-07T13:01:06Z</time>
   </trkpt>
   <trkpt lat="22.7372320" lon="120.3283500">
    <ele>16.4</ele>
    <time>2026-10-07T13:01:07Z</time>
   </trkpt>
   <trkpt lat="22.7372410" lon="120.3283550">
    <ele>16.4</ele>
    <time>2026-10-07T13:01:08Z</time>
   </trkpt>
   <trkpt lat="22.7372500" lon="120.3283580">
    <ele>16.5</ele>
    <time>2026-10-07T13:01:09Z</time>
   </trkpt>
   <trkpt lat="22.7372610" lon="120.3283650">
    <ele>16.5</ele>
    <time>2026-10-07T13:01:10Z</time>
   </trkpt>
   <trkpt lat="22.7372710" lon="120.3283740">
    <ele>16.6</ele>
    <time>2026-10-07T13:01:11Z</time>
   </trkpt>
   <trkpt lat="22.7372810" lon="120.3283850">
    <ele>16.6</ele>
    <time>2026-10-07T13:01:12Z</time>
   </trkpt>
   <trkpt lat="22.7372940" lon="120.3283960">
    <ele>16.7</ele>
    <time>2026-10-07T13:01:13Z</time>
   </trkpt>
   <trkpt lat="22.7373080" lon="120.3284060">
    <ele>16.8</ele>
    <time>2026-10-07T13:01:14Z</time>
   </trkpt>
   <trkpt lat="22.7373180" lon="120.3284190">
    <ele>16.8</ele>
    <time>2026-10-07T13:01:15Z</time>
   </trkpt>
   <trkpt lat="22.7373260" lon="120.3284310">
    <ele>16.9</ele>
    <time>2026-10-07T13:01:16Z</time>
   </trkpt>
   <trkpt lat="22.7373350" lon="120.3284400">
    <ele>16.9</ele>
    <time>2026-10-07T13:01:17Z</time>
   </trkpt>
   <trkpt lat="22.7373460" lon="120.3284490">
    <ele>17.0</ele>
    <time>2026-10-07T13:01:18Z</time>
   </trkpt>
   <trkpt lat="22.7373610" lon="120.3284550">
    <ele>17.1</ele>
    <time>2026-10-07T13:01:19Z</time>
   </trkpt>
   <trkpt lat="22.7373730" lon="120.3284640">
    <ele>17.2</ele>
    <time>2026-10-07T13:01:20Z</time>
   </trkpt>
   <trkpt lat="22.7373850" lon="120.3284760">
    <ele>17.3</ele>
    <time>2026-10-07T13:01:21Z</time>
   </trkpt>
   <trkpt lat="22.7373970" lon="120.3284880">
    <ele>17.3</ele>
    <time>2026-10-07T13:01:22Z</time>
   </trkpt>
   <trkpt lat="22.7374080" lon="120.3284950">
    <ele>17.4</ele>
    <time>2026-10-07T13:01:23Z</time>
   </trkpt>
   <trkpt lat="22.7374170" lon="120.3285090">
    <ele>17.5</ele>
    <time>2026-10-07T13:01:24Z</time>
   </trkpt>
   <trkpt lat="22.7374310" lon="120.3285180">
    <ele>17.6</ele>
    <time>2026-10-07T13:01:25Z</time>
   </trkpt>
   <trkpt lat="22.7374420" lon="120.3285280">
    <ele>17.6</ele>
    <time>2026-10-07T13:01:26Z</time>
   </trkpt>
   <trkpt lat="22.7374520" lon="120.3285370">
    <ele>17.7</ele>
    <time>2026-10-07T13:01:27Z</time>
   </trkpt>
   <trkpt lat="22.7374590" lon="120.3285520">
    <ele>17.8</ele>
    <time>2026-10-07T13:01:28Z</time>
   </trkpt>
   <trkpt lat="22.7374690" lon="120.3285640">
    <ele>17.9</ele>
    <time>2026-10-07T13:01:29Z</time>
   </trkpt>
   <trkpt lat="22.7374790" lon="120.3285760">
    <ele>17.9</ele>
    <time>2026-10-07T13:01:30Z</time>
   </trkpt>
   <trkpt lat="22.7374900" lon="120.3285850">
    <ele>18.0</ele>
    <time>2026-10-07T13:01:31Z</time>
   </trkpt>
   <trkpt lat="22.7375030" lon="120.3285920">
    <ele>18.1</ele>
    <time>2026-10-07T13:01:32Z</time>
   </trkpt>
   <trkpt lat="22.7375130" lon="120.3286070">
    <ele>18.2</ele>
    <time>2026-10-07T13:01:33Z</time>
   </trkpt>
   <trkpt lat="22.7375250" lon="120.3286180">
    <ele>18.3</ele>
    <time>2026-10-07T13:01:34Z</time>
   </trkpt>
   <trkpt lat="22.7375380" lon="120.3286300">
    <ele>18.4</ele>
    <time>2026-10-07T13:01:35Z</time>
   </trkpt>
   <trkpt lat="22.7375500" lon="120.3286420">
    <ele>18.4</ele>
    <time>2026-10-07T13:01:36Z</time>
   </trkpt>
   <trkpt lat="22.7375640" lon="120.3286520">
    <ele>18.5</ele>
    <time>2026-10-07T13:01:37Z</time>
   </trkpt>
   <trkpt lat="22.7375780" lon="120.3286620">
    <ele>18.6</ele>
    <time>2026-10-07T13:01:38Z</time>
   </trkpt>
   <trkpt lat="22.7375960" lon="120.3286720">
    <ele>18.7</ele>
    <time>2026-10-07T13:01:39Z</time>
   </trkpt>
   <trkpt lat="22.7376100" lon="120.3286800">
    <ele>18.8</ele>
    <time>2026-10-07T13:01:40Z</time>
   </trkpt>
   <trkpt lat="22.7376200" lon="120.3286940">
    <ele>18.9</ele>
    <time>2026-10-07T13:01:41Z</time>
   </trkpt>
   <trkpt lat="22.7376280" lon="120.3287090">
    <ele>19.0</ele>
    <time>2026-10-07T13:01:42Z</time>
   </trkpt>
   <trkpt lat="22.7376420" lon="120.3287210">
    <ele>19.1</ele>
    <time>2026-10-07T13:01:43Z</time>
   </trkpt>
   <trkpt lat="22.7376560" lon="120.3287310">
    <ele>19.2</ele>
    <time>2026-10-07T13:01:44Z</time>
   </trkpt>
   <trkpt lat="22.7376700" lon="120.3287420">
    <ele>19.3</ele>
    <time>2026-10-07T13:01:45Z</time>
   </trkpt>
   <trkpt lat="22.7376800" lon="120.3287560">
    <ele>19.4</ele>
    <time>2026-10-07T13:01:46Z</time>
   </trkpt>
   <trkpt lat="22.7376930" lon="120.3287670">
    <ele>19.5</ele>
    <time>2026-10-07T13:01:47Z</time>
   </trkpt>
   <trkpt lat="22.7377060" lon="120.3287810">
    <ele>19.6</ele>
    <time>2026-10-07T13:01:48Z</time>
   </trkpt>
   <trkpt lat="22.7377150" lon="120.3287950">
    <ele>19.7</ele>
    <time>2026-10-07T13:01:49Z</time>
   </trkpt>
   <trkpt lat="22.7377240" lon="120.3288160">
    <ele>19.8</ele>
    <time>2026-10-07T13:01:50Z</time>
   </trkpt>
   <trkpt lat="22.7377260" lon="120.3288340">
    <ele>19.8</ele>
    <time>2026-10-07T13:01:51Z</time>
   </trkpt>
   <trkpt lat="22.7377180" lon="120.3288500">
    <ele>19.8</ele>
    <time>2026-10-07T13:01:52Z</time>
   </trkpt>
   <trkpt lat="22.7377010" lon="120.3288650">
    <ele>19.7</ele>
    <time>2026-10-07T13:01:53Z</time>
   </trkpt>
   <trkpt lat="22.7376860" lon="120.3288790">
    <ele>19.7</ele>
    <time>2026-10-07T13:01:54Z</time>
   </trkpt>
   <trkpt lat="22.7376730" lon="120.3288910">
    <ele>19.7</ele>
    <time>2026-10-07T13:01:55Z</time>
   </trkpt>
   <trkpt lat="22.7376600" lon="120.3289030">
    <ele>19.6</ele>
    <time>2026-10-07T13:01:56Z</time>
   </trkpt>
   <trkpt lat="22.7376470" lon="120.3289170">
    <ele>19.6</ele>
    <time>2026-10-07T13:01:57Z</time>
   </trkpt>
   <trkpt lat="22.7376330" lon="120.3289310">
    <ele>19.5</ele>
    <time>2026-10-07T13:01:58Z</time>
   </trkpt>
   <trkpt lat="22.7376180" lon="120.3289470">
    <ele>19.5</ele>
    <time>2026-10-07T13:01:59Z</time>
   </trkpt>
   <trkpt lat="22.7376050" lon="120.3289590">
    <ele>19.4</ele>
    <time>2026-10-07T13:02:00Z</time>
   </trkpt>
   <trkpt lat="22.7375920" lon="120.3289720">
    <ele>19.4</ele>
    <time>2026-10-07T13:02:01Z</time>
   </trkpt>
   <trkpt lat="22.7375780" lon="120.3289840">
    <ele>19.4</ele>
    <time>2026-10-07T13:02:02Z</time>
   </trkpt>
   <trkpt lat="22.7375660" lon="120.3289950">
    <ele>19.3</ele>
    <time>2026-10-07T13:02:03Z</time>
   </trkpt>
   <trkpt lat="22.7375530" lon="120.3290060">
    <ele>19.3</ele>
    <time>2026-10-07T13:02:04Z</time>
   </trkpt>
   <trkpt lat="22.7375380" lon="120.3290180">
    <ele>19.2</ele>
    <time>2026-10-07T13:02:05Z</time>
   </trkpt>
   <trkpt lat="22.7375180" lon="120.3290210">
    <ele>19.2</ele>
    <time>2026-10-07T13:02:06Z</time>
   </trkpt>
   <trkpt lat="22.7374980" lon="120.3290150">
    <ele>19.0</ele>
    <time>2026-10-07T13:02:07Z</time>
   </trkpt>
   <trkpt lat="22.7374830" lon="120.3290050">
    <ele>18.9</ele>
    <time>2026-10-07T13:02:08Z</time>
   </trkpt>
   <trkpt lat="22.7374740" lon="120.3289950">
    <ele>18.8</ele>
    <time>2026-10-07T13:02:09Z</time>
   </trkpt>
   <trkpt lat="22.7374640" lon="120.3289840">
    <ele>18.8</ele>
    <time>2026-10-07T13:02:10Z</time>
   </trkpt>
   <trkpt lat="22.7374540" lon="120.3289750">
    <ele>18.7</ele>
    <time>2026-10-07T13:02:11Z</time>
   </trkpt>
   <trkpt lat="22.7374440" lon="120.3289650">
    <ele>18.6</ele>
    <time>2026-10-07T13:02:12Z</time>
   </trkpt>
   <trkpt lat="22.7374330" lon="120.3289530">
    <ele>18.5</ele>
    <time>2026-10-07T13:02:13Z</time>
   </trkpt>
   <trkpt lat="22.7374190" lon="120.3289390">
    <ele>18.4</ele>
    <time>2026-10-07T13:02:14Z</time>
   </trkpt>
   <trkpt lat="22.7374050" lon="120.3289240">
    <ele>18.3</ele>
    <time>2026-10-07T13:02:15Z</time>
   </trkpt>
   <trkpt lat="22.7373880" lon="120.3289090">
    <ele>18.2</ele>
    <time>2026-10-07T13:02:16Z</time>
   </trkpt>
   <trkpt lat="22.7373730" lon="120.3288950">
    <ele>18.1</ele>
    <time>2026-10-07T13:02:17Z</time>
   </trkpt>
   <trkpt lat="22.7373560" lon="120.3288810">
    <ele>18.0</ele>
    <time>2026-10-07T13:02:18Z</time>
   </trkpt>
   <trkpt lat="22.7373460" lon="120.3288650">
    <ele>17.9</ele>
    <time>2026-10-07T13:02:19Z</time>
   </trkpt>
   <trkpt lat="22.7373370" lon="120.3288520">
    <ele>17.8</ele>
    <time>2026-10-07T13:02:20Z</time>
   </trkpt>
   <trkpt lat="22.7373240" lon="120.3288430">
    <ele>17.7</ele>
    <time>2026-10-07T13:02:21Z</time>
   </trkpt>
   <trkpt lat="22.7373140" lon="120.3288320">
    <ele>17.6</ele>
    <time>2026-10-07T13:02:22Z</time>
   </trkpt>
   <trkpt lat="22.7373030" lon="120.3288230">
    <ele>17.5</ele>
    <time>2026-10-07T13:02:23Z</time>
   </trkpt>
   <trkpt lat="22.7372930" lon="120.3288180">
    <ele>17.5</ele>
    <time>2026-10-07T13:02:24Z</time>
   </trkpt>
   <trkpt lat="22.7372820" lon="120.3288150">
    <ele>17.4</ele>
    <time>2026-10-07T13:02:25Z</time>
   </trkpt>
   <trkpt lat="22.7372730" lon="120.3288090">
    <ele>17.4</ele>
    <time>2026-10-07T13:02:26Z</time>
   </trkpt>
   <trkpt lat="22.7372650" lon="120.3288060">
    <ele>17.3</ele>
    <time>2026-10-07T13:02:27Z</time>
   </trkpt>
   <trkpt lat="22.7372550" lon="120.3288010">
    <ele>17.3</ele>
    <time>2026-10-07T13:02:28Z</time>
   </trkpt>
   <trkpt lat="22.7372420" lon="120.3287960">
    <ele>17.2</ele>
    <time>2026-10-07T13:02:29Z</time>
   </trkpt>
   <trkpt lat="22.7372280" lon="120.3287890">
    <ele>17.1</ele>
    <time>2026-10-07T13:02:30Z</time>
   </trkpt>
   <trkpt lat="22.7372190" lon="120.3287850">
    <ele>17.1</ele>
    <time>2026-10-07T13:02:31Z</time>
   </trkpt>
   <trkpt lat="22.7372120" lon="120.3287800">
    <ele>17.1</ele>
    <time>2026-10-07T13:02:32Z</time>
   </trkpt>
   <trkpt lat="22.7372040" lon="120.3287700">
    <ele>17.0</ele>
    <time>2026-10-07T13:02:33Z</time>
   </trkpt>
   <trkpt lat="22.7371950" lon="120.3287610">
    <ele>17.0</ele>
    <time>2026-10-07T13:02:34Z</time>
   </trkpt>
   <trkpt lat="22.7371870" lon="120.3287550">
    <ele>16.9</ele>
    <time>2026-10-07T13:02:35Z</time>
   </trkpt>
   <trkpt lat="22.7371790" lon="120.3287470">
    <ele>16.9</ele>
    <time>2026-10-07T13:02:36Z</time>
   </trkpt>
   <trkpt lat="22.7371690" lon="120.3287360">
    <ele>16.8</ele>
    <time>2026-10-07T13:02:37Z</time>
   </trkpt>
   <trkpt lat="22.7371580" lon="120.3287240">
    <ele>16.7</ele>
    <time>2026-10-07T13:02:38Z</time>
   </trkpt>
   <trkpt lat="22.7371510" lon="120.3287120">
    <ele>16.7</ele>
    <time>2026-10-07T13:02:39Z</time>
   </trkpt>
   <trkpt lat="22.7371420" lon="120.3287000">
    <ele>16.6</ele>
    <time>2026-10-07T13:02:40Z</time>
   </trkpt>
   <trkpt lat="22.7371330" lon="120.3286900">
    <ele>16.6</ele>
    <time>2026-10-07T13:02:41Z</time>
   </trkpt>
   <trkpt lat="22.7371240" lon="120.3286800">
    <ele>16.5</ele>
    <time>2026-10-07T13:02:42Z</time>
   </trkpt>
   <trkpt lat="22.7371150" lon="120.3286690">
    <ele>16.5</ele>
    <time>2026-10-07T13:02:43Z</time>
   </trkpt>
   <trkpt lat="22.7371030" lon="120.3286570">
    <ele>16.4</ele>
    <time>2026-10-07T13:02:44Z</time>
   </trkpt>
   <trkpt lat="22.7370910" lon="120.3286480">
    <ele>16.4</ele>
    <time>2026-10-07T13:02:45Z</time>
   </trkpt>
   <trkpt lat="22.7370780" lon="120.3286350">
    <ele>16.3</ele>
    <time>2026-10-07T13:02:46Z</time>
   </trkpt>
   <trkpt lat="22.7370650" lon="120.3286200">
    <ele>16.2</ele>
    <time>2026-10-07T13:02:47Z</time>
   </trkpt>
   <trkpt lat="22.7370550" lon="120.3286100">
    <ele>16.2</ele>
    <time>2026-10-07T13:02:48Z</time>
   </trkpt>
   <trkpt lat="22.7370460" lon="120.3285980">
    <ele>16.2</ele>
    <time>2026-10-07T13:02:49Z</time>
   </trkpt>
   <trkpt lat="22.7370330" lon="120.3285840">
    <ele>16.1</ele>
    <time>2026-10-07T13:02:50Z</time>
   </trkpt>
   <trkpt lat="22.7370200" lon="120.3285700">
    <ele>16.1</ele>
    <time>2026-10-07T13:02:51Z</time>
   </trkpt>
   <trkpt lat="22.7370090" lon="120.3285580">
    <ele>16.0</ele>
    <time>2026-10-07T13:02:52Z</time>
   </trkpt>
   <trkpt lat="22.7369970" lon="120.3285470">
    <ele>16.0</ele>
    <time>2026-10-07T13:02:53Z</time>
   </trkpt>
   <trkpt lat="22.7369840" lon="120.3285310">
    <ele>15.9</ele>
    <time>2026-10-07T13:02:54Z</time>
   </trkpt>
   <trkpt lat="22.7369720" lon="120.3285160">
    <ele>15.9</ele>
    <time>2026-10-07T13:02:55Z</time>
   </trkpt>
   <trkpt lat="22.7369600" lon="120.3285040">
    <ele>15.8</ele>
    <time>2026-10-07T13:02:56Z</time>
   </trkpt>
   <trkpt lat="22.7369500" lon="120.3284920">
    <ele>15.8</ele>
    <time>2026-10-07T13:02:57Z</time>
   </trkpt>
   <trkpt lat="22.7369370" lon="120.3284800">
    <ele>15.7</ele>
    <time>2026-10-07T13:02:58Z</time>
   </trkpt>
   <trkpt lat="22.7369270" lon="120.3284750">
    <ele>15.7</ele>
    <time>2026-10-07T13:02:59Z</time>
   </trkpt>
   <trkpt lat="22.7369180" lon="120.3284790">
    <ele>15.7</ele>
    <time>2026-10-07T13:03:00Z</time>
   </trkpt>
   <trkpt lat="22.7369140" lon="120.3284880">
    <ele>15.7</ele>
    <time>2026-10-07T13:03:01Z</time>
   </trkpt>
   <trkpt lat="22.7369140" lon="120.3285010">
    <ele>15.7</ele>
    <time>2026-10-07T13:03:02Z</time>
   </trkpt>
   <trkpt lat="22.7369190" lon="120.3285170">
    <ele>15.8</ele>
    <time>2026-10-07T13:03:03Z</time>
   </trkpt>
   <trkpt lat="22.7369310" lon="120.3285230">
    <ele>15.8</ele>
    <time>2026-10-07T13:03:04Z</time>
   </trkpt>
   <trkpt lat="22.7369440" lon="120.3285280">
    <ele>15.8</ele>
    <time>2026-10-07T13:03:05Z</time>
   </trkpt>
   <trkpt lat="22.7369560" lon="120.3285390">
    <ele>15.9</ele>
    <time>2026-10-07T13:03:06Z</time>
   </trkpt>
   <trkpt lat="22.7369660" lon="120.3285530">
    <ele>15.9</ele>
    <time>2026-10-07T13:03:07Z</time>
   </trkpt>
   <trkpt lat="22.7369810" lon="120.3285640">
    <ele>16.0</ele>
    <time>2026-10-07T13:03:08Z</time>
   </trkpt>
   <trkpt lat="22.7369990" lon="120.3285770">
    <ele>16.0</ele>
    <time>2026-10-07T13:03:09Z</time>
   </trkpt>
   <trkpt lat="22.7370140" lon="120.3285880">
    <ele>16.1</ele>
    <time>2026-10-07T13:03:10Z</time>
   </trkpt>
   <trkpt lat="22.7370270" lon="120.3286030">
    <ele>16.1</ele>
    <time>2026-10-07T13:03:11Z</time>
   </trkpt>
   <trkpt lat="22.7370380" lon="120.3286100">
    <ele>16.2</ele>
    <time>2026-10-07T13:03:12Z</time>
   </trkpt>
   <trkpt lat="22.7370490" lon="120.3286190">
    <ele>16.2</ele>
    <time>2026-10-07T13:03:13Z</time>
   </trkpt>
   <trkpt lat="22.7370600" lon="120.3286250">
    <ele>16.3</ele>
    <time>2026-10-07T13:03:14Z</time>
   </trkpt>
   <trkpt lat="22.7370690" lon="120.3286350">
    <ele>16.3</ele>
    <time>2026-10-07T13:03:15Z</time>
   </trkpt>
   <trkpt lat="22.7370810" lon="120.3286460">
    <ele>16.3</ele>
    <time>2026-10-07T13:03:16Z</time>
   </trkpt>
   <trkpt lat="22.7370940" lon="120.3286580">
    <ele>16.4</ele>
    <time>2026-10-07T13:03:17Z</time>
   </trkpt>
   <trkpt lat="22.7371030" lon="120.3286690">
    <ele>16.5</ele>
    <time>2026-10-07T13:03:18Z</time>
   </trkpt>
   <trkpt lat="22.7371140" lon="120.3286790">
    <ele>16.5</ele>
    <time>2026-10-07T13:03:19Z</time>
   </trkpt>
   <trkpt lat="22.7371250" lon="120.3286880">
    <ele>16.6</ele>
    <time>2026-10-07T13:03:20Z</time>
   </trkpt>
   <trkpt lat="22.7371360" lon="120.3286980">
    <ele>16.6</ele>
    <time>2026-10-07T13:03:21Z</time>
   </trkpt>
   <trkpt lat="22.7371490" lon="120.3287090">
    <ele>16.7</ele>
    <time>2026-10-07T13:03:22Z</time>
   </trkpt>
   <trkpt lat="22.7371620" lon="120.3287190">
    <ele>16.7</ele>
    <time>2026-10-07T13:03:23Z</time>
   </trkpt>
   <trkpt lat="22.7371760" lon="120.3287310">
    <ele>16.8</ele>
    <time>2026-10-07T13:03:24Z</time>
   </trkpt>
   <trkpt lat="22.7371890" lon="120.3287440">
    <ele>16.9</ele>
    <time>2026-10-07T13:03:25Z</time>
   </trkpt>
   <trkpt lat="22.7372030" lon="120.3287560">
    <ele>17.0</ele>
    <time>2026-10-07T13:03:26Z</time>
   </trkpt>
   <trkpt lat="22.7372140" lon="120.3287690">
    <ele>17.0</ele>
    <time>2026-10-07T13:03:27Z</time>
   </trkpt>
   <trkpt lat="22.7372270" lon="120.3287830">
    <ele>17.1</ele>
    <time>2026-10-07T13:03:28Z</time>
   </trkpt>
   <trkpt lat="22.7372440" lon="120.3287970">
    <ele>17.2</ele>
    <time>2026-10-07T13:03:29Z</time>
   </trkpt>
   <trkpt lat="22.7372590" lon="120.3288130">
    <ele>17.3</ele>
    <time>2026-10-07T13:03:30Z</time>
   </trkpt>
   <trkpt lat="22.7372730" lon="120.3288270">
    <ele>17.4</ele>
    <time>2026-10-07T13:03:31Z</time>
   </trkpt>
   <trkpt lat="22.7372870" lon="120.3288420">
    <ele>17.5</ele>
    <time>2026-10-07T13:03:32Z</time>
   </trkpt>
   <trkpt lat="22.7373020" lon="120.3288580">
    <ele>17.6</ele>
    <time>2026-10-07T13:03:33Z</time>
   </trkpt>
   <trkpt lat="22.7373210" lon="120.3288760">
    <ele>17.7</ele>
    <time>2026-10-07T13:03:34Z</time>
   </trkpt>
   <trkpt lat="22.7373340" lon="120.3288900">
    <ele>17.8</ele>
    <time>2026-10-07T13:03:35Z</time>
   </trkpt>
   <trkpt lat="22.7373510" lon="120.3289070">
    <ele>18.0</ele>
    <time>2026-10-07T13:03:36Z</time>
   </trkpt>
   <trkpt lat="22.7373660" lon="120.3289260">
    <ele>18.1</ele>
    <time>2026-10-07T13:03:37Z</time>
   </trkpt>
   <trkpt lat="22.7373820" lon="120.3289430">
    <ele>18.2</ele>
    <time>2026-10-07T13:03:38Z</time>
   </trkpt>
   <trkpt lat="22.7373990" lon="120.3289590">
    <ele>18.3</ele>
    <time>2026-10-07T13:03:39Z</time>
   </trkpt>
   <trkpt lat="22.7374160" lon="120.3289750">
    <ele>18.4</ele>
    <time>2026-10-07T13:03:40Z</time>
   </trkpt>
   <trkpt lat="22.7374340" lon="120.3289920">
    <ele>18.6</ele>
    <time>2026-10-07T13:03:41Z</time>
   </trkpt>
   <trkpt lat="22.7374490" lon="120.3290070">
    <ele>18.7</ele>
    <time>2026-10-07T13:03:42Z</time>
   </trkpt>
   <trkpt lat="22.7374640" lon="120.3290220">
    <ele>18.8</ele>
    <time>2026-10-07T13:03:43Z</time>
   </trkpt>
   <trkpt lat="22.7374790" lon="120.3290400">
    <ele>18.9</ele>
    <time>2026-10-07T13:03:44Z</time>
   </trkpt>
   <trkpt lat="22.7374910" lon="120.3290590">
    <ele>19.1</ele>
    <time>2026-10-07T13:03:45Z</time>
   </trkpt>
   <trkpt lat="22.7374910" lon="120.3290760">
    <ele>19.2</ele>
    <time>2026-10-07T13:03:46Z</time>
   </trkpt>
   <trkpt lat="22.7374800" lon="120.3290910">
    <ele>19.1</ele>
    <time>2026-10-07T13:03:47Z</time>
   </trkpt>
   <trkpt lat="22.7374640" lon="120.3291080">
    <ele>19.0</ele>
    <time>2026-10-07T13:03:48Z</time>
   </trkpt>
   <trkpt lat="22.7374450" lon="120.3291230">
    <ele>18.9</ele>
    <time>2026-10-07T13:03:49Z</time>
   </trkpt>
   <trkpt lat="22.7374290" lon="120.3291400">
    <ele>18.8</ele>
    <time>2026-10-07T13:03:50Z</time>
   </trkpt>
   <trkpt lat="22.7374120" lon="120.3291560">
    <ele>18.8</ele>
    <time>2026-10-07T13:03:51Z</time>
   </trkpt>
   <trkpt lat="22.7373950" lon="120.3291710">
    <ele>18.7</ele>
    <time>2026-10-07T13:03:52Z</time>
   </trkpt>
   <trkpt lat="22.7373770" lon="120.3291890">
    <ele>18.6</ele>
    <time>2026-10-07T13:03:53Z</time>
   </trkpt>
   <trkpt lat="22.7373620" lon="120.3292030">
    <ele>18.5</ele>
    <time>2026-10-07T13:03:54Z</time>
   </trkpt>
   <trkpt lat="22.7373480" lon="120.3292180">
    <ele>18.5</ele>
    <time>2026-10-07T13:03:55Z</time>
   </trkpt>
   <trkpt lat="22.7373350" lon="120.3292340">
    <ele>18.4</ele>
    <time>2026-10-07T13:03:56Z</time>
   </trkpt>
   <trkpt lat="22.7373250" lon="120.3292470">
    <ele>18.4</ele>
    <time>2026-10-07T13:03:57Z</time>
   </trkpt>
   <trkpt lat="22.7373140" lon="120.3292600">
    <ele>18.3</ele>
    <time>2026-10-07T13:03:58Z</time>
   </trkpt>
   <trkpt lat="22.7373060" lon="120.3292690">
    <ele>18.3</ele>
    <time>2026-10-07T13:03:59Z</time>
   </trkpt>
   <trkpt lat="22.7372980" lon="120.3292810">
    <ele>18.2</ele>
    <time>2026-10-07T13:04:00Z</time>
   </trkpt>
   <trkpt lat="22.7372870" lon="120.3292970">
    <ele>18.1</ele>
    <time>2026-10-07T13:04:01Z</time>
   </trkpt>
   <trkpt lat="22.7372730" lon="120.3293120">
    <ele>18.1</ele>
    <time>2026-10-07T13:04:02Z</time>
   </trkpt>
   <trkpt lat="22.7372590" lon="120.3293240">
    <ele>18.0</ele>
    <time>2026-10-07T13:04:03Z</time>
   </trkpt>
   <trkpt lat="22.7372440" lon="120.3293410">
    <ele>17.9</ele>
    <time>2026-10-07T13:04:04Z</time>
   </trkpt>
   <trkpt lat="22.7372300" lon="120.3293540">
    <ele>17.9</ele>
    <time>2026-10-07T13:04:05Z</time>
   </trkpt>
   <trkpt lat="22.7372160" lon="120.3293700">
    <ele>17.8</ele>
    <time>2026-10-07T13:04:06Z</time>
   </trkpt>
   <trkpt lat="22.7372020" lon="120.3293820">
    <ele>17.7</ele>
    <time>2026-10-07T13:04:07Z</time>
   </trkpt>
   <trkpt lat="22.7371890" lon="120.3293950">
    <ele>17.6</ele>
    <time>2026-10-07T13:04:08Z</time>
   </trkpt>
   <trkpt lat="22.7371740" lon="120.3294080">
    <ele>17.6</ele>
    <time>2026-10-07T13:04:09Z</time>
   </trkpt>
   <trkpt lat="22.7371590" lon="120.3294240">
    <ele>17.5</ele>
    <time>2026-10-07T13:04:10Z</time>
   </trkpt>
   <trkpt lat="22.7371450" lon="120.3294390">
    <ele>17.4</ele>
    <time>2026-10-07T13:04:11Z</time>
   </trkpt>
   <trkpt lat="22.7371300" lon="120.3294520">
    <ele>17.3</ele>
    <time>2026-10-07T13:04:12Z</time>
   </trkpt>
   <trkpt lat="22.7371160" lon="120.3294670">
    <ele>17.2</ele>
    <time>2026-10-07T13:04:13Z</time>
   </trkpt>
   <trkpt lat="22.7371010" lon="120.3294820">
    <ele>17.1</ele>
    <time>2026-10-07T13:04:14Z</time>
   </trkpt>
   <trkpt lat="22.7370860" lon="120.3294960">
    <ele>17.0</ele>
    <time>2026-10-07T13:04:15Z</time>
   </trkpt>
   <trkpt lat="22.7370700" lon="120.3295110">
    <ele>16.9</ele>
    <time>2026-10-07T13:04:16Z</time>
   </trkpt>
   <trkpt lat="22.7370550" lon="120.3295250">
    <ele>16.8</ele>
    <time>2026-10-07T13:04:17Z</time>
   </trkpt>
   <trkpt lat="22.7370420" lon="120.3295400">
    <ele>16.7</ele>
    <time>2026-10-07T13:04:18Z</time>
   </trkpt>
   <trkpt lat="22.7370290" lon="120.3295550">
    <ele>16.6</ele>
    <time>2026-10-07T13:04:19Z</time>
   </trkpt>
   <trkpt lat="22.7370140" lon="120.3295710">
    <ele>16.5</ele>
    <time>2026-10-07T13:04:20Z</time>
   </trkpt>
   <trkpt lat="22.7369990" lon="120.3295840">
    <ele>16.4</ele>
    <time>2026-10-07T13:04:21Z</time>
   </trkpt>
   <trkpt lat="22.7369820" lon="120.3296000">
    <ele>16.3</ele>
    <time>2026-10-07T13:04:22Z</time>
   </trkpt>
   <trkpt lat="22.7369660" lon="120.3296190">
    <ele>16.1</ele>
    <time>2026-10-07T13:04:23Z</time>
   </trkpt>
   <trkpt lat="22.7369500" lon="120.3296320">
    <ele>16.0</ele>
    <time>2026-10-07T13:04:24Z</time>
   </trkpt>
   <trkpt lat="22.7369330" lon="120.3296520">
    <ele>15.8</ele>
    <time>2026-10-07T13:04:25Z</time>
   </trkpt>
   <trkpt lat="22.7369170" lon="120.3296680">
    <ele>15.7</ele>
    <time>2026-10-07T13:04:26Z</time>
   </trkpt>
   <trkpt lat="22.7369030" lon="120.3296800">
    <ele>15.6</ele>
    <time>2026-10-07T13:04:27Z</time>
   </trkpt>
   <trkpt lat="22.7368880" lon="120.3296930">
    <ele>15.4</ele>
    <time>2026-10-07T13:04:28Z</time>
   </trkpt>
   <trkpt lat="22.7368710" lon="120.3297050">
    <ele>15.3</ele>
    <time>2026-10-07T13:04:29Z</time>
   </trkpt>
   <trkpt lat="22.7368520" lon="120.3297220">
    <ele>15.1</ele>
    <time>2026-10-07T13:04:30Z</time>
   </trkpt>
   <trkpt lat="22.7368350" lon="120.3297390">
    <ele>15.0</ele>
    <time>2026-10-07T13:04:31Z</time>
   </trkpt>
   <trkpt lat="22.7368190" lon="120.3297540">
    <ele>14.8</ele>
    <time>2026-10-07T13:04:32Z</time>
   </trkpt>
   <trkpt lat="22.7367990" lon="120.3297730">
    <ele>14.6</ele>
    <time>2026-10-07T13:04:33Z</time>
   </trkpt>
   <trkpt lat="22.7367820" lon="120.3297880">
    <ele>14.4</ele>
    <time>2026-10-07T13:04:34Z</time>
   </trkpt>
   <trkpt lat="22.7367630" lon="120.3298040">
    <ele>14.3</ele>
    <time>2026-10-07T13:04:35Z</time>
   </trkpt>
   <trkpt lat="22.7367390" lon="120.3298230">
    <ele>14.0</ele>
    <time>2026-10-07T13:04:36Z</time>
   </trkpt>
   <trkpt lat="22.7367170" lon="120.3298450">
    <ele>14.6</ele>
    <time>2026-10-07T13:04:37Z</time>
   </trkpt>
   <trkpt lat="22.7366950" lon="120.3298700">
    <ele>15.1</ele>
    <time>2026-10-07T13:04:38Z</time>
   </trkpt>
   <trkpt lat="22.7366750" lon="120.3298920">
    <ele>15.6</ele>
    <time>2026-10-07T13:04:39Z</time>
   </trkpt>
   <trkpt lat="22.7366450" lon="120.3299310">
    <ele>16.4</ele>
    <time>2026-10-07T13:04:40Z</time>
   </trkpt>
   <trkpt lat="22.7366190" lon="120.3299630">
    <ele>17.0</ele>
    <time>2026-10-07T13:04:41Z</time>
   </trkpt>
   <trkpt lat="22.7365980" lon="120.3299950">
    <ele>17.6</ele>
    <time>2026-10-07T13:04:42Z</time>
   </trkpt>
   <trkpt lat="22.7365770" lon="120.3300170">
    <ele>18.1</ele>
    <time>2026-10-07T13:04:43Z</time>
   </trkpt>
   <trkpt lat="22.7365630" lon="120.3300350">
    <ele>18.5</ele>
    <time>2026-10-07T13:04:44Z</time>
   </trkpt>
   <trkpt lat="22.7365540" lon="120.3300420">
    <ele>18.7</ele>
    <time>2026-10-07T13:04:45Z</time>
   </trkpt>
   <trkpt lat="22.7365430" lon="120.3300490">
    <ele>18.9</ele>
    <time>2026-10-07T13:04:46Z</time>
   </trkpt>
   <trkpt lat="22.7365240" lon="120.3300700">
    <ele>19.4</ele>
    <time>2026-10-07T13:04:47Z</time>
   </trkpt>
   <trkpt lat="22.7365070" lon="120.3301060">
    <ele>20.0</ele>
    <time>2026-10-07T13:04:48Z</time>
   </trkpt>
   <trkpt lat="22.7365370" lon="120.3301660">
    <ele>20.0</ele>
    <time>2026-10-07T13:04:49Z</time>
   </trkpt>
   <trkpt lat="22.7366210" lon="120.3302590">
    <ele>20.0</ele>
    <time>2026-10-07T13:04:50Z</time>
   </trkpt>
   <trkpt lat="22.7367210" lon="120.3303550">
    <ele>20.0</ele>
    <time>2026-10-07T13:04:51Z</time>
   </trkpt>
   <trkpt lat="22.7368140" lon="120.3304540">
    <ele>20.1</ele>
    <time>2026-10-07T13:04:52Z</time>
   </trkpt>
   <trkpt lat="22.7369010" lon="120.3305530">
    <ele>20.1</ele>
    <time>2026-10-07T13:04:53Z</time>
   </trkpt>
   <trkpt lat="22.7369910" lon="120.3306880">
    <ele>20.0</ele>
    <time>2026-10-07T13:04:54Z</time>
   </trkpt>
   <trkpt lat="22.7370990" lon="120.3307900">
    <ele>20.0</ele>
    <time>2026-10-07T13:04:55Z</time>
   </trkpt>
   <trkpt lat="22.7371900" lon="120.3308780">
    <ele>20.0</ele>
    <time>2026-10-07T13:04:56Z</time>
   </trkpt>
   <trkpt lat="22.7372720" lon="120.3309630">
    <ele>20.0</ele>
    <time>2026-10-07T13:04:57Z</time>
   </trkpt>
   <trkpt lat="22.7373480" lon="120.3310450">
    <ele>20.0</ele>
    <time>2026-10-07T13:04:58Z</time>
   </trkpt>
   <trkpt lat="22.7374160" lon="120.3311150">
    <ele>20.1</ele>
    <time>2026-10-07T13:04:59Z</time>
   </trkpt>
   <trkpt lat="22.7374680" lon="120.3311760">
    <ele>20.1</ele>
    <time>2026-10-07T13:05:00Z</time>
   </trkpt>
   <trkpt lat="22.7375050" lon="120.3312280">
    <ele>20.1</ele>
    <time>2026-10-07T13:05:01Z</time>
   </trkpt>
   <trkpt lat="22.7375240" lon="120.3312720">
    <ele>20.1</ele>
    <time>2026-10-07T13:05:02Z</time>
   </trkpt>
   <trkpt lat="22.7375290" lon="120.3313010">
    <ele>20.2</ele>
    <time>2026-10-07T13:05:03Z</time>
   </trkpt>
   <trkpt lat="22.7375300" lon="120.3313140">
    <ele>20.2</ele>
    <time>2026-10-07T13:05:04Z</time>
   </trkpt>
   <trkpt lat="22.7375260" lon="120.3313040">
    <ele>20.2</ele>
    <time>2026-10-07T13:05:05Z</time>
   </trkpt>
   <trkpt lat="22.7375260" lon="120.3312980">
    <ele>20.2</ele>
    <time>2026-10-07T13:05:06Z</time>
   </trkpt>
   <trkpt lat="22.7375260" lon="120.3312960">
    <ele>20.2</ele>
    <time>2026-10-07T13:05:07Z</time>
   </trkpt>
   <trkpt lat="22.7375270" lon="120.3312960">
    <ele>20.2</ele>
    <time>2026-10-07T13:05:08Z</time>
   </trkpt>
   <trkpt lat="22.7375270" lon="120.3312950">
    <ele>20.2</ele>
    <time>2026-10-07T13:05:09Z</time>
   </trkpt>
   <trkpt lat="22.7375280" lon="120.3312940">
    <ele>20.2</ele>
    <time>2026-10-07T13:05:10Z</time>
   </trkpt>
   <trkpt lat="22.7375290" lon="120.3312940">
    <ele>20.2</ele>
    <time>2026-10-07T13:05:11Z</time>
   </trkpt>
   <trkpt lat="22.7375290" lon="120.3312930">
    <ele>20.2</ele>
    <time>2026-10-07T13:05:12Z</time>
   </trkpt>
   <trkpt lat="22.7375310" lon="120.3312910">
    <ele>20.2</ele>
    <time>2026-10-07T13:05:13Z</time>
   </trkpt>
   <trkpt lat="22.7375280" lon="120.3312930">
    <ele>20.2</ele>
    <time>2026-10-07T13:05:14Z</time>
   </trkpt>
   <trkpt lat="22.7375260" lon="120.3312930">
    <ele>20.2</ele>
    <time>2026-10-07T13:05:15Z</time>
   </trkpt>
   <trkpt lat="22.7375260" lon="120.3312930">
    <ele>20.2</ele>
    <time>2026-10-07T13:05:16Z</time>
   </trkpt>
  </trkseg>
 </trk>
</gpx>
