<?xml version="1.0" encoding="UTF-8"?>
<gpx creator="StravaGPX" version="1.1" xmlns="http://www.topografix.com/GPX/1/1" xmlns:xsi="http://www.w3.org/2001/XMLSchema-instance" xsi:schemaLocation="http://www.topografix.com/GPX/1/1 http://www.topografix.com/GPX/1/1/gpx.xsd">
 <metadata>
  <time>2026-10-07T07:07:25Z</time>
 </metadata>
 <trk>
  <name>午後電動自行車騎乘</name>
  <type>ebikeride</type>
  <trkseg>
   <trkpt lat="22.7267400" lon="120.3198890">
    <ele>14.4</ele>
    <time>2026-10-07T07:07:25Z</time>
   </trkpt>
   <trkpt lat="22.7267400" lon="120.3198890">
    <ele>14.4</ele>
    <time>2026-10-07T07:07:26Z</time>
   </trkpt>
   <trkpt lat="22.7267300" lon="120.3198810">
    <ele>14.4</ele>
    <time>2026-10-07T07:07:27Z</time>
   </trkpt>
   <trkpt lat="22.7267310" lon="120.3198800">
    <ele>14.4</ele>
    <time>2026-10-07T07:07:28Z</time>
   </trkpt>
   <trkpt lat="22.7267320" lon="120.3198800">
    <ele>14.4</ele>
    <time>2026-10-07T07:07:29Z</time>
   </trkpt>
   <trkpt lat="22.7267390" lon="120.3198850">
    <ele>14.4</ele>
    <time>2026-10-07T07:07:30Z</time>
   </trkpt>
   <trkpt lat="22.7267390" lon="120.3198830">
    <ele>14.4</ele>
    <time>2026-10-07T07:07:31Z</time>
   </trkpt>
   <trkpt lat="22.7267400" lon="120.3198840">
    <ele>14.3</ele>
    <time>2026-10-07T07:07:32Z</time>
   </trkpt>
   <trkpt lat="22.7267350" lon="120.3198780">
    <ele>14.3</ele>
    <time>2026-10-07T07:07:33Z</time>
   </trkpt>
   <trkpt lat="22.7267300" lon="120.3198850">
    <ele>14.3</ele>
    <time>2026-10-07T07:07:34Z</time>
   </trkpt>
   <trkpt lat="22.7267360" lon="120.3198830">
    <ele>14.3</ele>
    <time>2026-10-07T07:07:35Z</time>
   </trkpt>
   <trkpt lat="22.7267390" lon="120.3198820">
    <ele>14.3</ele>
    <time>2026-10-07T07:07:36Z</time>
   </trkpt>
   <trkpt lat="22.7267410" lon="120.3198850">
    <ele>14.3</ele>
    <time>2026-10-07T07:07:37Z</time>
   </trkpt>
   <trkpt lat="22.7266690" lon="120.3198960">
    <ele>14.0</ele>
    <time>2026-10-07T07:12:13Z</time>
   </trkpt>
   <trkpt lat="22.7266820" lon="120.3199230">
    <ele>13.9</ele>
    <time>2026-10-07T07:12:14Z</time>
   </trkpt>
   <trkpt lat="22.7266750" lon="120.3199470">
    <ele>13.9</ele>
    <time>2026-10-07T07:12:15Z</time>
   </trkpt>
   <trkpt lat="22.7266710" lon="120.3199680">
    <ele>13.8</ele>
    <time>2026-10-07T07:12:16Z</time>
   </trkpt>
   <trkpt lat="22.7266650" lon="120.3199730">
    <ele>13.8</ele>
    <time>2026-10-07T07:12:17Z</time>
   </trkpt>
   <trkpt lat="22.7266670" lon="120.3199890">
    <ele>13.7</ele>
    <time>2026-10-07T07:12:18Z</time>
   </trkpt>
   <trkpt lat="22.7266750" lon="120.3200100">
    <ele>13.7</ele>
    <time>2026-10-07T07:12:19Z</time>
   </trkpt>
   <trkpt lat="22.7266820" lon="120.3200350">
    <ele>13.6</ele>
    <time>2026-10-07T07:12:20Z</time>
   </trkpt>
   <trkpt lat="22.7266890" lon="120.3200360">
    <ele>13.6</ele>
    <time>2026-10-07T07:12:21Z</time>
   </trkpt>
   <trkpt lat="22.7266890" lon="120.3200360">
    <ele>13.6</ele>
    <time>2026-10-07T07:12:22Z</time>
   </trkpt>
   <trkpt lat="22.7266890" lon="120.3200360">
    <ele>13.6</ele>
    <time>2026-10-07T07:12:23Z</time>
   </trkpt>
   <trkpt lat="22.7266890" lon="120.3200360">
    <ele>13.6</ele>
    <time>2026-10-07T07:12:24Z</time>
   </trkpt>
   <trkpt lat="22.7266900" lon="120.3200360">
    <ele>13.6</ele>
    <time>2026-10-07T07:12:25Z</time>
   </trkpt>
   <trkpt lat="22.7266900" lon="120.3200360">
    <ele>13.6</ele>
    <time>2026-10-07T07:12:26Z</time>
   </trkpt>
   <trkpt lat="22.7266900" lon="120.3200360">
    <ele>13.6</ele>
    <time>2026-10-07T07:12:27Z</time>
   </trkpt>
   <trkpt lat="22.7266900" lon="120.3200360">
    <ele>13.6</ele>
    <time>2026-10-07T07:12:28Z</time>
   </trkpt>
   <trkpt lat="22.7266900" lon="120.3200360">
    <ele>13.6</ele>
    <time>2026-10-07T07:12:29Z</time>
   </trkpt>
   <trkpt lat="22.7266910" lon="120.3200360">
    <ele>13.6</ele>
    <time>2026-10-07T07:12:30Z</time>
   </trkpt>
   <trkpt lat="22.7266970" lon="120.3200370">
    <ele>13.6</ele>
    <time>2026-10-07T07:13:01Z</time>
   </trkpt>
   <trkpt lat="22.7266970" lon="120.3200370">
    <ele>13.6</ele>
    <time>2026-10-07T07:13:02Z</time>
   </trkpt>
   <trkpt lat="22.7266970" lon="120.3200370">
    <ele>13.6</ele>
    <time>2026-10-07T07:13:03Z</time>
   </trkpt>
   <trkpt lat="22.7266970" lon="120.3200370">
    <ele>13.6</ele>
    <time>2026-10-07T07:13:04Z</time>
   </trkpt>
   <trkpt lat="22.7266970" lon="120.3200370">
    <ele>13.6</ele>
    <time>2026-10-07T07:13:05Z</time>
   </trkpt>
   <trkpt lat="22.7266980" lon="120.3200370">
    <ele>13.6</ele>
    <time>2026-10-07T07:13:06Z</time>
   </trkpt>
   <trkpt lat="22.7266980" lon="120.3200370">
    <ele>13.6</ele>
    <time>2026-10-07T07:13:07Z</time>
   </trkpt>
   <trkpt lat="22.7266980" lon="120.3200370">
    <ele>13.6</ele>
    <time>2026-10-07T07:13:08Z</time>
   </trkpt>
   <trkpt lat="22.7267040" lon="120.3200490">
    <ele>13.5</ele>
    <time>2026-10-07T07:13:09Z</time>
   </trkpt>
   <trkpt lat="22.7266930" lon="120.3200680">
    <ele>13.5</ele>
    <time>2026-10-07T07:13:10Z</time>
   </trkpt>
   <trkpt lat="22.7266980" lon="120.3201380">
    <ele>13.3</ele>
    <time>2026-10-07T07:13:11Z</time>
   </trkpt>
   <trkpt lat="22.7267100" lon="120.3201590">
    <ele>13.2</ele>
    <time>2026-10-07T07:13:12Z</time>
   </trkpt>
   <trkpt lat="22.7266940" lon="120.3201540">
    <ele>13.1</ele>
    <time>2026-10-07T07:13:13Z</time>
   </trkpt>
   <trkpt lat="22.7266760" lon="120.3201580">
    <ele>13.1</ele>
    <time>2026-10-07T07:13:14Z</time>
   </trkpt>
   <trkpt lat="22.7266660" lon="120.3201590">
    <ele>13.1</ele>
    <time>2026-10-07T07:13:15Z</time>
   </trkpt>
   <trkpt lat="22.7266480" lon="120.3201580">
    <ele>13.0</ele>
    <time>2026-10-07T07:13:16Z</time>
   </trkpt>
   <trkpt lat="22.7266310" lon="120.3201650">
    <ele>13.0</ele>
    <time>2026-10-07T07:13:17Z</time>
   </trkpt>
   <trkpt lat="22.7266180" lon="120.3201690">
    <ele>12.9</ele>
    <time>2026-10-07T07:13:18Z</time>
   </trkpt>
   <trkpt lat="22.7265970" lon="120.3201670">
    <ele>12.9</ele>
    <time>2026-10-07T07:13:19Z</time>
   </trkpt>
   <trkpt lat="22.7265960" lon="120.3201750">
    <ele>12.9</ele>
    <time>2026-10-07T07:13:20Z</time>
   </trkpt>
   <trkpt lat="22.7265690" lon="120.3201930">
    <ele>12.8</ele>
    <time>2026-10-07T07:13:21Z</time>
   </trkpt>
   <trkpt lat="22.7265760" lon="120.3201990">
    <ele>12.8</ele>
    <time>2026-10-07T07:13:22Z</time>
   </trkpt>
   <trkpt lat="22.7265790" lon="120.3202110">
    <ele>12.7</ele>
    <time>2026-10-07T07:13:23Z</time>
   </trkpt>
   <trkpt lat="22.7265780" lon="120.3202020">
    <ele>12.7</ele>
    <time>2026-10-07T07:13:24Z</time>
   </trkpt>
   <trkpt lat="22.7265810" lon="120.3202010">
    <ele>12.7</ele>
    <time>2026-10-07T07:13:25Z</time>
   </trkpt>
   <trkpt lat="22.7265620" lon="120.3201840">
    <ele>12.6</ele>
    <time>2026-10-07T07:13:26Z</time>
   </trkpt>
   <trkpt lat="22.7265590" lon="120.3201980">
    <ele>12.6</ele>
    <time>2026-10-07T07:13:27Z</time>
   </trkpt>
   <trkpt lat="22.7265590" lon="120.3201920">
    <ele>12.6</ele>
    <time>2026-10-07T07:13:28Z</time>
   </trkpt>
   <trkpt lat="22.7265570" lon="120.3201930">
    <ele>12.6</ele>
    <time>2026-10-07T07:13:29Z</time>
   </trkpt>
   <trkpt lat="22.7265550" lon="120.3202170">
    <ele>12.5</ele>
    <time>2026-10-07T07:13:30Z</time>
   </trkpt>
   <trkpt lat="22.7265630" lon="120.3202220">
    <ele>12.5</ele>
    <time>2026-10-07T07:13:31Z</time>
   </trkpt>
   <trkpt lat="22.7265720" lon="120.3202260">
    <ele>12.5</ele>
    <time>2026-10-07T07:13:32Z</time>
   </trkpt>
   <trkpt lat="22.7265800" lon="120.3202310">
    <ele>12.5</ele>
    <time>2026-10-07T07:13:33Z</time>
   </trkpt>
   <trkpt lat="22.7265880" lon="120.3202360">
    <ele>12.5</ele>
    <time>2026-10-07T07:13:34Z</time>
   </trkpt>
   <trkpt lat="22.7265880" lon="120.3202340">
    <ele>12.5</ele>
    <time>2026-10-07T07:13:35Z</time>
   </trkpt>
   <trkpt lat="22.7265890" lon="120.3202380">
    <ele>12.4</ele>
    <time>2026-10-07T07:13:36Z</time>
   </trkpt>
   <trkpt lat="22.7265890" lon="120.3202380">
    <ele>12.4</ele>
    <time>2026-10-07T07:13:37Z</time>
   </trkpt>
   <trkpt lat="22.7265690" lon="120.3203100">
    <ele>12.3</ele>
    <time>2026-10-07T07:14:14Z</time>
   </trkpt>
   <trkpt lat="22.7265720" lon="120.3203110">
    <ele>12.3</ele>
    <time>2026-10-07T07:14:15Z</time>
   </trkpt>
   <trkpt lat="22.7265770" lon="120.3203090">
    <ele>12.3</ele>
    <time>2026-10-07T07:14:16Z</time>
   </trkpt>
   <trkpt lat="22.7265780" lon="120.3203090">
    <ele>12.3</ele>
    <time>2026-10-07T07:14:17Z</time>
   </trkpt>
   <trkpt lat="22.7265780" lon="120.3203090">
    <ele>12.3</ele>
    <time>2026-10-07T07:14:18Z</time>
   </trkpt>
   <trkpt lat="22.7265690" lon="120.3202940">
    <ele>12.2</ele>
    <time>2026-10-07T07:14:19Z</time>
   </trkpt>
   <trkpt lat="22.7265680" lon="120.3202930">
    <ele>12.2</ele>
    <time>2026-10-07T07:14:20Z</time>
   </trkpt>
   <trkpt lat="22.7265690" lon="120.3202770">
    <ele>12.2</ele>
    <time>2026-10-07T07:14:21Z</time>
   </trkpt>
   <trkpt lat="22.7265620" lon="120.3202530">
    <ele>12.2</ele>
    <time>2026-10-07T07:14:22Z</time>
   </trkpt>
   <trkpt lat="22.7265670" lon="120.3202400">
    <ele>12.1</ele>
    <time>2026-10-07T07:14:23Z</time>
   </trkpt>
   <trkpt lat="22.7265690" lon="120.3201820">
    <ele>12.0</ele>
    <time>2026-10-07T07:14:25Z</time>
   </trkpt>
   <trkpt lat="22.7265640" lon="120.3201680">
    <ele>12.0</ele>
    <time>2026-10-07T07:14:26Z</time>
   </trkpt>
   <trkpt lat="22.7265550" lon="120.3201560">
    <ele>12.0</ele>
    <time>2026-10-07T07:14:27Z</time>
   </trkpt>
   <trkpt lat="22.7265340" lon="120.3201260">
    <ele>11.9</ele>
    <time>2026-10-07T07:14:28Z</time>
   </trkpt>
   <trkpt lat="22.7265350" lon="120.3201270">
    <ele>11.9</ele>
    <time>2026-10-07T07:14:29Z</time>
   </trkpt>
   <trkpt lat="22.7265290" lon="120.3201210">
    <ele>11.9</ele>
    <time>2026-10-07T07:14:30Z</time>
   </trkpt>
   <trkpt lat="22.7265300" lon="120.3201220">
    <ele>11.9</ele>
    <time>2026-10-07T07:14:31Z</time>
   </trkpt>
   <trkpt lat="22.7265270" lon="120.3201090">
    <ele>11.9</ele>
    <time>2026-10-07T07:14:32Z</time>
   </trkpt>
   <trkpt lat="22.7265180" lon="120.3201120">
    <ele>11.9</ele>
    <time>2026-10-07T07:14:33Z</time>
   </trkpt>
   <trkpt lat="22.7265350" lon="120.3201130">
    <ele>11.8</ele>
    <time>2026-10-07T07:14:34Z</time>
   </trkpt>
   <trkpt lat="22.7265360" lon="120.3201200">
    <ele>11.8</ele>
    <time>2026-10-07T07:14:35Z</time>
   </trkpt>
   <trkpt lat="22.7265360" lon="120.3201200">
    <ele>11.8</ele>
    <time>2026-10-07T07:14:36Z</time>
   </trkpt>
   <trkpt lat="22.7265090" lon="120.3200980">
    <ele>11.8</ele>
    <time>2026-10-07T07:15:17Z</time>
   </trkpt>
   <trkpt lat="22.7265080" lon="120.3201040">
    <ele>11.7</ele>
    <time>2026-10-07T07:15:18Z</time>
   </trkpt>
   <trkpt lat="22.7265040" lon="120.3201200">
    <ele>11.7</ele>
    <time>2026-10-07T07:15:19Z</time>
   </trkpt>
   <trkpt lat="22.7264820" lon="120.3201270">
    <ele>11.7</ele>
    <time>2026-10-07T07:15:20Z</time>
   </trkpt>
   <trkpt lat="22.7264770" lon="120.3201520">
    <ele>11.7</ele>
    <time>2026-10-07T07:15:21Z</time>
   </trkpt>
   <trkpt lat="22.7264420" lon="120.3201670">
    <ele>11.6</ele>
    <time>2026-10-07T07:15:22Z</time>
   </trkpt>
   <trkpt lat="22.7264440" lon="120.3201910">
    <ele>11.6</ele>
    <time>2026-10-07T07:15:23Z</time>
   </trkpt>
   <trkpt lat="22.7264500" lon="120.3201990">
    <ele>11.5</ele>
    <time>2026-10-07T07:15:24Z</time>
   </trkpt>
   <trkpt lat="22.7264500" lon="120.3202340">
    <ele>11.5</ele>
    <time>2026-10-07T07:15:25Z</time>
   </trkpt>
   <trkpt lat="22.7264550" lon="120.3202520">
    <ele>11.5</ele>
    <time>2026-10-07T07:15:26Z</time>
   </trkpt>
   <trkpt lat="22.7264630" lon="120.3202620">
    <ele>11.4</ele>
    <time>2026-10-07T07:15:27Z</time>
   </trkpt>
   <trkpt lat="22.7264640" lon="120.3202860">
    <ele>11.4</ele>
    <time>2026-10-07T07:15:28Z</time>
   </trkpt>
   <trkpt lat="22.7264610" lon="120.3202920">
    <ele>11.4</ele>
    <time>2026-10-07T07:15:29Z</time>
   </trkpt>
   <trkpt lat="22.7264510" lon="120.3203080">
    <ele>11.4</ele>
    <time>2026-10-07T07:15:30Z</time>
   </trkpt>
   <trkpt lat="22.7264410" lon="120.3203280">
    <ele>11.3</ele>
    <time>2026-10-07T07:15:31Z</time>
   </trkpt>
   <trkpt lat="22.7264300" lon="120.3203420">
    <ele>11.3</ele>
    <time>2026-10-07T07:15:32Z</time>
   </trkpt>
   <trkpt lat="22.7264290" lon="120.3203490">
    <ele>11.3</ele>
    <time>2026-10-07T07:15:33Z</time>
   </trkpt>
   <trkpt lat="22.7264220" lon="120.3203540">
    <ele>11.3</ele>
    <time>2026-10-07T07:15:34Z</time>
   </trkpt>
   <trkpt lat="22.7264270" lon="120.3203580">
    <ele>11.3</ele>
    <time>2026-10-07T07:15:35Z</time>
   </trkpt>
   <trkpt lat="22.7264040" lon="120.3203820">
    <ele>11.3</ele>
    <time>2026-10-07T07:15:36Z</time>
   </trkpt>
   <trkpt lat="22.7264230" lon="120.3203890">
    <ele>11.2</ele>
    <time>2026-10-07T07:15:37Z</time>
   </trkpt>
   <trkpt lat="22.7264240" lon="120.3203770">
    <ele>11.2</ele>
    <time>2026-10-07T07:15:38Z</time>
   </trkpt>
   <trkpt lat="22.7264240" lon="120.3203640">
    <ele>11.2</ele>
    <time>2026-10-07T07:15:39Z</time>
   </trkpt>
   <trkpt lat="22.7264250" lon="120.3203540">
    <ele>11.2</ele>
    <time>2026-10-07T07:15:40Z</time>
   </trkpt>
   <trkpt lat="22.7264250" lon="120.3203540">
    <ele>11.2</ele>
    <time>2026-10-07T07:15:41Z</time>
   </trkpt>
   <trkpt lat="22.7264250" lon="120.3203540">
    <ele>11.2</ele>
    <time>2026-10-07T07:15:42Z</time>
   </trkpt>
   <trkpt lat="22.7264270" lon="120.3203140">
    <ele>11.3</ele>
    <time>2026-10-07T07:15:43Z</time>
   </trkpt>
   <trkpt lat="22.7264140" lon="120.3202950">
    <ele>11.3</ele>
    <time>2026-10-07T07:15:44Z</time>
   </trkpt>
   <trkpt lat="22.7264160" lon="120.3202960">
    <ele>11.3</ele>
    <time>2026-10-07T07:15:45Z</time>
   </trkpt>
   <trkpt lat="22.7264160" lon="120.3202960">
    <ele>11.3</ele>
    <time>2026-10-07T07:15:46Z</time>
   </trkpt>
   <trkpt lat="22.7264020" lon="120.3201880">
    <ele>11.5</ele>
    <time>2026-10-07T07:16:00Z</time>
   </trkpt>
   <trkpt lat="22.7264140" lon="120.3201910">
    <ele>11.5</ele>
    <time>2026-10-07T07:16:01Z</time>
   </trkpt>
   <trkpt lat="22.7264140" lon="120.3201910">
    <ele>11.5</ele>
    <time>2026-10-07T07:16:02Z</time>
   </trkpt>
   <trkpt lat="22.7264070" lon="120.3201880">
    <ele>11.5</ele>
    <time>2026-10-07T07:16:03Z</time>
   </trkpt>
   <trkpt lat="22.7264080" lon="120.3201860">
    <ele>11.5</ele>
    <time>2026-10-07T07:16:04Z</time>
   </trkpt>
   <trkpt lat="22.7263850" lon="120.3201540">
    <ele>11.6</ele>
    <time>2026-10-07T07:16:05Z</time>
   </trkpt>
   <trkpt lat="22.7263870" lon="120.3201540">
    <ele>11.6</ele>
    <time>2026-10-07T07:16:06Z</time>
   </trkpt>
   <trkpt lat="22.7263850" lon="120.3201580">
    <ele>11.6</ele>
    <time>2026-10-07T07:16:07Z</time>
   </trkpt>
   <trkpt lat="22.7263950" lon="120.3201700">
    <ele>11.6</ele>
    <time>2026-10-07T07:16:08Z</time>
   </trkpt>
   <trkpt lat="22.7263960" lon="120.3201710">
    <ele>11.6</ele>
    <time>2026-10-07T07:16:09Z</time>
   </trkpt>
   <trkpt lat="22.7263960" lon="120.3201710">
    <ele>11.6</ele>
    <time>2026-10-07T07:16:10Z</time>
   </trkpt>
   <trkpt lat="22.7263960" lon="120.3201710">
    <ele>11.6</ele>
    <time>2026-10-07T07:16:11Z</time>
   </trkpt>
   <trkpt lat="22.7263960" lon="120.3201710">
    <ele>11.6</ele>
    <time>2026-10-07T07:16:12Z</time>
   </trkpt>
   <trkpt lat="22.7263960" lon="120.3201710">
    <ele>11.6</ele>
    <time>2026-10-07T07:16:13Z</time>
   </trkpt>
   <trkpt lat="22.7263880" lon="120.3201720">
    <ele>11.6</ele>
    <time>2026-10-07T07:16:14Z</time>
   </trkpt>
   <trkpt lat="22.7264160" lon="120.3202490">
    <ele>11.8</ele>
    <time>2026-10-07T07:16:30Z</time>
   </trkpt>
   <trkpt lat="22.7264220" lon="120.3202720">
    <ele>11.8</ele>
    <time>2026-10-07T07:16:31Z</time>
   </trkpt>
   <trkpt lat="22.7264410" lon="120.3202770">
    <ele>11.9</ele>
    <time>2026-10-07T07:16:32Z</time>
   </trkpt>
   <trkpt lat="22.7264540" lon="120.3202810">
    <ele>11.9</ele>
    <time>2026-10-07T07:16:33Z</time>
   </trkpt>
   <trkpt lat="22.7264660" lon="120.3202840">
    <ele>11.9</ele>
    <time>2026-10-07T07:16:34Z</time>
   </trkpt>
   <trkpt lat="22.7264490" lon="120.3202650">
    <ele>12.0</ele>
    <time>2026-10-07T07:16:35Z</time>
   </trkpt>
   <trkpt lat="22.7264510" lon="120.3202780">
    <ele>12.0</ele>
    <time>2026-10-07T07:16:36Z</time>
   </trkpt>
   <trkpt lat="22.7264680" lon="120.3203240">
    <ele>12.1</ele>
    <time>2026-10-07T07:16:37Z</time>
   </trkpt>
   <trkpt lat="22.7264750" lon="120.3202970">
    <ele>12.1</ele>
    <time>2026-10-07T07:16:38Z</time>
   </trkpt>
   <trkpt lat="22.7264850" lon="120.3202900">
    <ele>12.1</ele>
    <time>2026-10-07T07:16:39Z</time>
   </trkpt>
   <trkpt lat="22.7264940" lon="120.3202830">
    <ele>12.2</ele>
    <time>2026-10-07T07:16:40Z</time>
   </trkpt>
   <trkpt lat="22.7264890" lon="120.3202650">
    <ele>12.2</ele>
    <time>2026-10-07T07:16:41Z</time>
   </trkpt>
   <trkpt lat="22.7264920" lon="120.3202540">
    <ele>12.2</ele>
    <time>2026-10-07T07:16:42Z</time>
   </trkpt>
   <trkpt lat="22.7264960" lon="120.3202420">
    <ele>12.3</ele>
    <time>2026-10-07T07:16:43Z</time>
   </trkpt>
   <trkpt lat="22.7265040" lon="120.3202290">
    <ele>12.3</ele>
    <time>2026-10-07T07:16:44Z</time>
   </trkpt>
   <trkpt lat="22.7265190" lon="120.3202240">
    <ele>12.3</ele>
    <time>2026-10-07T07:16:45Z</time>
   </trkpt>
   <trkpt lat="22.7265260" lon="120.3202160">
    <ele>12.4</ele>
    <time>2026-10-07T07:16:46Z</time>
   </trkpt>
   <trkpt lat="22.7265320" lon="120.3202100">
    <ele>12.4</ele>
    <time>2026-10-07T07:16:47Z</time>
   </trkpt>
   <trkpt lat="22.7265430" lon="120.3202020">
    <ele>12.4</ele>
    <time>2026-10-07T07:16:48Z</time>
   </trkpt>
   <trkpt lat="22.7265550" lon="120.3201960">
    <ele>12.4</ele>
    <time>2026-10-07T07:16:49Z</time>
   </trkpt>
   <trkpt lat="22.7265490" lon="120.3201810">
    <ele>12.5</ele>
    <time>2026-10-07T07:16:50Z</time>
   </trkpt>
   <trkpt lat="22.7265540" lon="120.3201790">
    <ele>12.5</ele>
    <time>2026-10-07T07:16:51Z</time>
   </trkpt>
   <trkpt lat="22.7265550" lon="120.3201730">
    <ele>12.5</ele>
    <time>2026-10-07T07:16:52Z</time>
   </trkpt>
   <trkpt lat="22.7265560" lon="120.3201810">
    <ele>12.5</ele>
    <time>2026-10-07T07:16:53Z</time>
   </trkpt>
   <trkpt lat="22.7265660" lon="120.3201760">
    <ele>12.5</ele>
    <time>2026-10-07T07:16:54Z</time>
   </trkpt>
   <trkpt lat="22.7265780" lon="120.3201700">
    <ele>12.6</ele>
    <time>2026-10-07T07:16:55Z</time>
   </trkpt>
   <trkpt lat="22.7265840" lon="120.3201720">
    <ele>12.6</ele>
    <time>2026-10-07T07:16:56Z</time>
   </trkpt>
   <trkpt lat="22.7265830" lon="120.3201660">
    <ele>12.6</ele>
    <time>2026-10-07T07:16:57Z</time>
   </trkpt>
   <trkpt lat="22.7265740" lon="120.3201720">
    <ele>12.6</ele>
    <time>2026-10-07T07:16:58Z</time>
   </trkpt>
   <trkpt lat="22.7265700" lon="120.3201810">
    <ele>12.7</ele>
    <time>2026-10-07T07:16:59Z</time>
   </trkpt>
   <trkpt lat="22.7265720" lon="120.3201680">
    <ele>12.7</ele>
    <time>2026-10-07T07:17:00Z</time>
   </trkpt>
   <trkpt lat="22.7265570" lon="120.3201440">
    <ele>12.8</ele>
    <time>2026-10-07T07:17:01Z</time>
   </trkpt>
   <trkpt lat="22.7265360" lon="120.3201390">
    <ele>12.8</ele>
    <time>2026-10-07T07:17:02Z</time>
   </trkpt>
   <trkpt lat="22.7265260" lon="120.3201310">
    <ele>12.9</ele>
    <time>2026-10-07T07:17:03Z</time>
   </trkpt>
   <trkpt lat="22.7265190" lon="120.3201180">
    <ele>12.9</ele>
    <time>2026-10-07T07:17:04Z</time>
   </trkpt>
   <trkpt lat="22.7265170" lon="120.3201030">
    <ele>12.9</ele>
    <time>2026-10-07T07:17:06Z</time>
   </trkpt>
   <trkpt lat="22.7265090" lon="120.3200870">
    <ele>13.0</ele>
    <time>2026-10-07T07:17:07Z</time>
   </trkpt>
   <trkpt lat="22.7265480" lon="120.3201010">
    <ele>13.1</ele>
    <time>2026-10-07T07:17:08Z</time>
   </trkpt>
   <trkpt lat="22.7265580" lon="120.3200990">
    <ele>13.1</ele>
    <time>2026-10-07T07:17:09Z</time>
   </trkpt>
   <trkpt lat="22.7265650" lon="120.3200990">
    <ele>13.2</ele>
    <time>2026-10-07T07:17:10Z</time>
   </trkpt>
   <trkpt lat="22.7265750" lon="120.3200880">
    <ele>13.2</ele>
    <time>2026-10-07T07:17:11Z</time>
   </trkpt>
   <trkpt lat="22.7265820" lon="120.3200820">
    <ele>13.2</ele>
    <time>2026-10-07T07:17:12Z</time>
   </trkpt>
   <trkpt lat="22.7265890" lon="120.3200760">
    <ele>13.3</ele>
    <time>2026-10-07T07:17:13Z</time>
   </trkpt>
   <trkpt lat="22.7266030" lon="120.3200630">
    <ele>13.3</ele>
    <time>2026-10-07T07:17:14Z</time>
   </trkpt>
   <trkpt lat="22.7266080" lon="120.3200460">
    <ele>13.4</ele>
    <time>2026-10-07T07:17:15Z</time>
   </trkpt>
   <trkpt lat="22.7266100" lon="120.3200320">
    <ele>13.4</ele>
    <time>2026-10-07T07:17:16Z</time>
   </trkpt>
   <trkpt lat="22.7266110" lon="120.3200220">
    <ele>13.4</ele>
    <time>2026-10-07T07:17:17Z</time>
   </trkpt>
   <trkpt lat="22.7266160" lon="120.3200150">
    <ele>13.5</ele>
    <time>2026-10-07T07:17:18Z</time>
   </trkpt>
   <trkpt lat="22.7266110" lon="120.3200080">
    <ele>13.5</ele>
    <time>2026-10-07T07:17:19Z</time>
   </trkpt>
   <trkpt lat="22.7266400" lon="120.3200080">
    <ele>13.6</ele>
    <time>2026-10-07T07:17:20Z</time>
   </trkpt>
   <trkpt lat="22.7266620" lon="120.3200020">
    <ele>13.7</ele>
    <time>2026-10-07T07:17:21Z</time>
   </trkpt>
   <trkpt lat="22.7266620" lon="120.3200050">
    <ele>13.7</ele>
    <time>2026-10-07T07:17:22Z</time>
   </trkpt>
   <trkpt lat="22.7266650" lon="120.3199850">
    <ele>13.7</ele>
    <time>2026-10-07T07:17:23Z</time>
   </trkpt>
   <trkpt lat="22.7266490" lon="120.3199720">
    <ele>13.8</ele>
    <time>2026-10-07T07:17:24Z</time>
   </trkpt>
   <trkpt lat="22.7266600" lon="120.3199720">
    <ele>13.9</ele>
    <time>2026-10-07T07:17:25Z</time>
   </trkpt>
   <trkpt lat="22.7266700" lon="120.3199610">
    <ele>13.9</ele>
    <time>2026-10-07T07:17:26Z</time>
   </trkpt>
   <trkpt lat="22.7266830" lon="120.3199580">
    <ele>13.9</ele>
    <time>2026-10-07T07:17:27Z</time>
   </trkpt>
   <trkpt lat="22.7267030" lon="120.3199730">
    <ele>14.0</ele>
    <time>2026-10-07T07:17:28Z</time>
   </trkpt>
   <trkpt lat="22.7267050" lon="120.3199640">
    <ele>14.1</ele>
    <time>2026-10-07T07:17:29Z</time>
   </trkpt>
   <trkpt lat="22.7267050" lon="120.3199520">
    <ele>14.1</ele>
    <time>2026-10-07T07:17:30Z</time>
   </trkpt>
   <trkpt lat="22.7267360" lon="120.3199530">
    <ele>14.2</ele>
    <time>2026-10-07T07:17:31Z</time>
   </trkpt>
   <trkpt lat="22.7267390" lon="120.3199400">
    <ele>14.2</ele>
    <time>2026-10-07T07:17:32Z</time>
   </trkpt>
   <trkpt lat="22.7267430" lon="120.3199330">
    <ele>14.3</ele>
    <time>2026-10-07T07:17:33Z</time>
   </trkpt>
   <trkpt lat="22.7267370" lon="120.3199120">
    <ele>14.3</ele>
    <time>2026-10-07T07:17:34Z</time>
   </trkpt>
   <trkpt lat="22.7267330" lon="120.3199060">
    <ele>14.4</ele>
    <time>2026-10-07T07:17:35Z</time>
   </trkpt>
   <trkpt lat="22.7267330" lon="120.3198940">
    <ele>14.4</ele>
    <time>2026-10-07T07:17:36Z</time>
   </trkpt>
   <trkpt lat="22.7267320" lon="120.3198870">
    <ele>14.4</ele>
    <time>2026-10-07T07:17:37Z</time>
   </trkpt>
   <trkpt lat="22.7267340" lon="120.3198810">
    <ele>14.4</ele>
    <time>2026-10-07T07:17:38Z</time>
   </trkpt>
   <trkpt lat="22.7267280" lon="120.3198720">
    <ele>14.5</ele>
    <time>2026-10-07T07:17:39Z</time>
   </trkpt>
   <trkpt lat="22.7267260" lon="120.3198590">
    <ele>14.5</ele>
    <time>2026-10-07T07:17:40Z</time>
   </trkpt>
   <trkpt lat="22.7267230" lon="120.3198550">
    <ele>14.5</ele>
    <time>2026-10-07T07:17:41Z</time>
   </trkpt>
   <trkpt lat="22.7267280" lon="120.3198490">
    <ele>14.5</ele>
    <time>2026-10-07T07:17:42Z</time>
   </trkpt>
   <trkpt lat="22.7267390" lon="120.3198450">
    <ele>14.6</ele>
    <time>2026-10-07T07:17:43Z</time>
   </trkpt>
   <trkpt lat="22.7267570" lon="120.3198390">
    <ele>14.6</ele>
    <time>2026-10-07T07:17:44Z</time>
   </trkpt>
   <trkpt lat="22.7267630" lon="120.3198420">
    <ele>14.6</ele>
    <time>2026-10-07T07:17:45Z</time>
   </trkpt>
   <trkpt lat="22.7267560" lon="120.3198560">
    <ele>14.6</ele>
    <time>2026-10-07T07:17:46Z</time>
   </trkpt>
   <trkpt lat="22.7267530" lon="120.3198590">
    <ele>14.6</ele>
    <time>2026-10-07T07:17:47Z</time>
   </trkpt>
   <trkpt lat="22.7267520" lon="120.3198600">
    <ele>14.6</ele>
    <time>2026-10-07T07:17:48Z</time>
   </trkpt>
   <trkpt lat="22.7267550" lon="120.3198630">
    <ele>14.6</ele>
    <time>2026-10-07T07:17:49Z</time>
   </trkpt>
   <trkpt lat="22.7267570" lon="120.3198710">
    <ele>14.5</ele>
    <time>2026-10-07T07:17:50Z</time>
   </trkpt>
   <trkpt lat="22.7267560" lon="120.3198730">
    <ele>14.5</ele>
    <time>2026-10-07T07:17:51Z</time>
   </trkpt>
   <trkpt lat="22.7267540" lon="120.3198780">
    <ele>14.5</ele>
    <time>2026-10-07T07:17:52Z</time>
   </trkpt>
   <trkpt lat="22.7267530" lon="120.3198820">
    <ele>14.5</ele>
    <time>2026-10-07T07:17:53Z</time>
   </trkpt>
   <trkpt lat="22.7267520" lon="120.3198850">
    <ele>14.5</ele>
    <time>2026-10-07T07:17:54Z</time>
   </trkpt>
   <trkpt lat="22.7267110" lon="120.3199220">
    <ele>14.1</ele>
    <time>2026-10-07T07:18:17Z</time>
   </trkpt>
   <trkpt lat="22.7266980" lon="120.3199590">
    <ele>13.8</ele>
    <time>2026-10-07T07:18:18Z</time>
   </trkpt>
   <trkpt lat="22.7266880" lon="120.3200050">
    <ele>13.5</ele>
    <time>2026-10-07T07:18:19Z</time>
   </trkpt>
   <trkpt lat="22.7266770" lon="120.3200570">
    <ele>13.1</ele>
    <time>2026-10-07T07:18:20Z</time>
   </trkpt>
   <trkpt lat="22.7266630" lon="120.3200980">
    <ele>12.8</ele>
    <time>2026-10-07T07:18:21Z</time>
   </trkpt>
   <trkpt lat="22.7266380" lon="120.3201470">
    <ele>12.5</ele>
    <time>2026-10-07T07:18:22Z</time>
   </trkpt>
   <trkpt lat="22.7266020" lon="120.3201910">
    <ele>12.2</ele>
    <time>2026-10-07T07:18:23Z</time>
   </trkpt>
   <trkpt lat="22.7265560" lon="120.3202240">
    <ele>12.0</ele>
    <time>2026-10-07T07:18:24Z</time>
   </trkpt>
   <trkpt lat="22.7264700" lon="120.3202090">
    <ele>11.6</ele>
    <time>2026-10-07T07:18:25Z</time>
   </trkpt>
   <trkpt lat="22.7264520" lon="120.3202660">
    <ele>11.4</ele>
    <time>2026-10-07T07:18:26Z</time>
   </trkpt>
   <trkpt lat="22.7264290" lon="120.3203330">
    <ele>11.2</ele>
    <time>2026-10-07T07:18:27Z</time>
   </trkpt>
   <trkpt lat="22.7264160" lon="120.3204010">
    <ele>11.0</ele>
    <time>2026-10-07T07:18:28Z</time>
   </trkpt>
   <trkpt lat="22.7263760" lon="120.3204310">
    <ele>10.9</ele>
    <time>2026-10-07T07:18:29Z</time>
   </trkpt>
   <trkpt lat="22.7263540" lon="120.3204740">
    <ele>10.8</ele>
    <time>2026-10-07T07:18:30Z</time>
   </trkpt>
   <trkpt lat="22.7263420" lon="120.3205230">
    <ele>10.8</ele>
    <time>2026-10-07T07:18:31Z</time>
   </trkpt>
   <trkpt lat="22.7263290" lon="120.3205670">
    <ele>10.7</ele>
    <time>2026-10-07T07:18:32Z</time>
   </trkpt>
   <trkpt lat="22.7263030" lon="120.3205990">
    <ele>10.7</ele>
    <time>2026-10-07T07:18:33Z</time>
   </trkpt>
   <trkpt lat="22.7262850" lon="120.3206510">
    <ele>10.6</ele>
    <time>2026-10-07T07:18:34Z</time>
   </trkpt>
   <trkpt lat="22.7262740" lon="120.3206940">
    <ele>10.6</ele>
    <time>2026-10-07T07:18:35Z</time>
   </trkpt>
   <trkpt lat="22.7262350" lon="120.3207380">
    <ele>10.5</ele>
    <time>2026-10-07T07:18:36Z</time>
   </trkpt>
   <trkpt lat="22.7261930" lon="120.3207850">
    <ele>10.5</ele>
    <time>2026-10-07T07:18:37Z</time>
   </trkpt>
   <trkpt lat="22.7261610" lon="120.3208290">
    <ele>10.4</ele>
    <time>2026-10-07T07:18:38Z</time>
   </trkpt>
   <trkpt lat="22.7261190" lon="120.3208680">
    <ele>10.4</ele>
    <time>2026-10-07T07:18:39Z</time>
   </trkpt>
   <trkpt lat="22.7260540" lon="120.3209300">
    <ele>10.4</ele>
    <time>2026-10-07T07:18:40Z</time>
   </trkpt>
   <trkpt lat="22.7260320" lon="120.3209410">
    <ele>10.4</ele>
    <time>2026-10-07T07:18:41Z</time>
   </trkpt>
   <trkpt lat="22.7260510" lon="120.3209730">
    <ele>12.0</ele>
    <time>2026-10-07T07:18:42Z</time>
   </trkpt>
   <trkpt lat="22.7261010" lon="120.3209860">
    <ele>12.9</ele>
    <time>2026-10-07T07:18:43Z</time>
   </trkpt>
   <trkpt lat="22.7261590" lon="120.3210000">
    <ele>14.0</ele>
    <time>2026-10-07T07:18:44Z</time>
   </trkpt>
   <trkpt lat="22.7262210" lon="120.3210230">
    <ele>15.3</ele>
    <time>2026-10-07T07:18:45Z</time>
   </trkpt>
   <trkpt lat="22.7262410" lon="120.3210580">
    <ele>16.0</ele>
    <time>2026-10-07T07:18:46Z</time>
   </trkpt>
   <trkpt lat="22.7262780" lon="120.3210610">
    <ele>16.2</ele>
    <time>2026-10-07T07:18:47Z</time>
   </trkpt>
   <trkpt lat="22.7263210" lon="120.3210220">
    <ele>16.3</ele>
    <time>2026-10-07T07:18:48Z</time>
   </trkpt>
   <trkpt lat="22.7263460" lon="120.3209380">
    <ele>16.5</ele>
    <time>2026-10-07T07:18:49Z</time>
   </trkpt>
   <trkpt lat="22.7263750" lon="120.3208890">
    <ele>16.5</ele>
    <time>2026-10-07T07:18:50Z</time>
   </trkpt>
   <trkpt lat="22.7264040" lon="120.3208340">
    <ele>16.6</ele>
    <time>2026-10-07T07:18:51Z</time>
   </trkpt>
   <trkpt lat="22.7264390" lon="120.3207890">
    <ele>16.7</ele>
    <time>2026-10-07T07:18:52Z</time>
   </trkpt>
   <trkpt lat="22.7264720" lon="120.3207440">
    <ele>16.7</ele>
    <time>2026-10-07T07:18:53Z</time>
   </trkpt>
   <trkpt lat="22.7265000" lon="120.3206920">
    <ele>16.8</ele>
    <time>2026-10-07T07:18:54Z</time>
   </trkpt>
   <trkpt lat="22.7265290" lon="120.3206430">
    <ele>16.8</ele>
    <time>2026-10-07T07:18:55Z</time>
   </trkpt>
   <trkpt lat="22.7265590" lon="120.3205870">
    <ele>16.9</ele>
    <time>2026-10-07T07:18:56Z</time>
   </trkpt>
   <trkpt lat="22.7266010" lon="120.3205320">
    <ele>16.7</ele>
    <time>2026-10-07T07:18:57Z</time>
   </trkpt>
   <trkpt lat="22.7266400" lon="120.3204710">
    <ele>16.5</ele>
    <time>2026-10-07T07:18:58Z</time>
   </trkpt>
   <trkpt lat="22.7266660" lon="120.3204080">
    <ele>16.2</ele>
    <time>2026-10-07T07:18:59Z</time>
   </trkpt>
   <trkpt lat="22.7267040" lon="120.3203530">
    <ele>16.0</ele>
    <time>2026-10-07T07:19:00Z</time>
   </trkpt>
   <trkpt lat="22.7267440" lon="120.3203030">
    <ele>15.8</ele>
    <time>2026-10-07T07:19:01Z</time>
   </trkpt>
   <trkpt lat="22.7267860" lon="120.3202470">
    <ele>15.6</ele>
    <time>2026-10-07T07:19:02Z</time>
   </trkpt>
   <trkpt lat="22.7268340" lon="120.3201990">
    <ele>15.4</ele>
    <time>2026-10-07T07:19:03Z</time>
   </trkpt>
   <trkpt lat="22.7268840" lon="120.3201580">
    <ele>15.3</ele>
    <time>2026-10-07T07:19:04Z</time>
   </trkpt>
   <trkpt lat="22.7269050" lon="120.3201030">
    <ele>15.1</ele>
    <time>2026-10-07T07:19:05Z</time>
   </trkpt>
   <trkpt lat="22.7269160" lon="120.3200590">
    <ele>15.0</ele>
    <time>2026-10-07T07:19:06Z</time>
   </trkpt>
   <trkpt lat="22.7269440" lon="120.3200460">
    <ele>14.9</ele>
    <time>2026-10-07T07:19:07Z</time>
   </trkpt>
   <trkpt lat="22.7269710" lon="120.3200440">
    <ele>14.9</ele>
    <time>2026-10-07T07:19:08Z</time>
   </trkpt>
   <trkpt lat="22.7269920" lon="120.3200300">
    <ele>14.8</ele>
    <time>2026-10-07T07:19:09Z</time>
   </trkpt>
   <trkpt lat="22.7270130" lon="120.3199890">
    <ele>14.6</ele>
    <time>2026-10-07T07:19:10Z</time>
   </trkpt>
   <trkpt lat="22.7270400" lon="120.3199470">
    <ele>14.5</ele>
    <time>2026-10-07T07:19:11Z</time>
   </trkpt>
   <trkpt lat="22.7270750" lon="120.3199010">
    <ele>14.3</ele>
    <time>2026-10-07T07:19:12Z</time>
   </trkpt>
   <trkpt lat="22.7270880" lon="120.3198400">
    <ele>14.2</ele>
    <time>2026-10-07T07:19:13Z</time>
   </trkpt>
   <trkpt lat="22.7271180" lon="120.3197920">
    <ele>14.2</ele>
    <time>2026-10-07T07:19:14Z</time>
   </trkpt>
   <trkpt lat="22.7271390" lon="120.3197340">
    <ele>14.1</ele>
    <time>2026-10-07T07:19:15Z</time>
   </trkpt>
   <trkpt lat="22.7271780" lon="120.3196820">
    <ele>14.1</ele>
    <time>2026-10-07T07:19:16Z</time>
   </trkpt>
   <trkpt lat="22.7272170" lon="120.3196320">
    <ele>14.1</ele>
    <time>2026-10-07T07:19:17Z</time>
   </trkpt>
   <trkpt lat="22.7272600" lon="120.3195770">
    <ele>14.1</ele>
    <time>2026-10-07T07:19:18Z</time>
   </trkpt>
   <trkpt lat="22.7272910" lon="120.3195190">
    <ele>14.2</ele>
    <time>2026-10-07T07:19:19Z</time>
   </trkpt>
   <trkpt lat="22.7273320" lon="120.3194620">
    <ele>14.3</ele>
    <time>2026-10-07T07:19:20Z</time>
   </trkpt>
   <trkpt lat="22.7273660" lon="120.3193970">
    <ele>14.4</ele>
    <time>2026-10-07T07:19:21Z</time>
   </trkpt>
   <trkpt lat="22.7273960" lon="120.3193350">
    <ele>14.5</ele>
    <time>2026-10-07T07:19:22Z</time>
   </trkpt>
   <trkpt lat="22.7274260" lon="120.3192740">
    <ele>14.6</ele>
    <time>2026-10-07T07:19:23Z</time>
   </trkpt>
   <trkpt lat="22.7274570" lon="120.3192160">
    <ele>14.7</ele>
    <time>2026-10-07T07:19:24Z</time>
   </trkpt>
   <trkpt lat="22.7274740" lon="120.3191700">
    <ele>14.7</ele>
    <time>2026-10-07T07:19:25Z</time>
   </trkpt>
   <trkpt lat="22.7274840" lon="120.3191270">
    <ele>14.8</ele>
    <time>2026-10-07T07:19:26Z</time>
   </trkpt>
   <trkpt lat="22.7275140" lon="120.3190930">
    <ele>14.8</ele>
    <time>2026-10-07T07:19:27Z</time>
   </trkpt>
   <trkpt lat="22.7275460" lon="120.3190780">
    <ele>14.8</ele>
    <time>2026-10-07T07:19:28Z</time>
   </trkpt>
   <trkpt lat="22.7275470" lon="120.3190640">
    <ele>14.7</ele>
    <time>2026-10-07T07:19:29Z</time>
   </trkpt>
   <trkpt lat="22.7275190" lon="120.3190470">
    <ele>14.3</ele>
    <time>2026-10-07T07:19:30Z</time>
   </trkpt>
   <trkpt lat="22.7274750" lon="120.3190310">
    <ele>13.7</ele>
    <time>2026-10-07T07:19:31Z</time>
   </trkpt>
   <trkpt lat="22.7274490" lon="120.3190100">
    <ele>13.3</ele>
    <time>2026-10-07T07:19:32Z</time>
   </trkpt>
   <trkpt lat="22.7274250" lon="120.3189650">
    <ele>12.8</ele>
    <time>2026-10-07T07:19:33Z</time>
   </trkpt>
   <trkpt lat="22.7273900" lon="120.3189430">
    <ele>12.4</ele>
    <time>2026-10-07T07:19:34Z</time>
   </trkpt>
   <trkpt lat="22.7273520" lon="120.3189110">
    <ele>11.9</ele>
    <time>2026-10-07T07:19:35Z</time>
   </trkpt>
   <trkpt lat="22.7273100" lon="120.3188770">
    <ele>11.5</ele>
    <time>2026-10-07T07:19:36Z</time>
   </trkpt>
   <trkpt lat="22.7272830" lon="120.3188370">
    <ele>11.1</ele>
    <time>2026-10-07T07:19:37Z</time>
   </trkpt>
   <trkpt lat="22.7272620" lon="120.3188020">
    <ele>10.8</ele>
    <time>2026-10-07T07:19:38Z</time>
   </trkpt>
   <trkpt lat="22.7272620" lon="120.3187580">
    <ele>10.6</ele>
    <time>2026-10-07T07:19:39Z</time>
   </trkpt>
   <trkpt lat="22.7272800" lon="120.3187210">
    <ele>10.6</ele>
    <time>2026-10-07T07:19:41Z</time>
   </trkpt>
   <trkpt lat="22.7273120" lon="120.3186790">
    <ele>10.6</ele>
    <time>2026-10-07T07:19:42Z</time>
   </trkpt>
   <trkpt lat="22.7273480" lon="120.3186370">
    <ele>10.5</ele>
    <time>2026-10-07T07:19:43Z</time>
   </trkpt>
   <trkpt lat="22.7273820" lon="120.3185940">
    <ele>10.5</ele>
    <time>2026-10-07T07:19:44Z</time>
   </trkpt>
   <trkpt lat="22.7274240" lon="120.3185180">
    <ele>10.4</ele>
    <time>2026-10-07T07:19:45Z</time>
   </trkpt>
   <trkpt lat="22.7274660" lon="120.3184730">
    <ele>10.4</ele>
    <time>2026-10-07T07:19:46Z</time>
   </trkpt>
   <trkpt lat="22.7275110" lon="120.3184370">
    <ele>10.4</ele>
    <time>2026-10-07T07:19:47Z</time>
   </trkpt>
   <trkpt lat="22.7275460" lon="120.3183860">
    <ele>10.3</ele>
    <time>2026-10-07T07:19:48Z</time>
   </trkpt>
   <trkpt lat="22.7275880" lon="120.3183310">
    <ele>10.3</ele>
    <time>2026-10-07T07:19:49Z</time>
   </trkpt>
   <trkpt lat="22.7276340" lon="120.3182830">
    <ele>10.3</ele>
    <time>2026-10-07T07:19:50Z</time>
   </trkpt>
   <trkpt lat="22.7276600" lon="120.3182200">
    <ele>10.2</ele>
    <time>2026-10-07T07:19:51Z</time>
   </trkpt>
   <trkpt lat="22.7276980" lon="120.3181640">
    <ele>10.2</ele>
    <time>2026-10-07T07:19:52Z</time>
   </trkpt>
   <trkpt lat="22.7277350" lon="120.3181100">
    <ele>10.2</ele>
    <time>2026-10-07T07:19:53Z</time>
   </trkpt>
   <trkpt lat="22.7277900" lon="120.3180650">
    <ele>10.2</ele>
    <time>2026-10-07T07:19:54Z</time>
   </trkpt>
   <trkpt lat="22.7278320" lon="120.3180080">
    <ele>10.2</ele>
    <time>2026-10-07T07:19:55Z</time>
   </trkpt>
   <trkpt lat="22.7278640" lon="120.3179460">
    <ele>10.2</ele>
    <time>2026-10-07T07:19:56Z</time>
   </trkpt>
   <trkpt lat="22.7279000" lon="120.3178820">
    <ele>10.2</ele>
    <time>2026-10-07T07:19:57Z</time>
   </trkpt>
   <trkpt lat="22.7279430" lon="120.3178320">
    <ele>10.2</ele>
    <time>2026-10-07T07:19:58Z</time>
   </trkpt>
   <trkpt lat="22.7279690" lon="120.3177740">
    <ele>10.3</ele>
    <time>2026-10-07T07:19:59Z</time>
   </trkpt>
   <trkpt lat="22.7280000" lon="120.3177180">
    <ele>10.3</ele>
    <time>2026-10-07T07:20:00Z</time>
   </trkpt>
   <trkpt lat="22.7280390" lon="120.3176800">
    <ele>10.3</ele>
    <time>2026-10-07T07:20:01Z</time>
   </trkpt>
   <trkpt lat="22.7280630" lon="120.3176360">
    <ele>10.4</ele>
    <time>2026-10-07T07:20:02Z</time>
   </trkpt>
   <trkpt lat="22.7280880" lon="120.3175910">
    <ele>10.4</ele>
    <time>2026-10-07T07:20:03Z</time>
   </trkpt>
   <trkpt lat="22.7281100" lon="120.3175550">
    <ele>10.4</ele>
    <time>2026-10-07T07:20:04Z</time>
   </trkpt>
   <trkpt lat="22.7281380" lon="120.3175350">
    <ele>10.4</ele>
    <time>2026-10-07T07:20:05Z</time>
   </trkpt>
   <trkpt lat="22.7281480" lon="120.3175210">
    <ele>10.4</ele>
    <time>2026-10-07T07:20:06Z</time>
   </trkpt>
   <trkpt lat="22.7281380" lon="120.3175190">
    <ele>10.4</ele>
    <time>2026-10-07T07:20:07Z</time>
   </trkpt>
   <trkpt lat="22.7281260" lon="120.3175190">
    <ele>10.4</ele>
    <time>2026-10-07T07:20:08Z</time>
   </trkpt>
   <trkpt lat="22.7281140" lon="120.3175380">
    <ele>10.4</ele>
    <time>2026-10-07T07:20:09Z</time>
   </trkpt>
   <trkpt lat="22.7281020" lon="120.3175770">
    <ele>10.4</ele>
    <time>2026-10-07T07:20:10Z</time>
   </trkpt>
   <trkpt lat="22.7280800" lon="120.3176270">
    <ele>10.4</ele>
    <time>2026-10-07T07:20:11Z</time>
   </trkpt>
   <trkpt lat="22.7280450" lon="120.3176820">
    <ele>10.3</ele>
    <time>2026-10-07T07:20:12Z</time>
   </trkpt>
   <trkpt lat="22.7280050" lon="120.3177430">
    <ele>10.3</ele>
    <time>2026-10-07T07:20:13Z</time>
   </trkpt>
   <trkpt lat="22.7279620" lon="120.3178020">
    <ele>10.2</ele>
    <time>2026-10-07T07:20:14Z</time>
   </trkpt>
   <trkpt lat="22.7279140" lon="120.3178670">
    <ele>10.2</ele>
    <time>2026-10-07T07:20:15Z</time>
   </trkpt>
   <trkpt lat="22.7278720" lon="120.3179300">
    <ele>10.2</ele>
    <time>2026-10-07T07:20:16Z</time>
   </trkpt>
   <trkpt lat="22.7278200" lon="120.3179860">
    <ele>10.2</ele>
    <time>2026-10-07T07:20:17Z</time>
   </trkpt>
   <trkpt lat="22.7277650" lon="120.3180430">
    <ele>10.2</ele>
    <time>2026-10-07T07:20:18Z</time>
   </trkpt>
   <trkpt lat="22.7277220" lon="120.3180850">
    <ele>10.2</ele>
    <time>2026-10-07T07:20:19Z</time>
   </trkpt>
   <trkpt lat="22.7276730" lon="120.3181270">
    <ele>10.2</ele>
    <time>2026-10-07T07:20:20Z</time>
   </trkpt>
   <trkpt lat="22.7276290" lon="120.3181650">
    <ele>10.2</ele>
    <time>2026-10-07T07:20:21Z</time>
   </trkpt>
   <trkpt lat="22.7275840" lon="120.3182060">
    <ele>10.3</ele>
    <time>2026-10-07T07:20:22Z</time>
   </trkpt>
   <trkpt lat="22.7275460" lon="120.3182510">
    <ele>10.3</ele>
    <time>2026-10-07T07:20:23Z</time>
   </trkpt>
   <trkpt lat="22.7275020" lon="120.3182940">
    <ele>10.3</ele>
    <time>2026-10-07T07:20:24Z</time>
   </trkpt>
   <trkpt lat="22.7274610" lon="120.3183370">
    <ele>10.3</ele>
    <time>2026-10-07T07:20:25Z</time>
   </trkpt>
   <trkpt lat="22.7274360" lon="120.3183870">
    <ele>10.4</ele>
    <time>2026-10-07T07:20:26Z</time>
   </trkpt>
   <trkpt lat="22.7274190" lon="120.3184400">
    <ele>10.4</ele>
    <time>2026-10-07T07:20:27Z</time>
   </trkpt>
   <trkpt lat="22.7273870" lon="120.3184910">
    <ele>10.4</ele>
    <time>2026-10-07T07:20:28Z</time>
   </trkpt>
   <trkpt lat="22.7273460" lon="120.3185360">
    <ele>10.5</ele>
    <time>2026-10-07T07:20:29Z</time>
   </trkpt>
   <trkpt lat="22.7273100" lon="120.3185880">
    <ele>10.5</ele>
    <time>2026-10-07T07:20:30Z</time>
   </trkpt>
   <trkpt lat="22.7272760" lon="120.3186420">
    <ele>10.6</ele>
    <time>2026-10-07T07:20:31Z</time>
   </trkpt>
   <trkpt lat="22.7272550" lon="120.3186990">
    <ele>10.6</ele>
    <time>2026-10-07T07:20:32Z</time>
   </trkpt>
   <trkpt lat="22.7272360" lon="120.3187350">
    <ele>10.6</ele>
    <time>2026-10-07T07:20:33Z</time>
   </trkpt>
   <trkpt lat="22.7272030" lon="120.3187740">
    <ele>10.6</ele>
    <time>2026-10-07T07:20:34Z</time>
   </trkpt>
   <trkpt lat="22.7271680" lon="120.3188130">
    <ele>10.7</ele>
    <time>2026-10-07T07:20:35Z</time>
   </trkpt>
   <trkpt lat="22.7271280" lon="120.3188600">
    <ele>10.8</ele>
    <time>2026-10-07T07:20:36Z</time>
   </trkpt>
   <trkpt lat="22.7270900" lon="120.3189090">
    <ele>10.9</ele>
    <time>2026-10-07T07:20:37Z</time>
   </trkpt>
   <trkpt lat="22.7270510" lon="120.3189630">
    <ele>11.0</ele>
    <time>2026-10-07T07:20:38Z</time>
   </trkpt>
   <trkpt lat="22.7270140" lon="120.3190200">
    <ele>11.1</ele>
    <time>2026-10-07T07:20:39Z</time>
   </trkpt>
   <trkpt lat="22.7269520" lon="120.3191250">
    <ele>11.4</ele>
    <time>2026-10-07T07:20:40Z</time>
   </trkpt>
   <trkpt lat="22.7269250" lon="120.3191840">
    <ele>11.5</ele>
    <time>2026-10-07T07:20:41Z</time>
   </trkpt>
   <trkpt lat="22.7268330" lon="120.3191940">
    <ele>11.7</ele>
    <time>2026-10-07T07:20:42Z</time>
   </trkpt>
   <trkpt lat="22.7268030" lon="120.3192420">
    <ele>11.8</ele>
    <time>2026-10-07T07:20:43Z</time>
   </trkpt>
   <trkpt lat="22.7267710" lon="120.3192940">
    <ele>11.9</ele>
    <time>2026-10-07T07:20:44Z</time>
   </trkpt>
   <trkpt lat="22.7267380" lon="120.3193470">
    <ele>12.0</ele>
    <time>2026-10-07T07:20:45Z</time>
   </trkpt>
   <trkpt lat="22.7266690" lon="120.3194670">
    <ele>12.3</ele>
    <time>2026-10-07T07:20:46Z</time>
   </trkpt>
   <trkpt lat="22.7266530" lon="120.3195200">
    <ele>12.5</ele>
    <time>2026-10-07T07:20:47Z</time>
   </trkpt>
   <trkpt lat="22.7266390" lon="120.3195620">
    <ele>12.6</ele>
    <time>2026-10-07T07:20:48Z</time>
   </trkpt>
   <trkpt lat="22.7266410" lon="120.3196020">
    <ele>12.8</ele>
    <time>2026-10-07T07:20:49Z</time>
   </trkpt>
   <trkpt lat="22.7266320" lon="120.3196290">
    <ele>13.0</ele>
    <time>2026-10-07T07:20:50Z</time>
   </trkpt>
   <trkpt lat="22.7266140" lon="120.3196470">
    <ele>13.1</ele>
    <time>2026-10-07T07:20:51Z</time>
   </trkpt>
   <trkpt lat="22.7266140" lon="120.3196620">
    <ele>13.2</ele>
    <time>2026-10-07T07:20:52Z</time>
   </trkpt>
   <trkpt lat="22.7266260" lon="120.3196540">
    <ele>13.3</ele>
    <time>2026-10-07T07:20:53Z</time>
   </trkpt>
   <trkpt lat="22.7266260" lon="120.3196780">
    <ele>13.4</ele>
    <time>2026-10-07T07:20:54Z</time>
   </trkpt>
   <trkpt lat="22.7266250" lon="120.3196840">
    <ele>13.4</ele>
    <time>2026-10-07T07:20:55Z</time>
   </trkpt>
   <trkpt lat="22.7266310" lon="120.3196930">
    <ele>13.5</ele>
    <time>2026-10-07T07:20:56Z</time>
   </trkpt>
   <trkpt lat="22.7266320" lon="120.3196950">
    <ele>13.5</ele>
    <time>2026-10-07T07:20:57Z</time>
   </trkpt>
   <trkpt lat="22.7266330" lon="120.3196950">
    <ele>13.5</ele>
    <time>2026-10-07T07:20:58Z</time>
   </trkpt>
   <trkpt lat="22.7266300" lon="120.3196940">
    <ele>13.6</ele>
    <time>2026-10-07T07:20:59Z</time>
   </trkpt>
   <trkpt lat="22.7266300" lon="120.3196950">
    <ele>13.6</ele>
    <time>2026-10-07T07:21:00Z</time>
   </trkpt>
   <trkpt lat="22.7266300" lon="120.3196960">
    <ele>13.6</ele>
    <time>2026-10-07T07:21:01Z</time>
   </trkpt>
   <trkpt lat="22.7266300" lon="120.3196960">
    <ele>13.6</ele>
    <time>2026-10-07T07:21:02Z</time>
   </trkpt>
   <trkpt lat="22.7266300" lon="120.3196960">
    <ele>13.6</ele>
    <time>2026-10-07T07:21:03Z</time>
   </trkpt>
  </trkseg>
 </trk>
</gpx>
