<?xml version="1.0" encoding="UTF-8"?>
<gpx creator="StravaGPX" version="1.1" xmlns="http://www.topografix.com/GPX/1/1" xmlns:xsi="http://www.w3.org/2001/XMLSchema-instance" xsi:schemaLocation="http://www.topografix.com/GPX/1/1 http://www.topografix.com/GPX/1/1/gpx.xsd">
 <trk>
  <name>午後跑步</name>
  <type>running</type>
  <trkseg>
   <trkpt lat="22.7265130" lon="120.3056490">
    <ele>19.9</ele>
   </trkpt>
   <trkpt lat="22.7265130" lon="120.3056490">
    <ele>19.9</ele>
   </trkpt>
   <trkpt lat="22.7265130" lon="120.3056490">
    <ele>19.9</ele>
   </trkpt>
   <trkpt lat="22.7265960" lon="120.3055790">
    <ele>21.7</ele>
   </trkpt>
   <trkpt lat="22.7266070" lon="120.3055920">
    <ele>22.0</ele>
   </trkpt>
   <trkpt lat="22.7266110" lon="120.3055990">
    <ele>22.1</ele>
   </trkpt>
   <trkpt lat="22.7266170" lon="120.3055980">
    <ele>22.2</ele>
   </trkpt>
   <trkpt lat="22.7266230" lon="120.3055980">
    <ele>22.3</ele>
   </trkpt>
   <trkpt lat="22.7266300" lon="120.3055960">
    <ele>22.5</ele>
   </trkpt>
   <trkpt lat="22.7266370" lon="120.3055970">
    <ele>22.6</ele>
   </trkpt>
   <trkpt lat="22.7266390" lon="120.3055970">
    <ele>22.6</ele>
   </trkpt>
   <trkpt lat="22.7266450" lon="120.3055910">
    <ele>22.8</ele>
   </trkpt>
   <trkpt lat="22.7266490" lon="120.3055910">
    <ele>22.8</ele>
   </trkpt>
   <trkpt lat="22.7266550" lon="120.3055900">
    <ele>22.9</ele>
   </trkpt>
   <trkpt lat="22.7266630" lon="120.3055890">
    <ele>23.1</ele>
   </trkpt>
   <trkpt lat="22.7266690" lon="120.3055940">
    <ele>23.2</ele>
   </trkpt>
   <trkpt lat="22.7266790" lon="120.3055960">
    <ele>23.4</ele>
   </trkpt>
   <trkpt lat="22.7266850" lon="120.3055910">
    <ele>23.5</ele>
   </trkpt>
   <trkpt lat="22.7266950" lon="120.3055870">
    <ele>23.7</ele>
   </trkpt>
   <trkpt lat="22.7267090" lon="120.3055750">
    <ele>24.0</ele>
   </trkpt>
   <trkpt lat="22.7267200" lon="120.3055720">
    <ele>24.2</ele>
   </trkpt>
   <trkpt lat="22.7267300" lon="120.3055790">
    <ele>24.4</ele>
   </trkpt>
   <trkpt lat="22.7267390" lon="120.3055800">
    <ele>24.5</ele>
   </trkpt>
   <trkpt lat="22.7267500" lon="120.3055780">
    <ele>24.7</ele>
   </trkpt>
   <trkpt lat="22.7267480" lon="120.3055880">
    <ele>24.9</ele>
   </trkpt>
   <trkpt lat="22.7267360" lon="120.3055860">
    <ele>25.1</ele>
   </trkpt>
   <trkpt lat="22.7267270" lon="120.3055780">
    <ele>25.3</ele>
   </trkpt>
   <trkpt lat="22.7267230" lon="120.3055710">
    <ele>25.4</ele>
   </trkpt>
   <trkpt lat="22.7267070" lon="120.3055610">
    <ele>25.7</ele>
   </trkpt>
   <trkpt lat="22.7266950" lon="120.3055590">
    <ele>25.9</ele>
   </trkpt>
   <trkpt lat="22.7266610" lon="120.3055490">
    <ele>25.0</ele>
   </trkpt>
   <trkpt lat="22.7266340" lon="120.3055510">
    <ele>24.6</ele>
   </trkpt>
   <trkpt lat="22.7266190" lon="120.3055780">
    <ele>24.3</ele>
   </trkpt>
   <trkpt lat="22.7266110" lon="120.3055790">
    <ele>24.2</ele>
   </trkpt>
   <trkpt lat="22.7266060" lon="120.3055740">
    <ele>24.1</ele>
   </trkpt>
   <trkpt lat="22.7266020" lon="120.3055850">
    <ele>24.0</ele>
   </trkpt>
   <trkpt lat="22.7266030" lon="120.3055770">
    <ele>23.9</ele>
   </trkpt>
   <trkpt lat="22.7265910" lon="120.3055690">
    <ele>23.7</ele>
   </trkpt>
   <trkpt lat="22.7265830" lon="120.3055610">
    <ele>23.6</ele>
   </trkpt>
   <trkpt lat="22.7265790" lon="120.3055420">
    <ele>23.4</ele>
   </trkpt>
   <trkpt lat="22.7265840" lon="120.3055300">
    <ele>23.2</ele>
   </trkpt>
   <trkpt lat="22.7265840" lon="120.3055310">
    <ele>23.2</ele>
   </trkpt>
   <trkpt lat="22.7265870" lon="120.3055260">
    <ele>23.1</ele>
   </trkpt>
   <trkpt lat="22.7266030" lon="120.3055210">
    <ele>23.0</ele>
   </trkpt>
   <trkpt lat="22.7265870" lon="120.3055110">
    <ele>22.7</ele>
   </trkpt>
   <trkpt lat="22.7265700" lon="120.3054980">
    <ele>22.5</ele>
   </trkpt>
   <trkpt lat="22.7265840" lon="120.3055180">
    <ele>22.2</ele>
   </trkpt>
   <trkpt lat="22.7265900" lon="120.3055440">
    <ele>21.9</ele>
   </trkpt>
   <trkpt lat="22.7265930" lon="120.3055530">
    <ele>21.8</ele>
   </trkpt>
   <trkpt lat="22.7265740" lon="120.3055630">
    <ele>21.6</ele>
   </trkpt>
   <trkpt lat="22.7265670" lon="120.3055670">
    <ele>21.5</ele>
   </trkpt>
   <trkpt lat="22.7265640" lon="120.3055670">
    <ele>21.4</ele>
   </trkpt>
   <trkpt lat="22.7265650" lon="120.3055680">
    <ele>21.4</ele>
   </trkpt>
   <trkpt lat="22.7265530" lon="120.3055720">
    <ele>21.3</ele>
   </trkpt>
   <trkpt lat="22.7265470" lon="120.3055780">
    <ele>21.2</ele>
   </trkpt>
   <trkpt lat="22.7265470" lon="120.3055880">
    <ele>21.0</ele>
   </trkpt>
   <trkpt lat="22.7265610" lon="120.3055930">
    <ele>20.9</ele>
   </trkpt>
   <trkpt lat="22.7265700" lon="120.3055870">
    <ele>20.7</ele>
   </trkpt>
   <trkpt lat="22.7265780" lon="120.3055890">
    <ele>20.6</ele>
   </trkpt>
   <trkpt lat="22.7266020" lon="120.3055980">
    <ele>20.3</ele>
   </trkpt>
   <trkpt lat="22.7266000" lon="120.3056100">
    <ele>20.2</ele>
   </trkpt>
   <trkpt lat="22.7265830" lon="120.3056040">
    <ele>20.0</ele>
   </trkpt>
   <trkpt lat="22.7265700" lon="120.3056070">
    <ele>19.8</ele>
   </trkpt>
   <trkpt lat="22.7265600" lon="120.3055990">
    <ele>19.7</ele>
   </trkpt>
   <trkpt lat="22.7265490" lon="120.3055950">
    <ele>19.5</ele>
   </trkpt>
   <trkpt lat="22.7265450" lon="120.3055920">
    <ele>19.5</ele>
   </trkpt>
   <trkpt lat="22.7265370" lon="120.3055900">
    <ele>19.4</ele>
   </trkpt>
   <trkpt lat="22.7265270" lon="120.3055850">
    <ele>19.3</ele>
   </trkpt>
   <trkpt lat="22.7265180" lon="120.3055800">
    <ele>19.1</ele>
   </trkpt>
   <trkpt lat="22.7265070" lon="120.3055690">
    <ele>19.0</ele>
   </trkpt>
   <trkpt lat="22.7264990" lon="120.3055580">
    <ele>18.8</ele>
   </trkpt>
   <trkpt lat="22.7264940" lon="120.3055560">
    <ele>18.7</ele>
   </trkpt>
   <trkpt lat="22.7264920" lon="120.3055560">
    <ele>18.7</ele>
   </trkpt>
   <trkpt lat="22.7264890" lon="120.3055570">
    <ele>18.7</ele>
   </trkpt>
   <trkpt lat="22.7264860" lon="120.3055450">
    <ele>18.5</ele>
   </trkpt>
   <trkpt lat="22.7264760" lon="120.3055480">
    <ele>18.5</ele>
   </trkpt>
   <trkpt lat="22.7264390" lon="120.3055410">
    <ele>18.7</ele>
   </trkpt>
   <trkpt lat="22.7264190" lon="120.3055180">
    <ele>19.3</ele>
   </trkpt>
   <trkpt lat="22.7264020" lon="120.3055010">
    <ele>19.7</ele>
   </trkpt>
   <trkpt lat="22.7264900" lon="120.3054830">
    <ele>18.6</ele>
   </trkpt>
   <trkpt lat="22.7265860" lon="120.3055480">
    <ele>18.5</ele>
   </trkpt>
   <trkpt lat="22.7266030" lon="120.3055720">
    <ele>18.5</ele>
   </trkpt>
   <trkpt lat="22.7266200" lon="120.3055950">
    <ele>18.5</ele>
   </trkpt>
   <trkpt lat="22.7266190" lon="120.3056030">
    <ele>18.5</ele>
   </trkpt>
   <trkpt lat="22.7266110" lon="120.3055910">
    <ele>18.5</ele>
   </trkpt>
   <trkpt lat="22.7265920" lon="120.3056090">
    <ele>18.5</ele>
   </trkpt>
   <trkpt lat="22.7265850" lon="120.3056080">
    <ele>18.5</ele>
   </trkpt>
   <trkpt lat="22.7265780" lon="120.3055970">
    <ele>18.5</ele>
   </trkpt>
   <trkpt lat="22.7265730" lon="120.3055950">
    <ele>18.5</ele>
   </trkpt>
   <trkpt lat="22.7265680" lon="120.3055990">
    <ele>18.5</ele>
   </trkpt>
   <trkpt lat="22.7265620" lon="120.3055930">
    <ele>18.5</ele>
   </trkpt>
   <trkpt lat="22.7265580" lon="120.3056060">
    <ele>18.5</ele>
   </trkpt>
   <trkpt lat="22.7265740" lon="120.3056140">
    <ele>18.4</ele>
   </trkpt>
   <trkpt lat="22.7265720" lon="120.3056200">
    <ele>18.4</ele>
   </trkpt>
   <trkpt lat="22.7265670" lon="120.3056240">
    <ele>18.4</ele>
   </trkpt>
   <trkpt lat="22.7265570" lon="120.3056240">
    <ele>18.4</ele>
   </trkpt>
   <trkpt lat="22.7265580" lon="120.3056230">
    <ele>18.4</ele>
   </trkpt>
   <trkpt lat="22.7265640" lon="120.3056260">
    <ele>18.4</ele>
   </trkpt>
   <trkpt lat="22.7265630" lon="120.3056310">
    <ele>18.4</ele>
   </trkpt>
   <trkpt lat="22.7265640" lon="120.3056480">
    <ele>18.4</ele>
   </trkpt>
   <trkpt lat="22.7265680" lon="120.3056460">
    <ele>18.4</ele>
   </trkpt>
   <trkpt lat="22.7265690" lon="120.3056600">
    <ele>18.4</ele>
   </trkpt>
   <trkpt lat="22.7265620" lon="120.3056700">
    <ele>18.4</ele>
   </trkpt>
   <trkpt lat="22.7265560" lon="120.3056790">
    <ele>18.4</ele>
   </trkpt>
   <trkpt lat="22.7265470" lon="120.3056830">
    <ele>18.4</ele>
   </trkpt>
   <trkpt lat="22.7265340" lon="120.3057110">
    <ele>18.4</ele>
   </trkpt>
   <trkpt lat="22.7265260" lon="120.3057260">
    <ele>18.4</ele>
   </trkpt>
   <trkpt lat="22.7265250" lon="120.3057410">
    <ele>18.3</ele>
   </trkpt>
   <trkpt lat="22.7265210" lon="120.3057530">
    <ele>18.3</ele>
   </trkpt>
   <trkpt lat="22.7265160" lon="120.3057560">
    <ele>18.3</ele>
   </trkpt>
   <trkpt lat="22.7265120" lon="120.3057700">
    <ele>18.3</ele>
   </trkpt>
   <trkpt lat="22.7265030" lon="120.3057830">
    <ele>18.3</ele>
   </trkpt>
   <trkpt lat="22.7264970" lon="120.3057930">
    <ele>18.3</ele>
   </trkpt>
   <trkpt lat="22.7264910" lon="120.3058020">
    <ele>18.3</ele>
   </trkpt>
   <trkpt lat="22.7264890" lon="120.3058120">
    <ele>18.3</ele>
   </trkpt>
   <trkpt lat="22.7264850" lon="120.3058200">
    <ele>18.3</ele>
   </trkpt>
   <trkpt lat="22.7264900" lon="120.3058330">
    <ele>18.3</ele>
   </trkpt>
   <trkpt lat="22.7265010" lon="120.3058430">
    <ele>18.3</ele>
   </trkpt>
   <trkpt lat="22.7264980" lon="120.3058610">
    <ele>18.3</ele>
   </trkpt>
   <trkpt lat="22.7264980" lon="120.3058700">
    <ele>18.3</ele>
   </trkpt>
   <trkpt lat="22.7265020" lon="120.3058690">
    <ele>18.3</ele>
   </trkpt>
   <trkpt lat="22.7265010" lon="120.3058740">
    <ele>18.3</ele>
   </trkpt>
   <trkpt lat="22.7265040" lon="120.3058900">
    <ele>18.3</ele>
   </trkpt>
   <trkpt lat="22.7265180" lon="120.3058980">
    <ele>18.3</ele>
   </trkpt>
   <trkpt lat="22.7265160" lon="120.3059010">
    <ele>18.3</ele>
   </trkpt>
   <trkpt lat="22.7265160" lon="120.3059120">
    <ele>18.3</ele>
   </trkpt>
   <trkpt lat="22.7265180" lon="120.3059310">
    <ele>18.3</ele>
   </trkpt>
   <trkpt lat="22.7265180" lon="120.3059520">
    <ele>18.3</ele>
   </trkpt>
   <trkpt lat="22.7265190" lon="120.3059690">
    <ele>18.3</ele>
   </trkpt>
   <trkpt lat="22.7265220" lon="120.3059870">
    <ele>18.2</ele>
   </trkpt>
   <trkpt lat="22.7265270" lon="120.3060000">
    <ele>18.2</ele>
   </trkpt>
   <trkpt lat="22.7265240" lon="120.3060090">
    <ele>18.2</ele>
   </trkpt>
   <trkpt lat="22.7265260" lon="120.3060190">
    <ele>18.2</ele>
   </trkpt>
   <trkpt lat="22.7265400" lon="120.3060300">
    <ele>18.2</ele>
   </trkpt>
   <trkpt lat="22.7265520" lon="120.3060420">
    <ele>18.2</ele>
   </trkpt>
   <trkpt lat="22.7265590" lon="120.3060460">
    <ele>18.2</ele>
   </trkpt>
   <trkpt lat="22.7265700" lon="120.3060560">
    <ele>18.2</ele>
   </trkpt>
   <trkpt lat="22.7265820" lon="120.3060660">
    <ele>18.2</ele>
   </trkpt>
   <trkpt lat="22.7265920" lon="120.3060660">
    <ele>18.2</ele>
   </trkpt>
   <trkpt lat="22.7266050" lon="120.3060660">
    <ele>18.2</ele>
   </trkpt>
   <trkpt lat="22.7266140" lon="120.3060640">
    <ele>18.2</ele>
   </trkpt>
   <trkpt lat="22.7266090" lon="120.3060670">
    <ele>18.2</ele>
   </trkpt>
   <trkpt lat="22.7266140" lon="120.3060780">
    <ele>18.2</ele>
   </trkpt>
   <trkpt lat="22.7266170" lon="120.3060880">
    <ele>18.2</ele>
   </trkpt>
   <trkpt lat="22.7266220" lon="120.3060990">
    <ele>18.2</ele>
   </trkpt>
   <trkpt lat="22.7266310" lon="120.3061040">
    <ele>18.2</ele>
   </trkpt>
   <trkpt lat="22.7266330" lon="120.3061060">
    <ele>18.2</ele>
   </trkpt>
   <trkpt lat="22.7266330" lon="120.3061100">
    <ele>18.2</ele>
   </trkpt>
   <trkpt lat="22.7266340" lon="120.3061080">
    <ele>18.2</ele>
   </trkpt>
   <trkpt lat="22.7266370" lon="120.3061090">
    <ele>18.2</ele>
   </trkpt>
   <trkpt lat="22.7266360" lon="120.3061090">
    <ele>18.2</ele>
   </trkpt>
   <trkpt lat="22.7266330" lon="120.3061100">
    <ele>18.2</ele>
   </trkpt>
   <trkpt lat="22.7266320" lon="120.3061190">
    <ele>18.2</ele>
   </trkpt>
   <trkpt lat="22.7266280" lon="120.3061190">
    <ele>18.2</ele>
   </trkpt>
   <trkpt lat="22.7266250" lon="120.3061280">
    <ele>18.2</ele>
   </trkpt>
   <trkpt lat="22.7266230" lon="120.3061300">
    <ele>18.2</ele>
   </trkpt>
   <trkpt lat="22.7266150" lon="120.3061280">
    <ele>18.2</ele>
   </trkpt>
   <trkpt lat="22.7266150" lon="120.3061270">
    <ele>18.2</ele>
   </trkpt>
   <trkpt lat="22.7266150" lon="120.3061330">
    <ele>18.2</ele>
   </trkpt>
   <trkpt lat="22.7266100" lon="120.3061330">
    <ele>18.2</ele>
   </trkpt>
   <trkpt lat="22.7266020" lon="120.3061360">
    <ele>18.2</ele>
   </trkpt>
   <trkpt lat="22.7266010" lon="120.3061360">
    <ele>18.2</ele>
   </trkpt>
   <trkpt lat="22.7266010" lon="120.3061360">
    <ele>18.2</ele>
   </trkpt>
   <trkpt lat="22.7266010" lon="120.3061360">
    <ele>18.2</ele>
   </trkpt>
   <trkpt lat="22.7265940" lon="120.3061370">
    <ele>18.2</ele>
   </trkpt>
   <trkpt lat="22.7265910" lon="120.3061390">
    <ele>18.2</ele>
   </trkpt>
   <trkpt lat="22.7265900" lon="120.3061400">
    <ele>18.2</ele>
   </trkpt>
   <trkpt lat="22.7265900" lon="120.3061380">
    <ele>18.2</ele>
   </trkpt>
   <trkpt lat="22.7265940" lon="120.3061400">
    <ele>18.2</ele>
   </trkpt>
   <trkpt lat="22.7266100" lon="120.3061270">
    <ele>18.2</ele>
   </trkpt>
   <trkpt lat="22.7266120" lon="120.3061240">
    <ele>18.2</ele>
   </trkpt>
   <trkpt lat="22.7266360" lon="120.3061120">
    <ele>18.2</ele>
   </trkpt>
   <trkpt lat="22.7266490" lon="120.3061120">
    <ele>18.2</ele>
   </trkpt>
   <trkpt lat="22.7266320" lon="120.3061120">
    <ele>18.2</ele>
   </trkpt>
   <trkpt lat="22.7266260" lon="120.3061160">
    <ele>18.2</ele>
   </trkpt>
   <trkpt lat="22.7266300" lon="120.3061230">
    <ele>18.2</ele>
   </trkpt>
   <trkpt lat="22.7266400" lon="120.3061310">
    <ele>18.2</ele>
   </trkpt>
   <trkpt lat="22.7266350" lon="120.3061430">
    <ele>18.2</ele>
   </trkpt>
   <trkpt lat="22.7266170" lon="120.3061430">
    <ele>18.2</ele>
   </trkpt>
   <trkpt lat="22.7266200" lon="120.3061500">
    <ele>18.2</ele>
   </trkpt>
   <trkpt lat="22.7266240" lon="120.3061580">
    <ele>18.2</ele>
   </trkpt>
   <trkpt lat="22.7266330" lon="120.3061650">
    <ele>18.2</ele>
   </trkpt>
   <trkpt lat="22.7266380" lon="120.3061840">
    <ele>18.2</ele>
   </trkpt>
   <trkpt lat="22.7266320" lon="120.3061930">
    <ele>18.2</ele>
   </trkpt>
   <trkpt lat="22.7266290" lon="120.3062030">
    <ele>18.2</ele>
   </trkpt>
   <trkpt lat="22.7266290" lon="120.3062120">
    <ele>18.2</ele>
   </trkpt>
   <trkpt lat="22.7266340" lon="120.3062180">
    <ele>18.2</ele>
   </trkpt>
   <trkpt lat="22.7266120" lon="120.3062230">
    <ele>18.2</ele>
   </trkpt>
   <trkpt lat="22.7266120" lon="120.3062250">
    <ele>18.2</ele>
   </trkpt>
   <trkpt lat="22.7266230" lon="120.3062280">
    <ele>18.2</ele>
   </trkpt>
   <trkpt lat="22.7266230" lon="120.3062330">
    <ele>18.2</ele>
   </trkpt>
   <trkpt lat="22.7266180" lon="120.3062320">
    <ele>18.2</ele>
   </trkpt>
   <trkpt lat="22.7266230" lon="120.3062360">
    <ele>18.2</ele>
   </trkpt>
   <trkpt lat="22.7265930" lon="120.3062600">
    <ele>18.2</ele>
   </trkpt>
   <trkpt lat="22.7265810" lon="120.3062570">
    <ele>18.2</ele>
   </trkpt>
   <trkpt lat="22.7265830" lon="120.3062560">
    <ele>18.2</ele>
   </trkpt>
   <trkpt lat="22.7265770" lon="120.3062540">
    <ele>18.2</ele>
   </trkpt>
   <trkpt lat="22.7265790" lon="120.3062550">
    <ele>18.2</ele>
   </trkpt>
   <trkpt lat="22.7265770" lon="120.3062480">
    <ele>18.2</ele>
   </trkpt>
   <trkpt lat="22.7265700" lon="120.3062430">
    <ele>18.2</ele>
   </trkpt>
   <trkpt lat="22.7265640" lon="120.3062370">
    <ele>18.2</ele>
   </trkpt>
   <trkpt lat="22.7265610" lon="120.3062390">
    <ele>18.2</ele>
   </trkpt>
   <trkpt lat="22.7265600" lon="120.3062330">
    <ele>18.2</ele>
   </trkpt>
   <trkpt lat="22.7265560" lon="120.3062290">
    <ele>18.2</ele>
   </trkpt>
   <trkpt lat="22.7265550" lon="120.3062310">
    <ele>18.2</ele>
   </trkpt>
   <trkpt lat="22.7265520" lon="120.3062340">
    <ele>18.2</ele>
   </trkpt>
   <trkpt lat="22.7265560" lon="120.3062390">
    <ele>18.2</ele>
   </trkpt>
   <trkpt lat="22.7265470" lon="120.3062330">
    <ele>18.2</ele>
   </trkpt>
   <trkpt lat="22.7265430" lon="120.3062280">
    <ele>18.2</ele>
   </trkpt>
   <trkpt lat="22.7265560" lon="120.3062350">
    <ele>18.2</ele>
   </trkpt>
   <trkpt lat="22.7265580" lon="120.3062290">
    <ele>18.2</ele>
   </trkpt>
   <trkpt lat="22.7265590" lon="120.3062350">
    <ele>18.2</ele>
   </trkpt>
   <trkpt lat="22.7265670" lon="120.3062310">
    <ele>18.2</ele>
   </trkpt>
   <trkpt lat="22.7265670" lon="120.3062250">
    <ele>18.2</ele>
   </trkpt>
   <trkpt lat="22.7265820" lon="120.3062340">
    <ele>18.2</ele>
   </trkpt>
   <trkpt lat="22.7265840" lon="120.3062400">
    <ele>18.2</ele>
   </trkpt>
   <trkpt lat="22.7265860" lon="120.3062390">
    <ele>18.2</ele>
   </trkpt>
   <trkpt lat="22.7265820" lon="120.3062320">
    <ele>18.2</ele>
   </trkpt>
   <trkpt lat="22.7265940" lon="120.3062350">
    <ele>18.2</ele>
   </trkpt>
   <trkpt lat="22.7266000" lon="120.3062290">
    <ele>18.2</ele>
   </trkpt>
   <trkpt lat="22.7265940" lon="120.3062560">
    <ele>18.2</ele>
   </trkpt>
   <trkpt lat="22.7265910" lon="120.3062680">
    <ele>18.2</ele>
   </trkpt>
   <trkpt lat="22.7266090" lon="120.3062700">
    <ele>18.2</ele>
   </trkpt>
   <trkpt lat="22.7266170" lon="120.3062740">
    <ele>18.2</ele>
   </trkpt>
   <trkpt lat="22.7266220" lon="120.3062770">
    <ele>18.2</ele>
   </trkpt>
   <trkpt lat="22.7266300" lon="120.3062740">
    <ele>18.2</ele>
   </trkpt>
   <trkpt lat="22.7266210" lon="120.3062760">
    <ele>18.2</ele>
   </trkpt>
   <trkpt lat="22.7266380" lon="120.3062790">
    <ele>18.2</ele>
   </trkpt>
   <trkpt lat="22.7266450" lon="120.3062730">
    <ele>18.2</ele>
   </trkpt>
   <trkpt lat="22.7266510" lon="120.3062850">
    <ele>18.3</ele>
   </trkpt>
   <trkpt lat="22.7266580" lon="120.3062970">
    <ele>18.3</ele>
   </trkpt>
   <trkpt lat="22.7266640" lon="120.3063040">
    <ele>18.3</ele>
   </trkpt>
   <trkpt lat="22.7266630" lon="120.3063120">
    <ele>18.3</ele>
   </trkpt>
   <trkpt lat="22.7266620" lon="120.3063220">
    <ele>18.3</ele>
   </trkpt>
   <trkpt lat="22.7266490" lon="120.3063360">
    <ele>18.3</ele>
   </trkpt>
   <trkpt lat="22.7266490" lon="120.3063430">
    <ele>18.3</ele>
   </trkpt>
   <trkpt lat="22.7266550" lon="120.3063420">
    <ele>18.3</ele>
   </trkpt>
   <trkpt lat="22.7266590" lon="120.3063400">
    <ele>18.3</ele>
   </trkpt>
   <trkpt lat="22.7266490" lon="120.3063370">
    <ele>18.3</ele>
   </trkpt>
   <trkpt lat="22.7266420" lon="120.3063360">
    <ele>18.3</ele>
   </trkpt>
   <trkpt lat="22.7266450" lon="120.3063400">
    <ele>18.3</ele>
   </trkpt>
   <trkpt lat="22.7266470" lon="120.3063430">
    <ele>18.3</ele>
   </trkpt>
   <trkpt lat="22.7266470" lon="120.3063460">
    <ele>18.3</ele>
   </trkpt>
   <trkpt lat="22.7266500" lon="120.3063500">
    <ele>18.3</ele>
   </trkpt>
   <trkpt lat="22.7266610" lon="120.3063520">
    <ele>18.3</ele>
   </trkpt>
   <trkpt lat="22.7266640" lon="120.3063580">
    <ele>18.3</ele>
   </trkpt>
   <trkpt lat="22.7266750" lon="120.3063590">
    <ele>18.3</ele>
   </trkpt>
   <trkpt lat="22.7266870" lon="120.3063530">
    <ele>18.3</ele>
   </trkpt>
   <trkpt lat="22.7266960" lon="120.3063540">
    <ele>18.3</ele>
   </trkpt>
   <trkpt lat="22.7266930" lon="120.3063520">
    <ele>18.3</ele>
   </trkpt>
   <trkpt lat="22.7266930" lon="120.3063520">
    <ele>18.3</ele>
   </trkpt>
  </trkseg>
 </trk>
</gpx>
